idEvent,Countrycode,Country,Location,Lat,Long,BufferEvent,BufferLocation,TrsBndry,LocDesc,Start,End,DateEst,StartDesc,Type,TypeDesc,EvDesc,FatEst,FatDesc,FatMn,FatMx,FatCivMn,FatCivMx,FatMilMn,FatMilMx,idActor0,ActActiv0,ActAly0,ActUncon0,ActName0,ActDesc0,ActLead0,idActor1,ActActiv1,ActAly1,ActUncon1,ActName1,ActDesc1,ActLead1,idActor2,ActActiv2,ActAly2,ActUncon2,ActName2,ActDesc2,ActLead2,idActor3,ActActiv3,ActAly3,ActUncon3,ActName3,ActDesc3,ActLead3,idActor4,ActActiv4,ActAly4,ActUncon4,ActName4,ActDesc4,ActLead4,idActor5,ActActiv5,ActAly5,ActUncon5,ActName5,ActDesc5,ActLead5,idActor6,ActActiv6,ActAly6,ActUncon6,ActName6,ActDesc6,ActLead6,idSrce0,SrceDate0,SrceName0,SrceBias0,idSrce1,SrceDate1,SrceName1,SrceBias1,idSrce2,SrceDate2,SrceName2,SrceBias2,idSrce3,SrceDate3,SrceName3,SrceBias3,idSrce4,SrceDate4,SrceName4,SrceBias4,idSrce5,SrceDate5,SrceName5,SrceBias5,idSrce6,SrceDate6,SrceName6,SrceBias6,idSrce7,SrceDate7,SrceName7,SrceBias7,idSrce8,SrceDate8,SrceName8,SrceBias8,idSrce9,SrceDate9,SrceName9,SrceBias9,idSrce10,SrceDate10,SrceName10,SrceBias10,idSrce11,SrceDate11,SrceName11,SrceBias11,idSrce12,SrceDate12,SrceName12,SrceBias12,idSrce13,SrceDate13,SrceName13,SrceBias13,idSrce14,SrceDate14,SrceName14,SrceBias14,idSrce15,SrceDate15,SrceName15,SrceBias15
2456,LBR,Liberia,Bomi County,"6,7","-10,81","26,1",0,0,,1994-05-03,1994-05-03,1,date of report,Fighting,Fighting,Tribal infighting with in ULIMO,1,several in three places,0,6,0,0,0,0,314,0,0,0,Ulimo-J,United Liberation Movement of Liberia for Democracy-Johnson faction (ULIMO-J),General Roosevelt Johnson/,316,0,0,0,Ulimo-K,"Ulimo-K, United Liberation Movement of Liberia for Democracy, Kromah faction",Alhaji G/V/ Kromah/,11,0,0,0,Unspecified actor,Unspecified actor,,NA,0,NA,0,,,,NA,0,NA,0,,,,NA,0,NA,0,,,,NA,0,NA,0,,,,86,03/05/1994,BBC Monitoring,2,NA,,,NA,NA,,,NA,NA,,,NA,NA,,,NA,NA,,,NA,NA,,,NA,NA,,,NA,NA,,,NA,NA,,,NA,NA,,,NA,NA,,,NA,NA,,,NA,NA,,,NA,NA,,,NA,NA,,,NA
2431,LBR,Liberia,Brewerville,"6,42","-10,78",0,0,0,,1994-06-26,1994-06-26,1,date of broadcast,One-sided attack,Unclear,Ulimo Mandingo faction attacks ECOMOG killing civilians,1,scores of civilians are reported to have been massacred,1,2,1,2,0,0,316,1,0,0,Ulimo-K,"Ulimo-K, United Liberation Movement of Liberia for Democracy, Kromah faction",Alhaji G/V/ Kromah/,321,0,0,0,ECOMOG,"ECOMOG, Community of West African States Monitoring Group",,25,0,0,0,Civilian(s),Civilian(s),,NA,0,NA,0,,,,NA,0,NA,0,,,,NA,0,NA,0,,,,NA,0,NA,0,,,,86,26/06/1994,BBC Monitoring,2,NA,,,NA,NA,,,NA,NA,,,NA,NA,,,NA,NA,,,NA,NA,,,NA,NA,,,NA,NA,,,NA,NA,,,NA,NA,,,NA,NA,,,NA,NA,,,NA,NA,,,NA,NA,,,NA,NA,,,NA
2308,LBR,Liberia,Klay,"6,69","-10,87",0,0,0,"""Simon Klay Junction, 40 km from Monrovia/"" --> used 'Klay'",2002-03-02,2002-03-02,1,Date of the original source is used,Fighting,Fighting,Rebel offensive in northwest,0,,4,4,3,3,1,1,349,0,0,0,Antiterrorist Unit (ATU),"Antiterrorist Unit: The regular security forces include the Antiterrorist Unit (ATU), which is composed of an elite special forces group consisting predominately of foreign nationals from Burkina Faso and The Gambia, as well as former Revolutionary United Front (RUF) combatants from Sierra Leone/ The ATU absorbed Taylor's most experienced civil war fighters, including undisciplined and untrained loyalists/",,343,0,0,0,Liberians United for Reconciliation and Democracy (LURD),"Liberians United for Reconciliation and Democracy/ The group is essentially a loose coalition of anti-Taylor forces, drawing upon a variety of militia factions and refugee groups, increasingly backed by Guinea, with more indirect support from Sierra Leone, the U/ S/ and Great Britain/",,NA,0,NA,0,,,,NA,0,NA,0,,,,NA,0,NA,0,,,,NA,0,NA,0,,,,NA,0,NA,0,,,,94,12/03/2002,BBC Monitoring,0,NA,,,NA,NA,,,NA,NA,,,NA,NA,,,NA,NA,,,NA,NA,,,NA,NA,,,NA,NA,,,NA,NA,,,NA,NA,,,NA,NA,,,NA,NA,,,NA,NA,,,NA,NA,,,NA,NA,,,NA
2373,LBR,Liberia,Klay,"6,69","-10,87",0,0,0,,1992-09-25,1992-09-25,0,,One-sided attack,Unclear,At least 300 killed by rebel forces,0,,300,370,300,370,0,0,328,1,0,1,National Patriotic Front of Liberia (NPFL),National Patriotic Front of Liberia (NPFL),Charles Taylor,25,0,0,0,Civilian(s),Civilian(s),,NA,0,NA,0,,,,NA,0,NA,0,,,,NA,0,NA,0,,,,NA,0,NA,0,,,,NA,0,NA,0,,,,84,29/09/1992,New York Times,1,84,30/09/1992,BBC Monitoring,1,NA,,,NA,NA,,,NA,NA,,,NA,NA,,,NA,NA,,,NA,NA,,,NA,NA,,,NA,NA,,,NA,NA,,,NA,NA,,,NA,NA,,,NA,NA,,,NA,NA,,,NA,NA,,,NA
2430,LBR,Liberia,Kle,"6,69","-10,87",0,0,0,,1994-05-21,1994-05-21,1,date of broadcast,Fighting,Fighting,Clashes between ULIMO factions,1,biased source,1,3,0,0,1,3,314,0,0,0,Ulimo-J,United Liberation Movement of Liberia for Democracy-Johnson faction (ULIMO-J),General Roosevelt Johnson/,316,0,0,0,Ulimo-K,"Ulimo-K, United Liberation Movement of Liberia for Democracy, Kromah faction",Alhaji G/V/ Kromah/,NA,0,NA,0,,,,NA,0,NA,0,,,,NA,0,NA,0,,,,NA,0,NA,0,,,,NA,0,NA,0,,,,86,21/05/1994,BBC Monitoring,2,NA,,,NA,NA,,,NA,NA,,,NA,NA,,,NA,NA,,,NA,NA,,,NA,NA,,,NA,NA,,,NA,NA,,,NA,NA,,,NA,NA,,,NA,NA,,,NA,NA,,,NA,NA,,,NA,NA,,,NA
2429,LBR,Liberia,Tubmanburg,"6,87","-10,82",0,0,0,,1994-03-26,1994-03-28,1,three days of fighting including day of report,Fighting,Fighting,80 dead in clashes between ULIMO supporters,0,,80,80,0,0,0,0,314,0,0,0,Ulimo-J,United Liberation Movement of Liberia for Democracy-Johnson faction (ULIMO-J),General Roosevelt Johnson/,316,0,0,0,Ulimo-K,"Ulimo-K, United Liberation Movement of Liberia for Democracy, Kromah faction",Alhaji G/V/ Kromah/,NA,0,NA,0,,,,NA,0,NA,0,,,,NA,0,NA,0,,,,NA,0,NA,0,,,,NA,0,NA,0,,,,86,28/03/1994,BBC Monitoring,0,NA,,,NA,NA,,,NA,NA,,,NA,NA,,,NA,NA,,,NA,NA,,,NA,NA,,,NA,NA,,,NA,NA,,,NA,NA,,,NA,NA,,,NA,NA,,,NA,NA,,,NA,NA,,,NA,NA,,,NA
2452,LBR,Liberia,Tubmanburg,"6,87","-10,82",0,0,0,,1995-05-12,1995-05-12,0,,Fighting,Fighting,ECOMOG clashes with ULIMO factions,0,,13,13,0,0,13,13,321,0,0,0,ECOMOG,"ECOMOG, Community of West African States Monitoring Group",,314,0,0,0,Ulimo-J,United Liberation Movement of Liberia for Democracy-Johnson faction (ULIMO-J),General Roosevelt Johnson/,316,0,0,0,Ulimo-K,"Ulimo-K, United Liberation Movement of Liberia for Democracy, Kromah faction",Alhaji G/V/ Kromah/,NA,0,NA,0,,,,NA,0,NA,0,,,,NA,0,NA,0,,,,NA,0,NA,0,,,,87,18/05/1995,BBC Monitoring,0,NA,,,NA,NA,,,NA,NA,,,NA,NA,,,NA,NA,,,NA,NA,,,NA,NA,,,NA,NA,,,NA,NA,,,NA,NA,,,NA,NA,,,NA,NA,,,NA,NA,,,NA,NA,,,NA,NA,,,NA
2463,LBR,Liberia,Tubmanburg,"6,87","-10,82",0,0,0,,1994-10-01,1994-10-02,0,,Fighting,Fighting,ECOMOG tries to stop inner-ULIMO fightings,1,several ULIMOs and ECOMOG soldiers,4,4,0,0,4,4,314,0,0,0,Ulimo-J,United Liberation Movement of Liberia for Democracy-Johnson faction (ULIMO-J),General Roosevelt Johnson/,316,0,0,0,Ulimo-K,"Ulimo-K, United Liberation Movement of Liberia for Democracy, Kromah faction",Alhaji G/V/ Kromah/,321,0,0,0,ECOMOG,"ECOMOG, Community of West African States Monitoring Group",,NA,0,NA,0,,,,NA,0,NA,0,,,,NA,0,NA,0,,,,NA,0,NA,0,,,,86,03/05/1994,BBC Monitoring,2,NA,,,NA,NA,,,NA,NA,,,NA,NA,,,NA,NA,,,NA,NA,,,NA,NA,,,NA,NA,,,NA,NA,,,NA,NA,,,NA,NA,,,NA,NA,,,NA,NA,,,NA,NA,,,NA,NA,,,NA
2464,LBR,Liberia,Tubmanburg,"6,87","-10,82",0,10,0,"""around Tubmanburg""",1995-12-28,1996-01-08,1,time of fightings,Fighting,Fighting,3 ECOMOG soldiers killed in fighting with ULIMO-J,1,more than 50 civilians and more than 60 soldiers died,112,112,51,51,61,61,321,0,0,0,ECOMOG,"ECOMOG, Community of West African States Monitoring Group",,314,0,0,0,Ulimo-J,United Liberation Movement of Liberia for Democracy-Johnson faction (ULIMO-J),General Roosevelt Johnson/,NA,0,NA,0,,,,NA,0,NA,0,,,,NA,0,NA,0,,,,NA,0,NA,0,,,,NA,0,NA,0,,,,88,01/01/1996,New York Times,0,88,02/01/1996,New York Times,0,88,04/01/1996,New York Times,0,88,02/01/1996,The Guardian,0,88,11/01/1996,New York Times,0,NA,,,NA,NA,,,NA,NA,,,NA,NA,,,NA,NA,,,NA,NA,,,NA,NA,,,NA,NA,,,NA,NA,,,NA,NA,,,NA,NA,,,NA
2369,LBR,Liberia,Tubmanburg,"6,87","-10,82",0,0,0,,1992-08-15,1992-08-16,0,,Unclear,Unclear,Via and Gola killed,1,members of both tribes,2,2,0,0,0,0,328,0,0,0,National Patriotic Front of Liberia (NPFL),National Patriotic Front of Liberia (NPFL),Charles Taylor,315,0,0,0,United Liberation Movement for Democracy in Liberia,"The United Liberation Movement of Liberia for Democracy (ULIMO) was a rebel group that participated in the First Liberian Civil War (1989-1996)/From its outset, ULIMO was beset with internal divisions and the group effectively broke into two separate militias in 1994: ULIMO-J, an ethnic Krahn faction led by General Roosevelt Johnson and ULIMO-K, a Mandingo-based faction led by Alhaji G/V/ Kromah/",,NA,0,NA,0,,,,NA,0,NA,0,,,,NA,0,NA,0,,,,NA,0,NA,0,,,,NA,0,NA,0,,,,84,21/08/1992,BBC Monitoring,0,NA,,,NA,NA,,,NA,NA,,,NA,NA,,,NA,NA,,,NA,NA,,,NA,NA,,,NA,NA,,,NA,NA,,,NA,NA,,,NA,NA,,,NA,NA,,,NA,NA,,,NA,NA,,,NA,NA,,,NA
2311,LBR,Liberia,Tubmanburg,"6,87","-10,82",0,0,0,"""they recaptured the town of Tubmanburg,""",2002-07-09,2002-07-21,1,The whole Operation Percupine started approx/ on 09/07 and lasted until the 21st/,Fighting,Fighting,"Army recaptured eastern town,",1,official numbers/,100,400,0,0,100,400,319,0,0,0,Armed Forces of Liberia (AFL),Armed Forces of Liberia (AFL),,343,0,0,0,Liberians United for Reconciliation and Democracy (LURD),"Liberians United for Reconciliation and Democracy/ The group is essentially a loose coalition of anti-Taylor forces, drawing upon a variety of militia factions and refugee groups, increasingly backed by Guinea, with more indirect support from Sierra Leone, the U/ S/ and Great Britain/",,NA,0,NA,0,,,,NA,0,NA,0,,,,NA,0,NA,0,,,,NA,0,NA,0,,,,NA,0,NA,0,,,,94,22/07/2002,BBC Monitoring,2,94,23/07/2002,BBC Monitoring,2,94,23/07/2002,BBC Monitoring,2,NA,,,NA,NA,,,NA,NA,,,NA,NA,,,NA,NA,,,NA,NA,,,NA,NA,,,NA,NA,,,NA,NA,,,NA,NA,,,NA,NA,,,NA,NA,,,NA,NA,,,NA
2394,LBR,Liberia,Bong County,"6,94","-9,64","51,68",0,0,,1992-12-17,1992-12-17,1,date of broadcast,Fighting,Fighting,NPFL kills ULIMO rebels,1,"NPFL claims death of ""more than 100"" Ulimo forces",1,101,0,0,1,101,328,0,0,0,National Patriotic Front of Liberia (NPFL),National Patriotic Front of Liberia (NPFL),Charles Taylor,315,0,0,0,United Liberation Movement for Democracy in Liberia,"The United Liberation Movement of Liberia for Democracy (ULIMO) was a rebel group that participated in the First Liberian Civil War (1989-1996)/From its outset, ULIMO was beset with internal divisions and the group effectively broke into two separate militias in 1994: ULIMO-J, an ethnic Krahn faction led by General Roosevelt Johnson and ULIMO-K, a Mandingo-based faction led by Alhaji G/V/ Kromah/",,NA,0,NA,0,,,,NA,0,NA,0,,,,NA,0,NA,0,,,,NA,0,NA,0,,,,NA,0,NA,0,,,,84,18/12/1992,BBC Monitoring,2,NA,,,NA,NA,,,NA,NA,,,NA,NA,,,NA,NA,,,NA,NA,,,NA,NA,,,NA,NA,,,NA,NA,,,NA,NA,,,NA,NA,,,NA,NA,,,NA,NA,,,NA,NA,,,NA,NA,,,NA
2457,LBR,Liberia,Bong County,"6,94","-9,64","51,68",0,0,,2003-08-22,2003-08-22,1,"""in recent days"", reported on August 23, 2003",One-sided attack,Unclear,Renewed fighting,1,rebels killed hundreds of civilians in recent days as reported by state radio (no independent confirmation),1,200,1,200,0,0,145,1,NA,0,Rebel(s),Unspecified rebel(s),,25,0,NA,0,Civilian(s),Civilian(s),,NA,0,NA,0,,,,NA,0,NA,0,,,,NA,0,NA,0,,,,NA,0,NA,0,,,,NA,0,NA,0,,,,95,25/08/2003,New York Times,2,NA,,,NA,NA,,,NA,NA,,,NA,NA,,,NA,NA,,,NA,NA,,,NA,NA,,,NA,NA,,,NA,NA,,,NA,NA,,,NA,NA,,,NA,NA,,,NA,NA,,,NA,NA,,,NA,NA,,,NA
2504,LBR,Liberia,Bong Mine Community,"6,8","-10,35",0,0,0,,2007-04-26,2007-04-26,1,The incident must have happend before the riots [27/04],Unclear,Unclear,Trouble at Bong mines,0,,1,1,1,1,0,0,319,0,0,0,Armed Forces of Liberia (AFL),Armed Forces of Liberia (AFL),,11,0,0,0,Unspecified actor,Unspecified actor,,NA,0,NA,0,,,,NA,0,NA,0,,,,NA,0,NA,0,,,,NA,0,NA,0,,,,NA,0,NA,0,,,,99,29/04/2007,BBC Monitoring,0,NA,,,NA,NA,,,NA,NA,,,NA,NA,,,NA,NA,,,NA,NA,,,NA,NA,,,NA,NA,,,NA,NA,,,NA,NA,,,NA,NA,,,NA,NA,,,NA,NA,,,NA,NA,,,NA,NA,,,NA
2437,LBR,Liberia,Gbarnga,7,"-9,47",0,0,0,,1994-08-23,1994-09-24,1,has now lasted more than a month,Fighting,Fighting,Many civilians killed in clashes,1,"""scores of civilians""",2,2,2,2,0,0,11,0,0,0,Unspecified actor,Unspecified actor,,11,0,0,0,Unspecified actor,Unspecified actor,,NA,0,NA,0,,,,NA,0,NA,0,,,,NA,0,NA,0,,,,NA,0,NA,0,,,,NA,0,NA,0,,,,86,27/09/1994,BBC Monitoring,0,NA,,,NA,NA,,,NA,NA,,,NA,NA,,,NA,NA,,,NA,NA,,,NA,NA,,,NA,NA,,,NA,NA,,,NA,NA,,,NA,NA,,,NA,NA,,,NA,NA,,,NA,NA,,,NA,NA,,,NA
2439,LBR,Liberia,Gbarnga,7,"-9,47",0,20,0,"Phebe, neighbouring town of Gbarnga, 160 km north east of Monrovia",1994-10-05,1994-10-05,1,date of report,One-sided attack,Unclear,Over 80 people killed at hospital,0,,60,65,0,0,0,0,11,1,0,0,Unspecified actor,Unspecified actor,,25,0,0,0,Civilian(s),Civilian(s),,NA,0,NA,0,,,,NA,0,NA,0,,,,NA,0,NA,0,,,,NA,0,NA,0,,,,NA,0,NA,0,,,,86,05/10/1994,BBC Monitoring,0,NA,,,NA,NA,,,NA,NA,,,NA,NA,,,NA,NA,,,NA,NA,,,NA,NA,,,NA,NA,,,NA,NA,,,NA,NA,,,NA,NA,,,NA,NA,,,NA,NA,,,NA,NA,,,NA,NA,,,NA
2441,LBR,Liberia,Gbarnga,7,"-9,47",0,0,0,,1994-10-05,1994-10-05,0,,One-sided attack,Landmines,9 ECOMOG soldiers killed by landmine,0,,9,9,0,0,9,9,11,1,0,0,Unspecified actor,Unspecified actor,,321,0,0,0,ECOMOG,"ECOMOG, Community of West African States Monitoring Group",,NA,0,NA,0,,,,NA,0,NA,0,,,,NA,0,NA,0,,,,NA,0,NA,0,,,,NA,0,NA,0,,,,86,18/10/1994,BBC Monitoring,0,NA,,,NA,NA,,,NA,NA,,,NA,NA,,,NA,NA,,,NA,NA,,,NA,NA,,,NA,NA,,,NA,NA,,,NA,NA,,,NA,NA,,,NA,NA,,,NA,NA,,,NA,NA,,,NA,NA,,,NA
2421,LBR,Liberia,Gbarnga,7,"-9,47",0,0,0,,1993-09-13,1993-09-13,0,,Unclear,Unclear,5 NPFL soldiers killed,0,,1,5,0,0,0,0,11,0,0,1,Unspecified actor,Unspecified actor,,328,0,0,0,National Patriotic Front of Liberia (NPFL),National Patriotic Front of Liberia (NPFL),Charles Taylor,NA,0,NA,0,,,,NA,0,NA,0,,,,NA,0,NA,0,,,,NA,0,NA,0,,,,NA,0,NA,0,,,,85,20/09/1993,BBC Monitoring,2,NA,,,NA,NA,,,NA,NA,,,NA,NA,,,NA,NA,,,NA,NA,,,NA,NA,,,NA,NA,,,NA,NA,,,NA,NA,,,NA,NA,,,NA,NA,,,NA,NA,,,NA,NA,,,NA,NA,,,NA
2402,LBR,Liberia,Gbarnga,7,"-9,47",0,0,0,,1993-04-11,1993-04-11,1,Easter holidays,One-sided attack,Conventional use of force,ECOMOG bombed Gbarbga,1,uncountable number,1,2,0,0,0,0,321,1,0,0,ECOMOG,"ECOMOG, Community of West African States Monitoring Group",,11,0,0,0,Unspecified actor,Unspecified actor,,NA,0,NA,0,,,,NA,0,NA,0,,,,NA,0,NA,0,,,,NA,0,NA,0,,,,NA,0,NA,0,,,,85,13/04/1993,BBC Monitoring,2,NA,,,NA,NA,,,NA,NA,,,NA,NA,,,NA,NA,,,NA,NA,,,NA,NA,,,NA,NA,,,NA,NA,,,NA,NA,,,NA,NA,,,NA,NA,,,NA,NA,,,NA,NA,,,NA,NA,,,NA
2388,LBR,Liberia,Gbarnga,7,"-9,47",0,0,0,,1992-11-19,1992-11-19,0,,One-sided attack,Conventional use of force,ECOMOG attacks civilians,1,"hundreds killed, at least 200 at 3  locations",1,66,1,66,0,0,25,0,0,0,Civilian(s),Civilian(s),,321,1,0,0,ECOMOG,"ECOMOG, Community of West African States Monitoring Group",,NA,0,NA,0,,,,NA,0,NA,0,,,,NA,0,NA,0,,,,NA,0,NA,0,,,,NA,0,NA,0,,,,84,20/11/1992,BBC Monitoring,2,NA,,,NA,NA,,,NA,NA,,,NA,NA,,,NA,NA,,,NA,NA,,,NA,NA,,,NA,NA,,,NA,NA,,,NA,NA,,,NA,NA,,,NA,NA,,,NA,NA,,,NA,NA,,,NA,NA,,,NA
2368,LBR,Liberia,Gbarnga,7,"-9,47",0,0,0,,1992-08-11,1992-08-11,0,,Unclear,Unclear,attempted assasination of Taylor kills three,0,,3,3,0,0,0,0,328,0,0,0,National Patriotic Front of Liberia (NPFL),National Patriotic Front of Liberia (NPFL),Charles Taylor,319,0,0,0,Armed Forces of Liberia (AFL),Armed Forces of Liberia (AFL),,NA,0,NA,0,,,,NA,0,NA,0,,,,NA,0,NA,0,,,,NA,0,NA,0,,,,NA,0,NA,0,,,,84,14/08/1992,BBC Monitoring,0,NA,,,NA,NA,,,NA,NA,,,NA,NA,,,NA,NA,,,NA,NA,,,NA,NA,,,NA,NA,,,NA,NA,,,NA,NA,,,NA,NA,,,NA,NA,,,NA,NA,,,NA,NA,,,NA,NA,,,NA
2379,LBR,Liberia,Gbarnga,7,"-9,47",0,0,0,,1992-10-22,1992-10-22,1,date of broadcast,One-sided attack,Conventional use of force,Several killed by ECOMOG attack,1,several,2,2,0,0,0,0,321,1,0,0,ECOMOG,"ECOMOG, Community of West African States Monitoring Group",,11,0,0,0,Unspecified actor,Unspecified actor,,NA,0,NA,0,,,,NA,0,NA,0,,,,NA,0,NA,0,,,,NA,0,NA,0,,,,NA,0,NA,0,,,,84,24/10/1992,BBC Monitoring,0,NA,,,NA,NA,,,NA,NA,,,NA,NA,,,NA,NA,,,NA,NA,,,NA,NA,,,NA,NA,,,NA,NA,,,NA,NA,,,NA,NA,,,NA,NA,,,NA,NA,,,NA,NA,,,NA,NA,,,NA
2341,LBR,Liberia,Gbarnga,7,"-9,47",0,0,0,,2003-03-23,2003-03-23,1,Source date used,Fighting,Fighting,Showdown at central town of Gbarnga,1,"""///fighting has killed scores of
people/""",2,2,0,0,0,0,319,0,0,0,Armed Forces of Liberia (AFL),Armed Forces of Liberia (AFL),,343,0,0,0,Liberians United for Reconciliation and Democracy (LURD),"Liberians United for Reconciliation and Democracy/ The group is essentially a loose coalition of anti-Taylor forces, drawing upon a variety of militia factions and refugee groups, increasingly backed by Guinea, with more indirect support from Sierra Leone, the U/ S/ and Great Britain/",,NA,0,NA,0,,,,NA,0,NA,0,,,,NA,0,NA,0,,,,NA,0,NA,0,,,,NA,0,NA,0,,,,95,23/03/2003,Washington Post,2,NA,,,NA,NA,,,NA,NA,,,NA,NA,,,NA,NA,,,NA,NA,,,NA,NA,,,NA,NA,,,NA,NA,,,NA,NA,,,NA,NA,,,NA,NA,,,NA,NA,,,NA,NA,,,NA,NA,,,NA
2243,LBR,Liberia,Gbarnga,7,"-9,47",0,0,0,,1990-05-24,1990-05-24,0,,Fighting,Fighting,350 rebels killed by government troops,0,,350,350,0,0,0,0,145,0,0,0,Rebel(s),Unspecified rebel(s),,319,0,0,0,Armed Forces of Liberia (AFL),Armed Forces of Liberia (AFL),,NA,0,NA,0,,,,NA,0,NA,0,,,,NA,0,NA,0,,,,NA,0,NA,0,,,,NA,0,NA,0,,,,82,26/05/1990,BBC Monitoring,0,NA,,,NA,NA,,,NA,NA,,,NA,NA,,,NA,NA,,,NA,NA,,,NA,NA,,,NA,NA,,,NA,NA,,,NA,NA,,,NA,NA,,,NA,NA,,,NA,NA,,,NA,NA,,,NA,NA,,,NA
1981,LBR,Liberia,Gbarnga,7,"-9,47",0,0,0,"""in Gbarnga, Bong County""",1997-11-15,1997-11-15,1,The four were killed last November,One-sided attack,Unclear,Opposition politician Dokhie dead,0,,4,4,4,4,0,0,11,1,NA,0,Unspecified actor,Unspecified actor,,796,0,NA,0,National Transitional Legislative Assembly (NTLA),National Transitional Legislative Assembly (NTLA),,11,0,NA,0,Unspecified actor,Unspecified actor,,NA,0,NA,0,,,,NA,0,NA,0,,,,NA,0,NA,0,,,,NA,0,NA,0,,,,89,06/12/1997,BBC Monitoring,2,89,11/12/1997,BBC Monitoring,2,90,23/03/1998,BBC Monitoring,0,90,17/01/1998,BBC Monitoring,0,90,30/03/1998,BBC Monitoring,0,NA,,,NA,NA,,,NA,NA,,,NA,NA,,,NA,NA,,,NA,NA,,,NA,NA,,,NA,NA,,,NA,NA,,,NA,NA,,,NA,NA,,,NA
1984,LBR,Liberia,Gbarnga,7,"-9,47",0,0,0,"""in the central town of Gbarnga""",1997-07-11,1997-07-11,1,"Dates of the original source and the ""secondary"" source do not corrspond/ The incident could have happened on the 12 or 13",One-sided attack,Use of small firearms,Witch doctor's bullet test backfires,0,,2,2,2,2,0,0,320,1,0,0,Witch-Doctor,Witch-Doctor,,11,0,0,0,Unspecified actor,Unspecified actor,,NA,0,NA,0,,,,NA,0,NA,0,,,,NA,0,NA,0,,,,NA,0,NA,0,,,,NA,0,NA,0,,,,90,13/07/1998,The Guardian,0,NA,,,NA,NA,,,NA,NA,,,NA,NA,,,NA,NA,,,NA,NA,,,NA,NA,,,NA,NA,,,NA,NA,,,NA,NA,,,NA,NA,,,NA,NA,,,NA,NA,,,NA,NA,,,NA,NA,,,NA
2309,LBR,Liberia,Weinzu,"7,11","-9,46",0,0,0,"""Zoum Wesso, a town located just 10 kilometres from Gbarnga"" --> used 'Weinzu'",2002-05-06,2002-05-06,0,,Fighting,Fighting,Rebels reportedly kill four in north,1,Just one official statement,4,4,4,4,0,0,343,0,0,0,Liberians United for Reconciliation and Democracy (LURD),"Liberians United for Reconciliation and Democracy/ The group is essentially a loose coalition of anti-Taylor forces, drawing upon a variety of militia factions and refugee groups, increasingly backed by Guinea, with more indirect support from Sierra Leone, the U/ S/ and Great Britain/",,319,0,0,0,Armed Forces of Liberia (AFL),Armed Forces of Liberia (AFL),,NA,0,NA,0,,,,NA,0,NA,0,,,,NA,0,NA,0,,,,NA,0,NA,0,,,,NA,0,NA,0,,,,94,08/05/2002,BBC Monitoring,2,NA,,,NA,NA,,,NA,NA,,,NA,NA,,,NA,NA,,,NA,NA,,,NA,NA,,,NA,NA,,,NA,NA,,,NA,NA,,,NA,NA,,,NA,NA,,,NA,NA,,,NA,NA,,,NA,NA,,,NA
2378,LBR,Liberia,Suakoko,"6,99","-9,58",0,0,0,,1992-11-05,1992-11-05,1,date of report,One-sided attack,Conventional use of force,Nigerian troops kill scores of people,1,killing scores of people,2,2,0,0,0,0,321,1,0,0,ECOMOG,"ECOMOG, Community of West African States Monitoring Group",,11,0,0,0,Unspecified actor,Unspecified actor,,NA,0,NA,0,,,,NA,0,NA,0,,,,NA,0,NA,0,,,,NA,0,NA,0,,,,NA,0,NA,0,,,,84,05/11/1992,BBC Monitoring,2,NA,,,NA,NA,,,NA,NA,,,NA,NA,,,NA,NA,,,NA,NA,,,NA,NA,,,NA,NA,,,NA,NA,,,NA,NA,,,NA,NA,,,NA,NA,,,NA,NA,,,NA,NA,,,NA,NA,,,NA
2298,LBR,Liberia,Belle Yella,"7,38",-10,0,0,0,prison camp,1991-02-19,1991-02-19,0,,One-sided attack,Use of small firearms,Former MinDef killed by NPFL,0,,1,1,1,1,0,0,328,1,0,0,National Patriotic Front of Liberia (NPFL),National Patriotic Front of Liberia (NPFL),Charles Taylor,319,0,0,0,Armed Forces of Liberia (AFL),Armed Forces of Liberia (AFL),,NA,0,NA,0,,,,NA,0,NA,0,,,,NA,0,NA,0,,,,NA,0,NA,0,,,,NA,0,NA,0,,,,83,25/02/1991,BBC Monitoring,0,NA,,,NA,NA,,,NA,NA,,,NA,NA,,,NA,NA,,,NA,NA,,,NA,NA,,,NA,NA,,,NA,NA,,,NA,NA,,,NA,NA,,,NA,NA,,,NA,NA,,,NA,NA,,,NA,NA,,,NA
2104,LBR,Liberia,Fassama,"7,52",-10,0,0,0,"""have again attacked Liberian territory through Belle Fassama, in (Gbakpolo) County""",2001-11-29,2001-11-29,1,Source date is used,Fighting,Fighting,"""Dissident forces"" kill hundreds - President Taylor",1,"President Taylor disclosed
that hundreds of people have been murdered in the area/""",1,2,1,2,0,0,343,1,0,0,Liberians United for Reconciliation and Democracy (LURD),"Liberians United for Reconciliation and Democracy/ The group is essentially a loose coalition of anti-Taylor forces, drawing upon a variety of militia factions and refugee groups, increasingly backed by Guinea, with more indirect support from Sierra Leone, the U/ S/ and Great Britain/",,319,0,0,0,Armed Forces of Liberia (AFL),Armed Forces of Liberia (AFL),,NA,0,NA,0,,,,NA,0,NA,0,,,,NA,0,NA,0,,,,NA,0,NA,0,,,,NA,0,NA,0,,,,93,29/11/2001,BBC Monitoring,2,NA,,,NA,NA,,,NA,NA,,,NA,NA,,,NA,NA,,,NA,NA,,,NA,NA,,,NA,NA,,,NA,NA,,,NA,NA,,,NA,NA,,,NA,NA,,,NA,NA,,,NA,NA,,,NA,NA,,,NA
2404,LBR,Liberia,Bopolu,"6,9","-10,76",0,0,0,,1993-04-19,1993-04-19,1,date of broadcast,Unclear,Unclear,more than 100 ULIMO rebels killed,1,more than 100 Ulimo troops reported killed (two locations),1,50,0,0,1,"50,5",328,0,0,0,National Patriotic Front of Liberia (NPFL),National Patriotic Front of Liberia (NPFL),Charles Taylor,315,0,0,0,United Liberation Movement for Democracy in Liberia,"The United Liberation Movement of Liberia for Democracy (ULIMO) was a rebel group that participated in the First Liberian Civil War (1989-1996)/From its outset, ULIMO was beset with internal divisions and the group effectively broke into two separate militias in 1994: ULIMO-J, an ethnic Krahn faction led by General Roosevelt Johnson and ULIMO-K, a Mandingo-based faction led by Alhaji G/V/ Kromah/",,NA,0,NA,0,,,,NA,0,NA,0,,,,NA,0,NA,0,,,,NA,0,NA,0,,,,NA,0,NA,0,,,,85,19/04/1993,BBC Monitoring,2,NA,,,NA,NA,,,NA,NA,,,NA,NA,,,NA,NA,,,NA,NA,,,NA,NA,,,NA,NA,,,NA,NA,,,NA,NA,,,NA,NA,,,NA,NA,,,NA,NA,,,NA,NA,,,NA,NA,,,NA
2503,LBR,Liberia,Grand Bassa County,"6,22","-9,82","48,66",0,0,,2007-01-09,2007-01-09,0,,Unclear,Unclear,Riots after death of ex-fighter,0,,1,1,1,1,0,0,143,0,0,0,Protest group,Protest group,,11,0,0,0,Unspecified actor,Unspecified actor,,NA,0,NA,0,,,,NA,0,NA,0,,,,NA,0,NA,0,,,,NA,0,NA,0,,,,NA,0,NA,0,,,,99,10/01/2007,BBC Monitoring,0,NA,,,NA,NA,,,NA,NA,,,NA,NA,,,NA,NA,,,NA,NA,,,NA,NA,,,NA,NA,,,NA,NA,,,NA,NA,,,NA,NA,,,NA,NA,,,NA,NA,,,NA,NA,,,NA,NA,,,NA
2245,LBR,Liberia,Grand Bassa County,"6,22","-9,82","48,66",0,0,,1990-06-05,1990-06-05,0,,Fighting,Fighting,Rebel leader killed,0,,1,1,0,0,1,1,145,0,0,0,Rebel(s),Unspecified rebel(s),,319,0,0,0,Armed Forces of Liberia (AFL),Armed Forces of Liberia (AFL),,NA,0,NA,0,,,,NA,0,NA,0,,,,NA,0,NA,0,,,,NA,0,NA,0,,,,NA,0,NA,0,,,,82,07/06/1990,BBC Monitoring,0,NA,,,NA,NA,,,NA,NA,,,NA,NA,,,NA,NA,,,NA,NA,,,NA,NA,,,NA,NA,,,NA,NA,,,NA,NA,,,NA,NA,,,NA,NA,,,NA,NA,,,NA,NA,,,NA,NA,,,NA
2239,LBR,Liberia,Grand Bassa County,"6,22","-9,82","48,66",0,0,in Grand Bassa County,1990-04-29,1990-04-29,0,,Fighting,Fighting,5 rebels killed,0,,5,5,0,0,5,5,145,0,0,0,Rebel(s),Unspecified rebel(s),,319,0,0,0,Armed Forces of Liberia (AFL),Armed Forces of Liberia (AFL),,NA,0,NA,0,,,,NA,0,NA,0,,,,NA,0,NA,0,,,,NA,0,NA,0,,,,NA,0,NA,0,,,,82,04/05/1990,BBC Monitoring,0,NA,,,NA,NA,,,NA,NA,,,NA,NA,,,NA,NA,,,NA,NA,,,NA,NA,,,NA,NA,,,NA,NA,,,NA,NA,,,NA,NA,,,NA,NA,,,NA,NA,,,NA,NA,,,NA,NA,,,NA
2400,LBR,Liberia,Monrovia,"6,67","-9,67",0,10,0,outside Monrovia,1993-02-02,1993-02-02,0,,One-sided attack,Use of small firearms,British scientist killed outside Monrovia,0,,1,1,1,1,0,0,25,0,0,0,Civilian(s),Civilian(s),,319,1,0,0,Armed Forces of Liberia (AFL),Armed Forces of Liberia (AFL),,NA,0,NA,0,,,,NA,0,NA,0,,,,NA,0,NA,0,,,,NA,0,NA,0,,,,NA,0,NA,0,,,,85,03/02/1993,The Guardian,0,85,06/02/1993,BBC Monitoring,2,NA,,,NA,NA,,,NA,NA,,,NA,NA,,,NA,NA,,,NA,NA,,,NA,NA,,,NA,NA,,,NA,NA,,,NA,NA,,,NA,NA,,,NA,NA,,,NA,NA,,,NA,NA,,,NA
2443,LBR,Liberia,District #3 District,"6,27","-9,6","28,29",0,0,Areas A and C in District No 3 in Grand Bassa County,1995-01-24,1995-01-24,1,recently,One-sided attack,Unclear,NPFL burns down villages killing civilians,1,several,2,2,2,2,0,0,328,1,0,0,National Patriotic Front of Liberia (NPFL),National Patriotic Front of Liberia (NPFL),Charles Taylor,25,0,0,0,Civilian(s),Civilian(s),,NA,0,NA,0,,,,NA,0,NA,0,,,,NA,0,NA,0,,,,NA,0,NA,0,,,,NA,0,NA,0,,,,87,27/01/1995,BBC Monitoring,0,NA,,,NA,NA,,,NA,NA,,,NA,NA,,,NA,NA,,,NA,NA,,,NA,NA,,,NA,NA,,,NA,NA,,,NA,NA,,,NA,NA,,,NA,NA,,,NA,NA,,,NA,NA,,,NA,NA,,,NA
2448,LBR,Liberia,Buchanan,"5,88","-10,04",0,0,0,,2003-07-28,2003-07-28,0,,Fighting,Fighting,Heavy fighting in Buchanan,1,"""""There are bodies all over the place/ Dozens of people have been killed,""",24,24,0,0,0,0,319,0,0,0,Armed Forces of Liberia (AFL),Armed Forces of Liberia (AFL),,343,0,0,0,Liberians United for Reconciliation and Democracy (LURD),"Liberians United for Reconciliation and Democracy/ The group is essentially a loose coalition of anti-Taylor forces, drawing upon a variety of militia factions and refugee groups, increasingly backed by Guinea, with more indirect support from Sierra Leone, the U/ S/ and Great Britain/",,NA,0,NA,0,,,,NA,0,NA,0,,,,NA,0,NA,0,,,,NA,0,NA,0,,,,NA,0,NA,0,,,,95,31/07/2003,Washington Post,2,95,31/07/2003,New York Times,0,NA,,,NA,NA,,,NA,NA,,,NA,NA,,,NA,NA,,,NA,NA,,,NA,NA,,,NA,NA,,,NA,NA,,,NA,NA,,,NA,NA,,,NA,NA,,,NA,NA,,,NA,NA,,,NA
2493,LBR,Liberia,Buchanan,"5,88","-10,04",0,0,0,,2004-03-14,2004-03-14,0,,One-sided attack,Use of small firearms,Model combatants began firing randomly,1,"""The firing lasted several hours, causing the death of some 10 civilians/""",10,10,10,10,0,0,25,0,0,0,Civilian(s),Civilian(s),,386,1,0,0,Movement for Democracy in Liberia (MODEL),Movement for Democracy in Liberia (MODEL ),,NA,0,NA,0,,,,NA,0,NA,0,,,,NA,0,NA,0,,,,NA,0,NA,0,,,,NA,0,NA,0,,,,96,22/04/2004,BBC Monitoring,0,NA,,,NA,NA,,,NA,NA,,,NA,NA,,,NA,NA,,,NA,NA,,,NA,NA,,,NA,NA,,,NA,NA,,,NA,NA,,,NA,NA,,,NA,NA,,,NA,NA,,,NA,NA,,,NA,NA,,,NA
2392,LBR,Liberia,Buchanan,"5,88","-10,04",0,0,0,,1992-12-05,1992-12-06,0,,One-sided attack,Conventional use of force,ECOMOG shell Kakata and Buchanan,1,"2locations, scores of people",1,1,0,0,0,0,321,1,0,0,ECOMOG,"ECOMOG, Community of West African States Monitoring Group",,11,0,0,0,Unspecified actor,Unspecified actor,,NA,0,NA,0,,,,NA,0,NA,0,,,,NA,0,NA,0,,,,NA,0,NA,0,,,,NA,0,NA,0,,,,84,07/12/1992,BBC Monitoring,2,NA,,,NA,NA,,,NA,NA,,,NA,NA,,,NA,NA,,,NA,NA,,,NA,NA,,,NA,NA,,,NA,NA,,,NA,NA,,,NA,NA,,,NA,NA,,,NA,NA,,,NA,NA,,,NA,NA,,,NA
2294,LBR,Liberia,Buchanan,"5,88","-10,04",0,0,0,,1990-10-15,1990-10-15,1,in October,Unclear,Unclear,2 Nigerian journalists killed,0,,2,2,2,2,0,0,92,0,0,0,Journalist,Journalist,,328,1,0,0,National Patriotic Front of Liberia (NPFL),National Patriotic Front of Liberia (NPFL),Charles Taylor,NA,0,NA,0,,,,NA,0,NA,0,,,,NA,0,NA,0,,,,NA,0,NA,0,,,,NA,0,NA,0,,,,83,29/01/1991,BBC Monitoring,0,83,30/01/1991,BBC Monitoring,0,83,05/02/1991,New York Times,0,NA,,,NA,NA,,,NA,NA,,,NA,NA,,,NA,NA,,,NA,NA,,,NA,NA,,,NA,NA,,,NA,NA,,,NA,NA,,,NA,NA,,,NA,NA,,,NA,NA,,,NA
2256,LBR,Liberia,Buchanan,"5,88","-10,04",0,0,0,,1990-06-11,1990-06-11,1,date before publication,Unclear,Unclear,Rebel commander Elmer Johnson dead,0,,1,1,0,0,0,0,145,0,0,0,Rebel(s),Unspecified rebel(s),,319,0,0,0,Armed Forces of Liberia (AFL),Armed Forces of Liberia (AFL),,NA,0,NA,0,,,,NA,0,NA,0,,,,NA,0,NA,0,,,,NA,0,NA,0,,,,NA,0,NA,0,,,,82,12/06/1990,The Guardian,0,NA,,,NA,NA,,,NA,NA,,,NA,NA,,,NA,NA,,,NA,NA,,,NA,NA,,,NA,NA,,,NA,NA,,,NA,NA,,,NA,NA,,,NA,NA,,,NA,NA,,,NA,NA,,,NA,NA,,,NA
2246,LBR,Liberia,Buchanan,"5,88","-10,04",0,0,0,,1990-06-06,1990-06-06,1,in recent days,Unclear,Unclear,Ethnic Slaying,1,hundreds,200,200,0,0,0,0,11,0,0,0,Unspecified actor,Unspecified actor,,145,0,0,0,Rebel(s),Unspecified rebel(s),,NA,0,NA,0,,,,NA,0,NA,0,,,,NA,0,NA,0,,,,NA,0,NA,0,,,,NA,0,NA,0,,,,82,09/06/1990,New York Times,0,NA,,,NA,NA,,,NA,NA,,,NA,NA,,,NA,NA,,,NA,NA,,,NA,NA,,,NA,NA,,,NA,NA,,,NA,NA,,,NA,NA,,,NA,NA,,,NA,NA,,,NA,NA,,,NA,NA,,,NA
2237,LBR,Liberia,Ganta,"5,64","-9,81",0,0,0,,1990-04-14,1990-04-14,1,date of radio publication,Fighting,Fighting,100 rebels killed,0,,100,100,0,0,0,0,145,0,0,0,Rebel(s),Unspecified rebel(s),,319,0,0,0,Armed Forces of Liberia (AFL),Armed Forces of Liberia (AFL),,NA,0,NA,0,,,,NA,0,NA,0,,,,NA,0,NA,0,,,,NA,0,NA,0,,,,NA,0,NA,0,,,,82,14/04/1990,BBC Monitoring,0,NA,,,NA,NA,,,NA,NA,,,NA,NA,,,NA,NA,,,NA,NA,,,NA,NA,,,NA,NA,,,NA,NA,,,NA,NA,,,NA,NA,,,NA,NA,,,NA,NA,,,NA,NA,,,NA,NA,,,NA
2390,LBR,Liberia,Ganta,"5,64","-9,81",0,0,0,,1992-11-19,1992-11-19,0,,One-sided attack,Conventional use of force,ECOMOG attacks civilians,1,hundreds killed (in three different locations),1,66,1,66,0,0,25,0,0,0,Civilian(s),Civilian(s),,321,1,0,0,ECOMOG,"ECOMOG, Community of West African States Monitoring Group",,NA,0,NA,0,,,,NA,0,NA,0,,,,NA,0,NA,0,,,,NA,0,NA,0,,,,NA,0,NA,0,,,,84,20/11/1992,BBC Monitoring,2,NA,,,NA,NA,,,NA,NA,,,NA,NA,,,NA,NA,,,NA,NA,,,NA,NA,,,NA,NA,,,NA,NA,,,NA,NA,,,NA,NA,,,NA,NA,,,NA,NA,,,NA,NA,,,NA,NA,,,NA
2426,LBR,Liberia,Ganta,"5,64","-9,81",0,0,0,,1993-12-23,1993-12-23,0,,Unclear,Unclear,"Taylors ""deputy defence minister"" killed",0,,1,1,0,0,0,0,328,0,0,0,National Patriotic Front of Liberia (NPFL),National Patriotic Front of Liberia (NPFL),Charles Taylor,328,0,0,0,National Patriotic Front of Liberia (NPFL),National Patriotic Front of Liberia (NPFL),Charles Taylor,NA,0,NA,0,,,,NA,0,NA,0,,,,NA,0,NA,0,,,,NA,0,NA,0,,,,NA,0,NA,0,,,,86,30/12/1993,BBC Monitoring,0,NA,,,NA,NA,,,NA,NA,,,NA,NA,,,NA,NA,,,NA,NA,,,NA,NA,,,NA,NA,,,NA,NA,,,NA,NA,,,NA,NA,,,NA,NA,,,NA,NA,,,NA,NA,,,NA,NA,,,NA
2458,LBR,Liberia,Grand Cape Mount County,"7,1","-11,03","39,89",0,0,,1994-05-03,1994-05-03,1,date of report,Fighting,Fighting,Tribal infighting within ULIMO,1,several in three different locations,0,6,0,0,0,0,314,0,0,0,Ulimo-J,United Liberation Movement of Liberia for Democracy-Johnson faction (ULIMO-J),General Roosevelt Johnson/,316,0,0,0,Ulimo-K,"Ulimo-K, United Liberation Movement of Liberia for Democracy, Kromah faction",Alhaji G/V/ Kromah/,11,0,0,0,Unspecified actor,Unspecified actor,,NA,0,NA,0,,,,NA,0,NA,0,,,,NA,0,NA,0,,,,NA,0,NA,0,,,,86,03/05/1994,BBC Monitoring,2,NA,,,NA,NA,,,NA,NA,,,NA,NA,,,NA,NA,,,NA,NA,,,NA,NA,,,NA,NA,,,NA,NA,,,NA,NA,,,NA,NA,,,NA,NA,,,NA,NA,,,NA,NA,,,NA,NA,,,NA
2353,LBR,Liberia,Grand Cape Mount County,"7,1","-11,03","39,89",0,0,,1991-11-04,1991-11-04,0,,Fighting,Fighting,Guinean and Sierra Leonean forces killed by NPFL,1,several,2,2,0,0,2,2,335,0,0,0,Guinean government forces,Guinean government forces,,328,0,0,0,National Patriotic Front of Liberia (NPFL),National Patriotic Front of Liberia (NPFL),Charles Taylor,332,0,0,0,Sierra Leonean Government Forces,Sierra Leonean Government Forces; regular army,,NA,0,NA,0,,,,NA,0,NA,0,,,,NA,0,NA,0,,,,NA,0,NA,0,,,,83,06/11/1991,BBC Monitoring,0,NA,,,NA,NA,,,NA,NA,,,NA,NA,,,NA,NA,,,NA,NA,,,NA,NA,,,NA,NA,,,NA,NA,,,NA,NA,,,NA,NA,,,NA,NA,,,NA,NA,,,NA,NA,,,NA,NA,,,NA
2445,LBR,Liberia,Garwula District,"6,82","-11,19","20,03",0,0,,1995-04-04,1995-04-04,0,,One-sided attack,Unclear,ULIMO-K attacks refugee camp,0,,1,1,1,1,0,0,316,1,0,0,Ulimo-K,"Ulimo-K, United Liberation Movement of Liberia for Democracy, Kromah faction",Alhaji G/V/ Kromah/,25,0,0,0,Civilian(s),Civilian(s),,NA,0,NA,0,,,,NA,0,NA,0,,,,NA,0,NA,0,,,,NA,0,NA,0,,,,NA,0,NA,0,,,,87,11/04/1995,BBC Monitoring,0,NA,,,NA,NA,,,NA,NA,,,NA,NA,,,NA,NA,,,NA,NA,,,NA,NA,,,NA,NA,,,NA,NA,,,NA,NA,,,NA,NA,,,NA,NA,,,NA,NA,,,NA,NA,,,NA,NA,,,NA
1980,LBR,Liberia,Sasstown,"6,78","-11,28",0,10,0,"""on the Monrovia-Tubmanburg highway [] near a town known as
Sasstown""",1997-01-16,1997-01-16,0,,One-sided attack,Use of small firearms,Ambush: Nine dead,0,,9,9,9,9,0,0,314,1,0,1,Ulimo-J,United Liberation Movement of Liberia for Democracy-Johnson faction (ULIMO-J),General Roosevelt Johnson/,25,0,0,0,Civilian(s),Civilian(s),,NA,0,NA,0,,,,NA,0,NA,0,,,,NA,0,NA,0,,,,NA,0,NA,0,,,,NA,0,NA,0,,,,89,18/01/1997,BBC Monitoring,2,NA,,,NA,NA,,,NA,NA,,,NA,NA,,,NA,NA,,,NA,NA,,,NA,NA,,,NA,NA,,,NA,NA,,,NA,NA,,,NA,NA,,,NA,NA,,,NA,NA,,,NA,NA,,,NA,NA,,,NA
2489,LBR,Liberia,Sinje,"6,82","-11,14",0,0,0,,1996-10-01,1996-10-01,1,date of report,Unclear,Unclear,More than 20 killed by armed youth looting aid supplies,1,over 22,22,22,0,0,0,0,11,0,0,0,Unspecified actor,Unspecified actor,,11,0,0,0,Unspecified actor,Unspecified actor,,NA,0,NA,0,,,,NA,0,NA,0,,,,NA,0,NA,0,,,,NA,0,NA,0,,,,NA,0,NA,0,,,,88,01/10/1996,BBC Monitoring,0,88,17/10/1996,BBC Monitoring,0,NA,,,NA,NA,,,NA,NA,,,NA,NA,,,NA,NA,,,NA,NA,,,NA,NA,,,NA,NA,,,NA,NA,,,NA,NA,,,NA,NA,,,NA,NA,,,NA,NA,,,NA,NA,,,NA
2310,LBR,Liberia,Sinje,"6,82","-11,14",0,0,0,"Sinje refugee camp, about 50 miles northwest of Monrovia",2002-06-20,2002-06-20,0,,One-sided attack,Unclear,Rebels attacked the Sinje refugee camp,0,,4,4,1,1,3,3,319,0,0,0,Armed Forces of Liberia (AFL),Armed Forces of Liberia (AFL),,343,1,0,0,Liberians United for Reconciliation and Democracy (LURD),"Liberians United for Reconciliation and Democracy/ The group is essentially a loose coalition of anti-Taylor forces, drawing upon a variety of militia factions and refugee groups, increasingly backed by Guinea, with more indirect support from Sierra Leone, the U/ S/ and Great Britain/",,NA,0,NA,0,,,,NA,0,NA,0,,,,NA,0,NA,0,,,,NA,0,NA,0,,,,NA,0,NA,0,,,,94,22/06/2002,Washington Post,2,94,23/06/2002,BBC Monitoring,0,NA,,,NA,NA,,,NA,NA,,,NA,NA,,,NA,NA,,,NA,NA,,,NA,NA,,,NA,NA,,,NA,NA,,,NA,NA,,,NA,NA,,,NA,NA,,,NA,NA,,,NA,NA,,,NA
2403,LBR,Liberia,Lofa Bridge,"7,07","-10,88",0,0,0,,1993-04-19,1993-04-19,1,date of broadcast,Unclear,Unclear,more than 100 ULIMO rebels killed by NPFL,1,more than 100 Ulimo troops reported killed (two locations),1,50,0,0,1,"50,5",328,0,0,0,National Patriotic Front of Liberia (NPFL),National Patriotic Front of Liberia (NPFL),Charles Taylor,315,0,0,0,United Liberation Movement for Democracy in Liberia,"The United Liberation Movement of Liberia for Democracy (ULIMO) was a rebel group that participated in the First Liberian Civil War (1989-1996)/From its outset, ULIMO was beset with internal divisions and the group effectively broke into two separate militias in 1994: ULIMO-J, an ethnic Krahn faction led by General Roosevelt Johnson and ULIMO-K, a Mandingo-based faction led by Alhaji G/V/ Kromah/",,NA,0,NA,0,,,,NA,0,NA,0,,,,NA,0,NA,0,,,,NA,0,NA,0,,,,NA,0,NA,0,,,,85,19/04/1993,BBC Monitoring,2,NA,,,NA,NA,,,NA,NA,,,NA,NA,,,NA,NA,,,NA,NA,,,NA,NA,,,NA,NA,,,NA,NA,,,NA,NA,,,NA,NA,,,NA,NA,,,NA,NA,,,NA,NA,,,NA,NA,,,NA
2300,LBR,Liberia,Grand Gedeh County,"5,94","-8,23","58,22",0,1,,1991-03-20,1991-03-20,1,date when reported,Unclear,Unclear,Seven people killed on border to Cote d'Ivoire,0,,7,7,0,0,0,0,145,0,0,0,Rebel(s),Unspecified rebel(s),,11,0,0,0,Unspecified actor,Unspecified actor,,NA,0,NA,0,,,,NA,0,NA,0,,,,NA,0,NA,0,,,,NA,0,NA,0,,,,NA,0,NA,0,,,,83,23/03/1991,BBC Monitoring,0,NA,,,NA,NA,,,NA,NA,,,NA,NA,,,NA,NA,,,NA,NA,,,NA,NA,,,NA,NA,,,NA,NA,,,NA,NA,,,NA,NA,,,NA,NA,,,NA,NA,,,NA,NA,,,NA,NA,,,NA
2444,LBR,Liberia,Gwehn Town,"6,24","-8,38",0,0,0,,1995-01-24,1995-01-24,1,recently,One-sided attack,Unclear,NPFL burns down villages killing civilians,1,several,2,2,2,2,0,0,328,1,0,0,National Patriotic Front of Liberia (NPFL),National Patriotic Front of Liberia (NPFL),Charles Taylor,25,0,0,0,Civilian(s),Civilian(s),,NA,0,NA,0,,,,NA,0,NA,0,,,,NA,0,NA,0,,,,NA,0,NA,0,,,,NA,0,NA,0,,,,87,27/01/1995,BBC Monitoring,0,NA,,,NA,NA,,,NA,NA,,,NA,NA,,,NA,NA,,,NA,NA,,,NA,NA,,,NA,NA,,,NA,NA,,,NA,NA,,,NA,NA,,,NA,NA,,,NA,NA,,,NA,NA,,,NA,NA,,,NA
2460,LBR,Liberia,Lofa County,"7,98","-9,87","57,46",0,0,,1994-05-03,1994-05-03,1,date of report,Fighting,Fighting,Tribal infighting within ULIMO,1,several in three different locations,0,6,0,0,0,0,314,0,0,0,Ulimo-J,United Liberation Movement of Liberia for Democracy-Johnson faction (ULIMO-J),General Roosevelt Johnson/,316,0,0,0,Ulimo-K,"Ulimo-K, United Liberation Movement of Liberia for Democracy, Kromah faction",Alhaji G/V/ Kromah/,11,0,0,0,Unspecified actor,Unspecified actor,,NA,0,NA,0,,,,NA,0,NA,0,,,,NA,0,NA,0,,,,NA,0,NA,0,,,,86,03/05/1994,BBC Monitoring,2,NA,,,NA,NA,,,NA,NA,,,NA,NA,,,NA,NA,,,NA,NA,,,NA,NA,,,NA,NA,,,NA,NA,,,NA,NA,,,NA,NA,,,NA,NA,,,NA,NA,,,NA,NA,,,NA,NA,,,NA
2106,LBR,Liberia,Lofa County,"7,98","-9,87","57,46",0,0,"""northern Lofa County/""",2001-12-17,2001-12-17,1,Date of Talors`s statement is used/,Fighting,Fighting,Kamajors killed by AFL ?,1,Source biased,1,2,0,0,0,0,319,0,0,0,Armed Forces of Liberia (AFL),Armed Forces of Liberia (AFL),,318,0,0,1,Kamajor militia,Kamajor militia,Samuel Hinga Norman,NA,0,NA,0,,,,NA,0,NA,0,,,,NA,0,NA,0,,,,NA,0,NA,0,,,,NA,0,NA,0,,,,93,20/12/2001,BBC Monitoring,2,NA,,,NA,NA,,,NA,NA,,,NA,NA,,,NA,NA,,,NA,NA,,,NA,NA,,,NA,NA,,,NA,NA,,,NA,NA,,,NA,NA,,,NA,NA,,,NA,NA,,,NA,NA,,,NA,NA,,,NA
1983,LBR,Liberia,Lofa County,"7,98","-9,87","57,46",0,0,village in Lower Lofa called Tongar,1997-04-08,1997-04-08,1,"""the armed men entered a village in Lower Lofa called Tongar in early April"" No confirmed date of the attack",One-sided attack,Unclear,"MILITIAMEN FROM SIERRA LEONE ENTER LIBERIAN VILLAGE,
KILL ONE PERSON",0,,1,1,0,0,1,1,318,1,0,1,Kamajor militia,Kamajor militia,Samuel Hinga Norman,319,0,0,0,Armed Forces of Liberia (AFL),Armed Forces of Liberia (AFL),,NA,0,NA,0,,,,NA,0,NA,0,,,,NA,0,NA,0,,,,NA,0,NA,0,,,,NA,0,NA,0,,,,90,30/05/1998,BBC Monitoring,0,90,01/06/1998,BBC Monitoring,0,NA,,,NA,NA,,,NA,NA,,,NA,NA,,,NA,NA,,,NA,NA,,,NA,NA,,,NA,NA,,,NA,NA,,,NA,NA,,,NA,NA,,,NA,NA,,,NA,NA,,,NA,NA,,,NA
2000,LBR,Liberia,Lofa County,"7,98","-9,87","57,46",0,0,"Some Sierra Leonean refugees were reportedly killed during the recent incursion
into Lofa/",1999-08-20,1999-08-20,1,The killings happened during the rebell incursion in Liberias north/ An exact date is not given/,Unclear,Unclear,Killing of Sierra Leonean refugees,1,"Some Sierra Leonean refugees were reportedly killed during the recent incursion
into Lofa/",2,2,0,2,0,0,11,1,0,0,Unspecified actor,Unspecified actor,,11,0,0,0,Unspecified actor,Unspecified actor,,NA,0,NA,0,,,,NA,0,NA,0,,,,NA,0,NA,0,,,,NA,0,NA,0,,,,NA,0,NA,0,,,,91,21/08/1999,BBC Monitoring,0,NA,,,NA,NA,,,NA,NA,,,NA,NA,,,NA,NA,,,NA,NA,,,NA,NA,,,NA,NA,,,NA,NA,,,NA,NA,,,NA,NA,,,NA,NA,,,NA,NA,,,NA,NA,,,NA,NA,,,NA
2047,LBR,Liberia,Lofa County,"7,98","-9,87","57,46",0,0,"""helicopters attack border town""",2001-02-01,2001-02-01,1,Date of source is used,One-sided attack,Conventional use of force,10 dead after Guinean helicopters attack,1,"""and killed some civilians/""",1,10,0,0,0,0,335,1,0,1,Guinean government forces,Guinean government forces,,11,0,0,0,Unspecified actor,Unspecified actor,,NA,0,NA,0,,,,NA,0,NA,0,,,,NA,0,NA,0,,,,NA,0,NA,0,,,,NA,0,NA,0,,,,93,01/02/2001,BBC Monitoring,2,93,14/02/2001,BBC Monitoring,2,NA,,,NA,NA,,,NA,NA,,,NA,NA,,,NA,NA,,,NA,NA,,,NA,NA,,,NA,NA,,,NA,NA,,,NA,NA,,,NA,NA,,,NA,NA,,,NA,NA,,,NA,NA,,,NA
2100,LBR,Liberia,Lofa County,"7,98","-9,87","57,46",0,0,,2001-07-20,2001-07-21,0,,Fighting,Fighting,Fifteen rebels reportedly killed in renewed fighting in Lofa County,1,"""According to the government, 15 rebels were killed in Lofa County""",1,15,0,0,1,15,343,0,0,0,Liberians United for Reconciliation and Democracy (LURD),"Liberians United for Reconciliation and Democracy/ The group is essentially a loose coalition of anti-Taylor forces, drawing upon a variety of militia factions and refugee groups, increasingly backed by Guinea, with more indirect support from Sierra Leone, the U/ S/ and Great Britain/",,319,0,0,0,Armed Forces of Liberia (AFL),Armed Forces of Liberia (AFL),,NA,0,NA,0,,,,NA,0,NA,0,,,,NA,0,NA,0,,,,NA,0,NA,0,,,,NA,0,NA,0,,,,93,25/07/2001,BBC Monitoring,2,NA,,,NA,NA,,,NA,NA,,,NA,NA,,,NA,NA,,,NA,NA,,,NA,NA,,,NA,NA,,,NA,NA,,,NA,NA,,,NA,NA,,,NA,NA,,,NA,NA,,,NA,NA,,,NA,NA,,,NA
2101,LBR,Liberia,Lofa County,"7,98","-9,87","57,46",0,0,,2001-07-11,2001-07-11,0,,Fighting,Fighting,25 Rebels died in ambusch by goverment forces,1,fat max as reported by government sources,1,25,0,0,1,25,343,0,0,0,Liberians United for Reconciliation and Democracy (LURD),"Liberians United for Reconciliation and Democracy/ The group is essentially a loose coalition of anti-Taylor forces, drawing upon a variety of militia factions and refugee groups, increasingly backed by Guinea, with more indirect support from Sierra Leone, the U/ S/ and Great Britain/",,319,1,0,0,Armed Forces of Liberia (AFL),Armed Forces of Liberia (AFL),,NA,0,NA,0,,,,NA,0,NA,0,,,,NA,0,NA,0,,,,NA,0,NA,0,,,,NA,0,NA,0,,,,93,25/07/2001,BBC Monitoring,2,NA,,,NA,NA,,,NA,NA,,,NA,NA,,,NA,NA,,,NA,NA,,,NA,NA,,,NA,NA,,,NA,NA,,,NA,NA,,,NA,NA,,,NA,NA,,,NA,NA,,,NA,NA,,,NA,NA,,,NA
2105,LBR,Liberia,Foya Kamala,"8,36","-10,2",0,0,0,,2001-12-07,2001-12-07,1,source date is used,Fighting,Fighting,"Government forces recapture two localities, kill deputy rebel commander",1,Liberian government announces death of 28 LURD fighters,1,28,0,0,1,28,343,0,0,0,Liberians United for Reconciliation and Democracy (LURD),"Liberians United for Reconciliation and Democracy/ The group is essentially a loose coalition of anti-Taylor forces, drawing upon a variety of militia factions and refugee groups, increasingly backed by Guinea, with more indirect support from Sierra Leone, the U/ S/ and Great Britain/",,319,0,0,0,Armed Forces of Liberia (AFL),Armed Forces of Liberia (AFL),,NA,0,NA,0,,,,NA,0,NA,0,,,,NA,0,NA,0,,,,NA,0,NA,0,,,,NA,0,NA,0,,,,93,07/12/2001,BBC Monitoring,2,NA,,,NA,NA,,,NA,NA,,,NA,NA,,,NA,NA,,,NA,NA,,,NA,NA,,,NA,NA,,,NA,NA,,,NA,NA,,,NA,NA,,,NA,NA,,,NA,NA,,,NA,NA,,,NA,NA,,,NA
2420,LBR,Liberia,Foya Kamala,"8,36","-10,2",0,0,0,,1993-09-16,1993-09-16,0,,Unclear,Unclear,ULIMO accused of violation of cease-fire,1,many in three different locations,0,67,0,0,0,0,315,0,0,0,United Liberation Movement for Democracy in Liberia,"The United Liberation Movement of Liberia for Democracy (ULIMO) was a rebel group that participated in the First Liberian Civil War (1989-1996)/From its outset, ULIMO was beset with internal divisions and the group effectively broke into two separate militias in 1994: ULIMO-J, an ethnic Krahn faction led by General Roosevelt Johnson and ULIMO-K, a Mandingo-based faction led by Alhaji G/V/ Kromah/",,328,0,0,0,National Patriotic Front of Liberia (NPFL),National Patriotic Front of Liberia (NPFL),Charles Taylor,NA,0,NA,0,,,,NA,0,NA,0,,,,NA,0,NA,0,,,,NA,0,NA,0,,,,NA,0,NA,0,,,,85,20/09/1993,BBC Monitoring,0,NA,,,NA,NA,,,NA,NA,,,NA,NA,,,NA,NA,,,NA,NA,,,NA,NA,,,NA,NA,,,NA,NA,,,NA,NA,,,NA,NA,,,NA,NA,,,NA,NA,,,NA,NA,,,NA,NA,,,NA
2351,LBR,Liberia,Kolahun District,"8,03","-10,12","28,62",0,0,,1991-10-20,1991-10-21,0,,Unclear,Unclear,26 NFPL rebels killed by Sierra Leone troops,0,,26,26,0,0,26,26,328,0,0,0,National Patriotic Front of Liberia (NPFL),National Patriotic Front of Liberia (NPFL),Charles Taylor,332,0,0,0,Sierra Leonean Government Forces,Sierra Leonean Government Forces; regular army,,NA,0,NA,0,,,,NA,0,NA,0,,,,NA,0,NA,0,,,,NA,0,NA,0,,,,NA,0,NA,0,,,,83,25/10/1991,BBC Monitoring,0,NA,,,NA,NA,,,NA,NA,,,NA,NA,,,NA,NA,,,NA,NA,,,NA,NA,,,NA,NA,,,NA,NA,,,NA,NA,,,NA,NA,,,NA,NA,,,NA,NA,,,NA,NA,,,NA,NA,,,NA
2295,LBR,Liberia,Kolahun,"8,29","-10,08",0,20,0,"""///had lost control of
Kolahun, a town near the border with Sierra Leone and a former rebel base""",2001-12-15,2001-12-15,1,"""Fighting
increased last month/""",Fighting,Fighting,Fighting Grows In Diamond Area,0,,100,100,0,0,0,0,343,0,0,0,Liberians United for Reconciliation and Democracy (LURD),"Liberians United for Reconciliation and Democracy/ The group is essentially a loose coalition of anti-Taylor forces, drawing upon a variety of militia factions and refugee groups, increasingly backed by Guinea, with more indirect support from Sierra Leone, the U/ S/ and Great Britain/",,319,0,0,0,Armed Forces of Liberia (AFL),Armed Forces of Liberia (AFL),,NA,0,NA,0,,,,NA,0,NA,0,,,,NA,0,NA,0,,,,NA,0,NA,0,,,,NA,0,NA,0,,,,94,03/01/2002,New York Times,0,NA,,,NA,NA,,,NA,NA,,,NA,NA,,,NA,NA,,,NA,NA,,,NA,NA,,,NA,NA,,,NA,NA,,,NA,NA,,,NA,NA,,,NA,NA,,,NA,NA,,,NA,NA,,,NA,NA,,,NA
2406,LBR,Liberia,Fasama,"7,68","-9,49",0,0,0,,1993-05-23,1993-05-23,0,,Unclear,Unclear,200 killed by NPFL,1,more than 200 people,201,201,0,0,0,0,328,0,0,0,National Patriotic Front of Liberia (NPFL),National Patriotic Front of Liberia (NPFL),Charles Taylor,11,0,0,0,Unspecified actor,Unspecified actor,,NA,0,NA,0,,,,NA,0,NA,0,,,,NA,0,NA,0,,,,NA,0,NA,0,,,,NA,0,NA,0,,,,85,31/05/1993,BBC Monitoring,0,NA,,,NA,NA,,,NA,NA,,,NA,NA,,,NA,NA,,,NA,NA,,,NA,NA,,,NA,NA,,,NA,NA,,,NA,NA,,,NA,NA,,,NA,NA,,,NA,NA,,,NA,NA,,,NA,NA,,,NA
2419,LBR,Liberia,Vahun,"8,06","-10,5",0,0,0,,1993-09-16,1993-09-16,0,,Unclear,Unclear,ULIMO accused of violation of cease-fire,1,many in three locations,0,67,0,0,0,0,315,0,0,0,United Liberation Movement for Democracy in Liberia,"The United Liberation Movement of Liberia for Democracy (ULIMO) was a rebel group that participated in the First Liberian Civil War (1989-1996)/From its outset, ULIMO was beset with internal divisions and the group effectively broke into two separate militias in 1994: ULIMO-J, an ethnic Krahn faction led by General Roosevelt Johnson and ULIMO-K, a Mandingo-based faction led by Alhaji G/V/ Kromah/",,328,0,0,0,National Patriotic Front of Liberia (NPFL),National Patriotic Front of Liberia (NPFL),Charles Taylor,NA,0,NA,0,,,,NA,0,NA,0,,,,NA,0,NA,0,,,,NA,0,NA,0,,,,NA,0,NA,0,,,,85,20/09/1993,BBC Monitoring,0,NA,,,NA,NA,,,NA,NA,,,NA,NA,,,NA,NA,,,NA,NA,,,NA,NA,,,NA,NA,,,NA,NA,,,NA,NA,,,NA,NA,,,NA,NA,,,NA,NA,,,NA,NA,,,NA,NA,,,NA
2422,LBR,Liberia,Vahun,"8,06","-10,5",0,0,0,,1993-09-23,1993-09-23,0,,One-sided attack,Conventional use of force,Aerial bombing kills 8,0,,5,8,0,0,0,0,11,1,0,0,Unspecified actor,Unspecified actor,,11,0,0,0,Unspecified actor,Unspecified actor,,NA,0,NA,0,,,,NA,0,NA,0,,,,NA,0,NA,0,,,,NA,0,NA,0,,,,NA,0,NA,0,,,,85,24/09/1993,Washington Post,0,85,24/09/1993,The Guardian,0,85,23/09/1993,BBC Monitoring,0,NA,,,NA,NA,,,NA,NA,,,NA,NA,,,NA,NA,,,NA,NA,,,NA,NA,,,NA,NA,,,NA,NA,,,NA,NA,,,NA,NA,,,NA,NA,,,NA,NA,,,NA
2360,LBR,Liberia,Vahun,"8,06","-10,5",0,0,0,,1992-06-05,1992-06-05,1,date of broadcast,Fighting,Fighting,10 NPFL rebels killed,1,Fat max as claimed by taylor's defense spokesman,1,10,0,0,1,10,328,0,0,0,National Patriotic Front of Liberia (NPFL),National Patriotic Front of Liberia (NPFL),Charles Taylor,332,0,0,0,Sierra Leonean Government Forces,Sierra Leonean Government Forces; regular army,,NA,0,NA,0,,,,NA,0,NA,0,,,,NA,0,NA,0,,,,NA,0,NA,0,,,,NA,0,NA,0,,,,84,05/06/1992,BBC Monitoring,2,NA,,,NA,NA,,,NA,NA,,,NA,NA,,,NA,NA,,,NA,NA,,,NA,NA,,,NA,NA,,,NA,NA,,,NA,NA,,,NA,NA,,,NA,NA,,,NA,NA,,,NA,NA,,,NA,NA,,,NA
2361,LBR,Liberia,Vahun,"8,06","-10,5",0,0,0,,1992-05-15,1992-05-15,1,in May,Unclear,Unclear,Six ECOMOG troops dead,0,,6,6,0,0,6,6,321,0,0,0,ECOMOG,"ECOMOG, Community of West African States Monitoring Group",,328,0,0,0,National Patriotic Front of Liberia (NPFL),National Patriotic Front of Liberia (NPFL),Charles Taylor,NA,0,NA,0,,,,NA,0,NA,0,,,,NA,0,NA,0,,,,NA,0,NA,0,,,,NA,0,NA,0,,,,84,10/06/1992,BBC Monitoring,0,84,09/10/1992,BBC Monitoring,0,84,23/06/1992,BBC Monitoring,0,NA,,,NA,NA,,,NA,NA,,,NA,NA,,,NA,NA,,,NA,NA,,,NA,NA,,,NA,NA,,,NA,NA,,,NA,NA,,,NA,NA,,,NA,NA,,,NA,NA,,,NA
2043,LBR,Liberia,Voinjama District,"8,25","-9,82",26,0,0,"""in the embattled northern province of Voinjama""",2000-10-23,2000-10-23,0,,Fighting,Fighting,Heavily armed troops reportedly deployed along border with Guinea,1,"""wounds on the dissidents and killed several others/""",1,2,0,0,1,2,319,0,0,0,Armed Forces of Liberia (AFL),Armed Forces of Liberia (AFL),,343,0,0,0,Liberians United for Reconciliation and Democracy (LURD),"Liberians United for Reconciliation and Democracy/ The group is essentially a loose coalition of anti-Taylor forces, drawing upon a variety of militia factions and refugee groups, increasingly backed by Guinea, with more indirect support from Sierra Leone, the U/ S/ and Great Britain/",,NA,0,NA,0,,,,NA,0,NA,0,,,,NA,0,NA,0,,,,NA,0,NA,0,,,,NA,0,NA,0,,,,92,25/10/2000,BBC Monitoring,2,NA,,,NA,NA,,,NA,NA,,,NA,NA,,,NA,NA,,,NA,NA,,,NA,NA,,,NA,NA,,,NA,NA,,,NA,NA,,,NA,NA,,,NA,NA,,,NA,NA,,,NA,NA,,,NA,NA,,,NA
2044,LBR,Liberia,Voinjama District,"8,25","-9,82",26,0,1,"The raids, launched from the Liberian city of Voinjama, the fighting took place in Koyamah (Guinea)",2000-10-29,2000-10-29,0,,Fighting,Fighting,"Rebel attacks leave two dead, several wounded",0,,2,2,0,0,2,2,319,0,0,1,Armed Forces of Liberia (AFL),Armed Forces of Liberia (AFL),,335,0,0,0,Guinean government forces,Guinean government forces,,NA,0,NA,0,,,,NA,0,NA,0,,,,NA,0,NA,0,,,,NA,0,NA,0,,,,NA,0,NA,0,,,,92,01/11/2000,BBC Monitoring,0,NA,,,NA,NA,,,NA,NA,,,NA,NA,,,NA,NA,,,NA,NA,,,NA,NA,,,NA,NA,,,NA,NA,,,NA,NA,,,NA,NA,,,NA,NA,,,NA,NA,,,NA,NA,,,NA,NA,,,NA
2035,LBR,Liberia,Koinyamai,"8,47","-9,82",0,0,0,"""border town of Koryamah in the northern region of LOFA county,"" --> used 'Koinyamai'",2000-07-08,2000-07-08,1,These are the approx/ dates of the first phase of the incursion,Fighting,Fighting,Start of rebel incursion: July  2000,1,"""casualties involving the fighting forces and civilians
were not available ""until the dust settles down""""",1,1,0,0,0,0,145,0,0,1,Rebel(s),Unspecified rebel(s),,319,0,0,0,Armed Forces of Liberia (AFL),Armed Forces of Liberia (AFL),,NA,0,NA,0,,,,NA,0,NA,0,,,,NA,0,NA,0,,,,NA,0,NA,0,,,,NA,0,NA,0,,,,92,11/07/2000,BBC Monitoring,0,92,16/07/2000,BBC Monitoring,0,92,17/07/2000,BBC Monitoring,0,92,03/08/2000,BBC Monitoring,0,92,11/08/2000,BBC Monitoring,0,92,18/08/2000,BBC Monitoring,0,92,26/08/2000,BBC Monitoring,0,92,05/09/2000,BBC Monitoring,0,92,20/10/2000,BBC Monitoring,2,92,23/10/2000,BBC Monitoring,0,NA,,,NA,NA,,,NA,NA,,,NA,NA,,,NA,NA,,,NA,NA,,,NA
2048,LBR,Liberia,Voinjama,"8,42","-9,75",0,0,0,"""descending at the Voinjama airstrip/""",2000-04-13,2000-04-13,0,,One-sided attack,Use of small firearms,Liberian minister shot dead by dissidents,0,,1,1,0,1,0,0,343,1,0,0,Liberians United for Reconciliation and Democracy (LURD),"Liberians United for Reconciliation and Democracy/ The group is essentially a loose coalition of anti-Taylor forces, drawing upon a variety of militia factions and refugee groups, increasingly backed by Guinea, with more indirect support from Sierra Leone, the U/ S/ and Great Britain/",,319,0,0,0,Armed Forces of Liberia (AFL),Armed Forces of Liberia (AFL),,NA,0,NA,0,,,,NA,0,NA,0,,,,NA,0,NA,0,,,,NA,0,NA,0,,,,NA,0,NA,0,,,,93,17/08/2001,BBC Monitoring,0,93,25/08/2001,BBC Monitoring,0,NA,,,NA,NA,,,NA,NA,,,NA,NA,,,NA,NA,,,NA,NA,,,NA,NA,,,NA,NA,,,NA,NA,,,NA,NA,,,NA,NA,,,NA,NA,,,NA,NA,,,NA,NA,,,NA
2042,LBR,Liberia,Voinjama,"8,42","-9,75",0,10,1,""" outside the key provincial town of Voinjama""",2000-08-01,2000-08-01,0,,Fighting,Fighting,Dissidents  attacked a settlement outside the key provincial town of Voinjama,1,"""and
again declined to give an update on casualties at the battlefront/""",1,1,0,0,0,0,343,0,0,1,Liberians United for Reconciliation and Democracy (LURD),"Liberians United for Reconciliation and Democracy/ The group is essentially a loose coalition of anti-Taylor forces, drawing upon a variety of militia factions and refugee groups, increasingly backed by Guinea, with more indirect support from Sierra Leone, the U/ S/ and Great Britain/",,319,0,0,0,Armed Forces of Liberia (AFL),Armed Forces of Liberia (AFL),,NA,0,NA,0,,,,NA,0,NA,0,,,,NA,0,NA,0,,,,NA,0,NA,0,,,,NA,0,NA,0,,,,92,11/08/2000,BBC Monitoring,0,NA,,,NA,NA,,,NA,NA,,,NA,NA,,,NA,NA,,,NA,NA,,,NA,NA,,,NA,NA,,,NA,NA,,,NA,NA,,,NA,NA,,,NA,NA,,,NA,NA,,,NA,NA,,,NA,NA,,,NA
2418,LBR,Liberia,Voinjama,"8,42","-9,75",0,0,0,,1993-09-16,1993-09-16,0,,Unclear,Unclear,ULIMO accused of violation of cease-fire,1,many people in three locations,0,67,0,0,0,0,315,0,0,0,United Liberation Movement for Democracy in Liberia,"The United Liberation Movement of Liberia for Democracy (ULIMO) was a rebel group that participated in the First Liberian Civil War (1989-1996)/From its outset, ULIMO was beset with internal divisions and the group effectively broke into two separate militias in 1994: ULIMO-J, an ethnic Krahn faction led by General Roosevelt Johnson and ULIMO-K, a Mandingo-based faction led by Alhaji G/V/ Kromah/",,328,0,0,0,National Patriotic Front of Liberia (NPFL),National Patriotic Front of Liberia (NPFL),Charles Taylor,NA,0,NA,0,,,,NA,0,NA,0,,,,NA,0,NA,0,,,,NA,0,NA,0,,,,NA,0,NA,0,,,,85,20/09/1993,BBC Monitoring,0,NA,,,NA,NA,,,NA,NA,,,NA,NA,,,NA,NA,,,NA,NA,,,NA,NA,,,NA,NA,,,NA,NA,,,NA,NA,,,NA,NA,,,NA,NA,,,NA,NA,,,NA,NA,,,NA,NA,,,NA
2409,LBR,Liberia,Zorzor,"7,78","-9,43",0,20,0,,1993-06-23,1993-06-23,1,recently,One-sided attack,Landmines,ULIMO rebels killed by landmines,1,unspecified number,2,2,0,0,2,2,328,1,0,0,National Patriotic Front of Liberia (NPFL),National Patriotic Front of Liberia (NPFL),Charles Taylor,315,0,0,0,United Liberation Movement for Democracy in Liberia,"The United Liberation Movement of Liberia for Democracy (ULIMO) was a rebel group that participated in the First Liberian Civil War (1989-1996)/From its outset, ULIMO was beset with internal divisions and the group effectively broke into two separate militias in 1994: ULIMO-J, an ethnic Krahn faction led by General Roosevelt Johnson and ULIMO-K, a Mandingo-based faction led by Alhaji G/V/ Kromah/",,NA,0,NA,0,,,,NA,0,NA,0,,,,NA,0,NA,0,,,,NA,0,NA,0,,,,NA,0,NA,0,,,,85,02/07/1993,BBC Monitoring,0,NA,,,NA,NA,,,NA,NA,,,NA,NA,,,NA,NA,,,NA,NA,,,NA,NA,,,NA,NA,,,NA,NA,,,NA,NA,,,NA,NA,,,NA,NA,,,NA,NA,,,NA,NA,,,NA,NA,,,NA
2041,LBR,Liberia,Zorzor,"7,78","-9,43",0,0,0,Zorzor 220 km north of Monrovia,2000-09-22,2000-09-22,0,,Fighting,Fighting,Battle in Zorzor District,1,"""several Guinean forces were killed""",1,2,0,0,1,2,335,1,0,0,Guinean government forces,Guinean government forces,,319,0,0,0,Armed Forces of Liberia (AFL),Armed Forces of Liberia (AFL),,NA,0,NA,0,,,,NA,0,NA,0,,,,NA,0,NA,0,,,,NA,0,NA,0,,,,NA,0,NA,0,,,,92,25/09/2000,BBC Monitoring,2,92,25/09/2000,BBC Monitoring,0,92,11/10/2001,BBC Monitoring,2,NA,,,NA,NA,,,NA,NA,,,NA,NA,,,NA,NA,,,NA,NA,,,NA,NA,,,NA,NA,,,NA,NA,,,NA,NA,,,NA,NA,,,NA,NA,,,NA,NA,,,NA
2423,LBR,Liberia,Harbel,"6,28","-10,35",0,0,0,,1993-10-04,1993-10-07,1,three days in the last week,Unclear,Unclear,16 killed at Firestone  plantation,0,,16,16,4,4,12,12,383,0,0,0,National Patriotic Front of Liberia NPFL-faction,National Patriotic Front of Liberia NPFL-faction,,383,0,0,0,National Patriotic Front of Liberia NPFL-faction,National Patriotic Front of Liberia NPFL-faction,,NA,0,NA,0,,,,NA,0,NA,0,,,,NA,0,NA,0,,,,NA,0,NA,0,,,,NA,0,NA,0,,,,85,11/10/1993,BBC Monitoring,0,NA,,,NA,NA,,,NA,NA,,,NA,NA,,,NA,NA,,,NA,NA,,,NA,NA,,,NA,NA,,,NA,NA,,,NA,NA,,,NA,NA,,,NA,NA,,,NA,NA,,,NA,NA,,,NA,NA,,,NA
2384,LBR,Liberia,Harbel,"6,28","-10,35",0,0,0,,1992-11-03,1992-11-03,1,date of report,One-sided attack,Conventional use of force,38 die in attack on US owned rubber plantation,0,,38,38,38,38,0,0,321,1,0,0,ECOMOG,"ECOMOG, Community of West African States Monitoring Group",,25,0,0,0,Civilian(s),Civilian(s),,NA,0,NA,0,,,,NA,0,NA,0,,,,NA,0,NA,0,,,,NA,0,NA,0,,,,NA,0,NA,0,,,,84,04/11/1992,New York Times,0,84,04/11/1992,BBC Monitoring,0,NA,,,NA,NA,,,NA,NA,,,NA,NA,,,NA,NA,,,NA,NA,,,NA,NA,,,NA,NA,,,NA,NA,,,NA,NA,,,NA,NA,,,NA,NA,,,NA,NA,,,NA,NA,,,NA
2395,LBR,Liberia,Harbel,"6,28","-10,35",0,0,0,,1993-01-04,1993-01-04,1,date of broadcast,One-sided attack,Conventional use of force,Harbel bombed,1,several,2,2,0,0,0,0,321,1,0,1,ECOMOG,"ECOMOG, Community of West African States Monitoring Group",,11,0,0,0,Unspecified actor,Unspecified actor,,NA,0,NA,0,,,,NA,0,NA,0,,,,NA,0,NA,0,,,,NA,0,NA,0,,,,NA,0,NA,0,,,,85,08/12/1993,BBC Monitoring,2,NA,,,NA,NA,,,NA,NA,,,NA,NA,,,NA,NA,,,NA,NA,,,NA,NA,,,NA,NA,,,NA,NA,,,NA,NA,,,NA,NA,,,NA,NA,,,NA,NA,,,NA,NA,,,NA,NA,,,NA
2376,LBR,Liberia,Harbel,"6,28","-10,35",0,0,0,,1992-10-17,1992-10-17,0,,One-sided attack,Conventional use of force,ECOMOG killed civilians,1,"killing children, women and elderly people, two location hence split of numbers",1,1,1,1,0,0,321,1,0,0,ECOMOG,"ECOMOG, Community of West African States Monitoring Group",,25,0,0,0,Civilian(s),Civilian(s),,NA,0,NA,0,,,,NA,0,NA,0,,,,NA,0,NA,0,,,,NA,0,NA,0,,,,NA,0,NA,0,,,,84,20/10/1992,BBC Monitoring,2,NA,,,NA,NA,,,NA,NA,,,NA,NA,,,NA,NA,,,NA,NA,,,NA,NA,,,NA,NA,,,NA,NA,,,NA,NA,,,NA,NA,,,NA,NA,,,NA,NA,,,NA,NA,,,NA,NA,,,NA
2377,LBR,Liberia,Kakata,"6,53","-10,35",0,0,0,,1992-10-17,1992-10-17,0,,One-sided attack,Conventional use of force,ECOMOG killed civilians,1,"killing children, women and elderly, split of location, so split of numbers too",1,1,1,1,0,0,321,1,0,0,ECOMOG,"ECOMOG, Community of West African States Monitoring Group",,25,0,0,0,Civilian(s),Civilian(s),,NA,0,NA,0,,,,NA,0,NA,0,,,,NA,0,NA,0,,,,NA,0,NA,0,,,,NA,0,NA,0,,,,84,20/10/1992,New York Times,2,NA,,,NA,NA,,,NA,NA,,,NA,NA,,,NA,NA,,,NA,NA,,,NA,NA,,,NA,NA,,,NA,NA,,,NA,NA,,,NA,NA,,,NA,NA,,,NA,NA,,,NA,NA,,,NA,NA,,,NA
2396,LBR,Liberia,Kakata,"6,53","-10,35",0,0,0,,1993-01-14,1993-01-14,1,date of broadcast,Fighting,Fighting,200 ULIMO rebels killed by NPFL,1,report by NPFL,1,200,0,0,1,200,328,0,0,0,National Patriotic Front of Liberia (NPFL),National Patriotic Front of Liberia (NPFL),Charles Taylor,315,0,0,0,United Liberation Movement for Democracy in Liberia,"The United Liberation Movement of Liberia for Democracy (ULIMO) was a rebel group that participated in the First Liberian Civil War (1989-1996)/From its outset, ULIMO was beset with internal divisions and the group effectively broke into two separate militias in 1994: ULIMO-J, an ethnic Krahn faction led by General Roosevelt Johnson and ULIMO-K, a Mandingo-based faction led by Alhaji G/V/ Kromah/",,NA,0,NA,0,,,,NA,0,NA,0,,,,NA,0,NA,0,,,,NA,0,NA,0,,,,NA,0,NA,0,,,,85,14/01/1993,BBC Monitoring,2,NA,,,NA,NA,,,NA,NA,,,NA,NA,,,NA,NA,,,NA,NA,,,NA,NA,,,NA,NA,,,NA,NA,,,NA,NA,,,NA,NA,,,NA,NA,,,NA,NA,,,NA,NA,,,NA,NA,,,NA
2393,LBR,Liberia,Kakata,"6,53","-10,35",0,0,0,,1992-12-05,1992-12-06,0,,One-sided attack,Conventional use of force,ECOMOG shells Kakata and Buchanan,1,"2 locations, scores of people",1,1,0,0,0,0,321,1,0,0,ECOMOG,"ECOMOG, Community of West African States Monitoring Group",,11,0,0,0,Unspecified actor,Unspecified actor,,NA,0,NA,0,,,,NA,0,NA,0,,,,NA,0,NA,0,,,,NA,0,NA,0,,,,NA,0,NA,0,,,,84,07/12/1992,BBC Monitoring,2,NA,,,NA,NA,,,NA,NA,,,NA,NA,,,NA,NA,,,NA,NA,,,NA,NA,,,NA,NA,,,NA,NA,,,NA,NA,,,NA,NA,,,NA,NA,,,NA,NA,,,NA,NA,,,NA,NA,,,NA
2389,LBR,Liberia,Kakata,"6,53","-10,35",0,0,0,,1992-11-19,1992-11-19,0,,One-sided attack,Conventional use of force,ECOMOG attacks civilians,1,"hundreds, at least 200 at three different locations",1,66,1,66,0,0,25,0,0,0,Civilian(s),Civilian(s),,321,1,0,0,ECOMOG,"ECOMOG, Community of West African States Monitoring Group",,NA,0,NA,0,,,,NA,0,NA,0,,,,NA,0,NA,0,,,,NA,0,NA,0,,,,NA,0,NA,0,,,,84,20/11/1992,BBC Monitoring,2,NA,,,NA,NA,,,NA,NA,,,NA,NA,,,NA,NA,,,NA,NA,,,NA,NA,,,NA,NA,,,NA,NA,,,NA,NA,,,NA,NA,,,NA,NA,,,NA,NA,,,NA,NA,,,NA,NA,,,NA
2284,LBR,Liberia,Kakata,"6,53","-10,35",0,0,0,Kakata 40 miles northeast of Monrovia,1990-05-11,1990-05-11,0,,One-sided attack,Unclear,2 children killed,0,,2,2,0,0,0,0,539,0,0,0,Child(ren),Child(ren),,367,1,0,0,Krahn tribe,Krahn tribe of Presindent Samuel Doe,Samuel Doe,NA,0,NA,0,,,,NA,0,NA,0,,,,NA,0,NA,0,,,,NA,0,NA,0,,,,NA,0,NA,0,,,,82,02/09/1990,New York Times,0,NA,,,NA,NA,,,NA,NA,,,NA,NA,,,NA,NA,,,NA,NA,,,NA,NA,,,NA,NA,,,NA,NA,,,NA,NA,,,NA,NA,,,NA,NA,,,NA,NA,,,NA,NA,,,NA,NA,,,NA
2247,LBR,Liberia,Kakata,"6,53","-10,35",0,10,0,around the town of Kakata,1990-06-06,1990-06-06,1,in recent days,Unclear,Unclear,Ethnic Slaying,0,,30,30,0,0,0,0,11,0,0,0,Unspecified actor,Unspecified actor,,145,0,0,0,Rebel(s),Unspecified rebel(s),,NA,0,NA,0,,,,NA,0,NA,0,,,,NA,0,NA,0,,,,NA,0,NA,0,,,,NA,0,NA,0,,,,82,09/06/1990,New York Times,0,NA,,,NA,NA,,,NA,NA,,,NA,NA,,,NA,NA,,,NA,NA,,,NA,NA,,,NA,NA,,,NA,NA,,,NA,NA,,,NA,NA,,,NA,NA,,,NA,NA,,,NA,NA,,,NA,NA,,,NA
2455,LBR,Liberia,Kakata,"6,53","-10,35",0,0,0,,1995-09-13,1995-09-13,1,last month,One-sided attack,Unclear,Massacre in Nimba County,0,,60,100,60,100,0,0,328,1,0,0,National Patriotic Front of Liberia (NPFL),National Patriotic Front of Liberia (NPFL),Charles Taylor,25,0,0,0,Civilian(s),Civilian(s),,NA,0,NA,0,,,,NA,0,NA,0,,,,NA,0,NA,0,,,,NA,0,NA,0,,,,NA,0,NA,0,,,,87,11/10/1995,BBC Monitoring,0,87,08/10/1995,BBC Monitoring,0,87,06/10/1995,New York Times,0,NA,,,NA,NA,,,NA,NA,,,NA,NA,,,NA,NA,,,NA,NA,,,NA,NA,,,NA,NA,,,NA,NA,,,NA,NA,,,NA,NA,,,NA,NA,,,NA,NA,,,NA
2375,LBR,Liberia,Marshall,"6,15","-10,38",0,0,0,,1992-10-17,1992-10-17,0,,One-sided attack,Conventional use of force,200 killed by ECOMOG,1,Ecomog is accused of killing over 200 people in a village,1,201,0,0,0,0,321,1,0,0,ECOMOG,"ECOMOG, Community of West African States Monitoring Group",,706,0,0,0,Peasant(s),Peasant(s),,NA,0,NA,0,,,,NA,0,NA,0,,,,NA,0,NA,0,,,,NA,0,NA,0,,,,NA,0,NA,0,,,,84,20/10/1992,BBC Monitoring,2,NA,,,NA,NA,,,NA,NA,,,NA,NA,,,NA,NA,,,NA,NA,,,NA,NA,,,NA,NA,,,NA,NA,,,NA,NA,,,NA,NA,,,NA,NA,,,NA,NA,,,NA,NA,,,NA,NA,,,NA
2391,LBR,Liberia,Cape Palmas,"4,38","-7,72",0,0,0,,1992-11-27,1992-11-27,0,,One-sided attack,Conventional use of force,68 die by shelling of coastal town,1,reported by rebels,1,68,1,68,0,0,321,1,0,0,ECOMOG,"ECOMOG, Community of West African States Monitoring Group",,25,0,0,0,Civilian(s),Civilian(s),,NA,0,NA,0,,,,NA,0,NA,0,,,,NA,0,NA,0,,,,NA,0,NA,0,,,,NA,0,NA,0,,,,84,28/11/1992,New York Times,2,NA,,,NA,NA,,,NA,NA,,,NA,NA,,,NA,NA,,,NA,NA,,,NA,NA,,,NA,NA,,,NA,NA,,,NA,NA,,,NA,NA,,,NA,NA,,,NA,NA,,,NA,NA,,,NA,NA,,,NA
2397,LBR,Liberia,Harper,"4,38","-7,72",0,0,0,,1993-01-15,1993-01-15,0,,One-sided attack,Conventional use of force,ECOMOG bombs port held by NPFL,1,more than 20,1,21,1,21,0,0,321,1,0,0,ECOMOG,"ECOMOG, Community of West African States Monitoring Group",,328,0,0,0,National Patriotic Front of Liberia (NPFL),National Patriotic Front of Liberia (NPFL),Charles Taylor,NA,0,NA,0,,,,NA,0,NA,0,,,,NA,0,NA,0,,,,NA,0,NA,0,,,,NA,0,NA,0,,,,85,16/01/1993,BBC Monitoring,2,85,16/01/1993,BBC Monitoring,2,NA,,,NA,NA,,,NA,NA,,,NA,NA,,,NA,NA,,,NA,NA,,,NA,NA,,,NA,NA,,,NA,NA,,,NA,NA,,,NA,NA,,,NA,NA,,,NA,NA,,,NA,NA,,,NA
2283,LBR,Liberia,Banersville,"6,37","-10,73",0,0,0,,1990-08-31,1990-08-31,0,,Unclear,Unclear,200 feoreigners killed by NPFL,1,about 200,200,200,200,200,0,0,25,0,0,0,Civilian(s),Civilian(s),,328,0,0,0,National Patriotic Front of Liberia (NPFL),National Patriotic Front of Liberia (NPFL),Charles Taylor,NA,0,NA,0,,,,NA,0,NA,0,,,,NA,0,NA,0,,,,NA,0,NA,0,,,,NA,0,NA,0,,,,82,01/09/1990,Washington Post,0,82,01/09/1990,New York Times,0,NA,,,NA,NA,,,NA,NA,,,NA,NA,,,NA,NA,,,NA,NA,,,NA,NA,,,NA,NA,,,NA,NA,,,NA,NA,,,NA,NA,,,NA,NA,,,NA,NA,,,NA,NA,,,NA
2354,LBR,Liberia,Caldwell,"6,39","-10,73",0,0,0,,1992-01-07,1992-01-07,0,,One-sided attack,Unclear,Johnson executes three own members,0,,3,3,0,0,3,3,370,1,0,0,Independent National Patriotic Front (INPFL),Independent National Patriotic Front (INPFL),Prince Johnson,370,0,0,0,Independent National Patriotic Front (INPFL),Independent National Patriotic Front (INPFL),Prince Johnson,NA,0,NA,0,,,,NA,0,NA,0,,,,NA,0,NA,0,,,,NA,0,NA,0,,,,NA,0,NA,0,,,,84,10/01/1992,BBC Monitoring,0,NA,,,NA,NA,,,NA,NA,,,NA,NA,,,NA,NA,,,NA,NA,,,NA,NA,,,NA,NA,,,NA,NA,,,NA,NA,,,NA,NA,,,NA,NA,,,NA,NA,,,NA,NA,,,NA,NA,,,NA
2428,LBR,Liberia,Caldwell,"6,39","-10,73",0,0,0,,1991-02-21,1991-02-21,1,date of broadcast,Unclear,Unclear,"Wife of Maj-Gen Allison, Angeline Watta, killed",0,,1,1,0,0,0,0,370,0,0,0,Independent National Patriotic Front (INPFL),Independent National Patriotic Front (INPFL),Prince Johnson,319,0,0,0,Armed Forces of Liberia (AFL),Armed Forces of Liberia (AFL),,NA,0,NA,0,,,,NA,0,NA,0,,,,NA,0,NA,0,,,,NA,0,NA,0,,,,NA,0,NA,0,,,,83,21/02/1991,BBC Monitoring,0,NA,,,NA,NA,,,NA,NA,,,NA,NA,,,NA,NA,,,NA,NA,,,NA,NA,,,NA,NA,,,NA,NA,,,NA,NA,,,NA,NA,,,NA,NA,,,NA,NA,,,NA,NA,,,NA,NA,,,NA
2382,LBR,Liberia,Gardnersville,"6,34","-10,74",0,0,0,,1992-10-31,1992-10-31,1,date of death confirmation,One-sided attack,Unclear,5 US nuns killed,0,,5,9,5,9,0,0,343,1,0,1,Liberians United for Reconciliation and Democracy (LURD),"Liberians United for Reconciliation and Democracy/ The group is essentially a loose coalition of anti-Taylor forces, drawing upon a variety of militia factions and refugee groups, increasingly backed by Guinea, with more indirect support from Sierra Leone, the U/ S/ and Great Britain/",,25,0,0,0,Civilian(s),Civilian(s),,NA,0,NA,0,,,,NA,0,NA,0,,,,NA,0,NA,0,,,,NA,0,NA,0,,,,NA,0,NA,0,,,,84,01/11/1992,Washington Post,0,84,01/11/1992,New York Times,0,84,02/11/1992,Washington Post,0,NA,,,NA,NA,,,NA,NA,,,NA,NA,,,NA,NA,,,NA,NA,,,NA,NA,,,NA,NA,,,NA,NA,,,NA,NA,,,NA,NA,,,NA,NA,,,NA,NA,,,NA
2479,LBR,Liberia,Logan Town,"6,35","-10,78",0,0,0,,1996-04-29,1996-04-29,0,,Unclear,Unclear,3 more killed at Barclay training camp,0,,3,3,0,0,0,0,11,0,0,0,Unspecified actor,Unspecified actor,,11,0,0,0,Unspecified actor,Unspecified actor,,NA,0,NA,0,,,,NA,0,NA,0,,,,NA,0,NA,0,,,,NA,0,NA,0,,,,NA,0,NA,0,,,,88,01/05/1996,Washington Post,0,NA,,,NA,NA,,,NA,NA,,,NA,NA,,,NA,NA,,,NA,NA,,,NA,NA,,,NA,NA,,,NA,NA,,,NA,NA,,,NA,NA,,,NA,NA,,,NA,NA,,,NA,NA,,,NA,NA,,,NA
2480,LBR,Liberia,Monrovia,"6,31","-10,8",0,0,0,,1996-04-30,1996-04-30,0,,Fighting,Fighting,US marines kill three rebels,0,,3,3,0,0,3,3,110,0,0,0,United States Armed Forces,Forces of the United States of Amerika,,145,0,0,0,Rebel(s),Unspecified rebel(s),,NA,0,NA,0,,,,NA,0,NA,0,,,,NA,0,NA,0,,,,NA,0,NA,0,,,,NA,0,NA,0,,,,88,01/05/1996,Washington Post,0,88,01/05/1996,New York Times,0,88,01/05/1996,The Guardian,0,NA,,,NA,NA,,,NA,NA,,,NA,NA,,,NA,NA,,,NA,NA,,,NA,NA,,,NA,NA,,,NA,NA,,,NA,NA,,,NA,NA,,,NA,NA,,,NA,NA,,,NA
2481,LBR,Liberia,Monrovia,"6,31","-10,8",0,0,0,,1996-04-30,1996-04-30,0,,One-sided attack,Conventional use of force,3 die under rocketfire on Barclay training camp,0,,3,3,0,0,0,0,11,1,0,0,Unspecified actor,Unspecified actor,,11,0,0,0,Unspecified actor,Unspecified actor,,NA,0,NA,0,,,,NA,0,NA,0,,,,NA,0,NA,0,,,,NA,0,NA,0,,,,NA,0,NA,0,,,,88,02/05/1996,New York Times,0,NA,,,NA,NA,,,NA,NA,,,NA,NA,,,NA,NA,,,NA,NA,,,NA,NA,,,NA,NA,,,NA,NA,,,NA,NA,,,NA,NA,,,NA,NA,,,NA,NA,,,NA,NA,,,NA,NA,,,NA
2482,LBR,Liberia,Monrovia,"6,31","-10,8",0,0,0,,1996-05-04,1996-05-04,0,,Unclear,Unclear,5 NPFL fighters killed,0,,5,5,0,0,5,5,11,0,0,0,Unspecified actor,Unspecified actor,,328,0,0,0,National Patriotic Front of Liberia (NPFL),National Patriotic Front of Liberia (NPFL),Charles Taylor,NA,0,NA,0,,,,NA,0,NA,0,,,,NA,0,NA,0,,,,NA,0,NA,0,,,,NA,0,NA,0,,,,88,06/05/1996,New York Times,0,NA,,,NA,NA,,,NA,NA,,,NA,NA,,,NA,NA,,,NA,NA,,,NA,NA,,,NA,NA,,,NA,NA,,,NA,NA,,,NA,NA,,,NA,NA,,,NA,NA,,,NA,NA,,,NA,NA,,,NA
2483,LBR,Liberia,Monrovia,"6,31","-10,8",0,0,0,,1996-05-05,1996-05-05,0,,Fighting,Fighting,2 NPFL members killed by ECOMOG,0,,2,2,0,0,2,2,321,0,0,0,ECOMOG,"ECOMOG, Community of West African States Monitoring Group",,328,0,0,0,National Patriotic Front of Liberia (NPFL),National Patriotic Front of Liberia (NPFL),Charles Taylor,NA,0,NA,0,,,,NA,0,NA,0,,,,NA,0,NA,0,,,,NA,0,NA,0,,,,NA,0,NA,0,,,,88,06/05/1996,New York Times,0,NA,,,NA,NA,,,NA,NA,,,NA,NA,,,NA,NA,,,NA,NA,,,NA,NA,,,NA,NA,,,NA,NA,,,NA,NA,,,NA,NA,,,NA,NA,,,NA,NA,,,NA,NA,,,NA,NA,,,NA
2484,LBR,Liberia,Monrovia,"6,31","-10,8",0,0,0,,1996-05-05,1996-05-05,0,,Unclear,Unclear,Fighting goes on,1,men were killed,2,2,0,0,0,0,328,0,0,0,National Patriotic Front of Liberia (NPFL),National Patriotic Front of Liberia (NPFL),Charles Taylor,314,0,0,0,Ulimo-J,United Liberation Movement of Liberia for Democracy-Johnson faction (ULIMO-J),General Roosevelt Johnson/,11,0,0,0,Unspecified actor,Unspecified actor,,NA,0,NA,0,,,,NA,0,NA,0,,,,NA,0,NA,0,,,,NA,0,NA,0,,,,88,05/05/1996,BBC Monitoring,0,NA,,,NA,NA,,,NA,NA,,,NA,NA,,,NA,NA,,,NA,NA,,,NA,NA,,,NA,NA,,,NA,NA,,,NA,NA,,,NA,NA,,,NA,NA,,,NA,NA,,,NA,NA,,,NA,NA,,,NA
2485,LBR,Liberia,Monrovia,"6,31","-10,8",0,0,0,,1996-05-14,1996-05-14,0,,Fighting,Fighting,17 killed in new fightings,0,,17,17,0,0,0,0,11,0,0,0,Unspecified actor,Unspecified actor,,11,0,0,0,Unspecified actor,Unspecified actor,,NA,0,NA,0,,,,NA,0,NA,0,,,,NA,0,NA,0,,,,NA,0,NA,0,,,,NA,0,NA,0,,,,88,15/05/1996,BBC Monitoring,0,NA,,,NA,NA,,,NA,NA,,,NA,NA,,,NA,NA,,,NA,NA,,,NA,NA,,,NA,NA,,,NA,NA,,,NA,NA,,,NA,NA,,,NA,NA,,,NA,NA,,,NA,NA,,,NA,NA,,,NA
2486,LBR,Liberia,Monrovia,"6,31","-10,8",0,0,0,,1996-05-20,1996-05-20,0,,Fighting,Fighting,13 died in new clashes,0,,13,13,0,0,0,0,328,0,0,0,National Patriotic Front of Liberia (NPFL),National Patriotic Front of Liberia (NPFL),Charles Taylor,314,0,0,0,Ulimo-J,United Liberation Movement of Liberia for Democracy-Johnson faction (ULIMO-J),General Roosevelt Johnson/,NA,0,NA,0,,,,NA,0,NA,0,,,,NA,0,NA,0,,,,NA,0,NA,0,,,,NA,0,NA,0,,,,88,21/05/1996,BBC Monitoring,0,NA,,,NA,NA,,,NA,NA,,,NA,NA,,,NA,NA,,,NA,NA,,,NA,NA,,,NA,NA,,,NA,NA,,,NA,NA,,,NA,NA,,,NA,NA,,,NA,NA,,,NA,NA,,,NA,NA,,,NA
2487,LBR,Liberia,Monrovia,"6,31","-10,8",0,0,0,,1996-05-22,1996-05-22,0,,Fighting,Fighting,1 person killed in clash between ULIMO-J and NPFL,0,,1,1,0,0,0,0,314,0,0,0,Ulimo-J,United Liberation Movement of Liberia for Democracy-Johnson faction (ULIMO-J),General Roosevelt Johnson/,328,0,0,0,National Patriotic Front of Liberia (NPFL),National Patriotic Front of Liberia (NPFL),Charles Taylor,NA,0,NA,0,,,,NA,0,NA,0,,,,NA,0,NA,0,,,,NA,0,NA,0,,,,NA,0,NA,0,,,,88,22/05/1996,BBC Monitoring,0,NA,,,NA,NA,,,NA,NA,,,NA,NA,,,NA,NA,,,NA,NA,,,NA,NA,,,NA,NA,,,NA,NA,,,NA,NA,,,NA,NA,,,NA,NA,,,NA,NA,,,NA,NA,,,NA,NA,,,NA
2488,LBR,Liberia,Monrovia,"6,31","-10,8",0,0,0,,1996-05-24,1996-05-24,0,,One-sided attack,Conventional use of force,7 killed at Barclay training camp,0,,7,7,0,0,0,0,367,0,0,0,Krahn tribe,Krahn tribe of Presindent Samuel Doe,Samuel Doe,11,1,0,0,Unspecified actor,Unspecified actor,,NA,0,NA,0,,,,NA,0,NA,0,,,,NA,0,NA,0,,,,NA,0,NA,0,,,,NA,0,NA,0,,,,88,24/05/1996,BBC Monitoring,0,NA,,,NA,NA,,,NA,NA,,,NA,NA,,,NA,NA,,,NA,NA,,,NA,NA,,,NA,NA,,,NA,NA,,,NA,NA,,,NA,NA,,,NA,NA,,,NA,NA,,,NA,NA,,,NA,NA,,,NA
2490,LBR,Liberia,Monrovia,"6,31","-10,8",0,0,0,,1996-10-31,1996-10-31,0,,One-sided attack,Unclear,Attempted assassination on Charles Taylor,1,sources differ,5,10,0,0,0,0,319,0,0,0,Armed Forces of Liberia (AFL),Armed Forces of Liberia (AFL),,13,1,0,0,Bandits/criminals/gunmen,Bandits/criminals/gunmen,,NA,0,NA,0,,,,NA,0,NA,0,,,,NA,0,NA,0,,,,NA,0,NA,0,,,,NA,0,NA,0,,,,88,01/11/1996,New York Times,0,88,01/11/1996,The Guardian,0,88,31/10/1996,BBC Monitoring,0,88,31/10/1996,BBC Monitoring,0,88,08/11/1996,BBC Monitoring,0,NA,,,NA,NA,,,NA,NA,,,NA,NA,,,NA,NA,,,NA,NA,,,NA,NA,,,NA,NA,,,NA,NA,,,NA,NA,,,NA,NA,,,NA
2465,LBR,Liberia,Monrovia,"6,31","-10,8",0,0,0,,2003-10-01,2003-10-01,0,,Fighting,Fighting,Rebls kill civillians jin Monrovia gun battle,0,,13,13,13,13,0,0,319,0,0,0,Armed Forces of Liberia (AFL),Armed Forces of Liberia (AFL),,343,0,0,0,Liberians United for Reconciliation and Democracy (LURD),"Liberians United for Reconciliation and Democracy/ The group is essentially a loose coalition of anti-Taylor forces, drawing upon a variety of militia factions and refugee groups, increasingly backed by Guinea, with more indirect support from Sierra Leone, the U/ S/ and Great Britain/",,NA,0,NA,0,,,,NA,0,NA,0,,,,NA,0,NA,0,,,,NA,0,NA,0,,,,NA,0,NA,0,,,,95,03/10/2003,New York Times,0,NA,,,NA,NA,,,NA,NA,,,NA,NA,,,NA,NA,,,NA,NA,,,NA,NA,,,NA,NA,,,NA,NA,,,NA,NA,,,NA,NA,,,NA,NA,,,NA,NA,,,NA,NA,,,NA,NA,,,NA
2461,LBR,Liberia,Monrovia,"6,31","-10,8",0,0,0,,2003-10-02,2003-10-02,1,Source date used,Fighting,Fighting,Fighting errupted in Monrovia,0,,3,3,2,2,1,1,145,0,0,0,Rebel(s),Unspecified rebel(s),,319,0,0,0,Armed Forces of Liberia (AFL),Armed Forces of Liberia (AFL),,NA,0,NA,0,,,,NA,0,NA,0,,,,NA,0,NA,0,,,,NA,0,NA,0,,,,NA,0,NA,0,,,,95,02/10/2003,Washington Post,0,NA,,,NA,NA,,,NA,NA,,,NA,NA,,,NA,NA,,,NA,NA,,,NA,NA,,,NA,NA,,,NA,NA,,,NA,NA,,,NA,NA,,,NA,NA,,,NA,NA,,,NA,NA,,,NA,NA,,,NA
2495,LBR,Liberia,Monrovia,"6,31","-10,8",0,0,0,,2004-10-29,2004-10-29,0,,Fighting,Fighting,Violence between Muslims and Christians,0,,7,7,7,7,0,0,402,0,0,0,Rioter(s),Rioter(s),,351,0,0,0,United Nations Troops,Armed forces of the United Nations Organisation,,NA,0,NA,0,,,,NA,0,NA,0,,,,NA,0,NA,0,,,,NA,0,NA,0,,,,NA,0,NA,0,,,,96,30/10/2004,Washington Post,0,96,31/10/2004,Washington Post,0,NA,,,NA,NA,,,NA,NA,,,NA,NA,,,NA,NA,,,NA,NA,,,NA,NA,,,NA,NA,,,NA,NA,,,NA,NA,,,NA,NA,,,NA,NA,,,NA,NA,,,NA,NA,,,NA
2496,LBR,Liberia,Monrovia,"6,31","-10,8",0,0,0,,2004-10-31,2004-10-31,0,,Fighting,Fighting,Clashes in Liberia's Capital,0,,1,1,0,0,0,0,402,0,0,0,Rioter(s),Rioter(s),,402,0,0,0,Rioter(s),Rioter(s),,NA,0,NA,0,,,,NA,0,NA,0,,,,NA,0,NA,0,,,,NA,0,NA,0,,,,NA,0,NA,0,,,,96,01/11/2004,New York Times,0,NA,,,NA,NA,,,NA,NA,,,NA,NA,,,NA,NA,,,NA,NA,,,NA,NA,,,NA,NA,,,NA,NA,,,NA,NA,,,NA,NA,,,NA,NA,,,NA,NA,,,NA,NA,,,NA,NA,,,NA
2497,LBR,Liberia,Monrovia,"6,31","-10,8",0,0,0,,2004-10-29,2004-10-31,0,,Fighting,Fighting,Riots in Monrovia,0,,18,18,0,0,0,0,402,0,0,0,Rioter(s),Rioter(s),,402,0,0,0,Rioter(s),Rioter(s),,NA,0,NA,0,,,,NA,0,NA,0,,,,NA,0,NA,0,,,,NA,0,NA,0,,,,NA,0,NA,0,,,,96,02/11/2004,Washington Post,0,NA,,,NA,NA,,,NA,NA,,,NA,NA,,,NA,NA,,,NA,NA,,,NA,NA,,,NA,NA,,,NA,NA,,,NA,NA,,,NA,NA,,,NA,NA,,,NA,NA,,,NA,NA,,,NA,NA,,,NA
2498,LBR,Liberia,Monrovia,"6,31","-10,8",0,0,0,,2006-01-27,2006-01-27,1,Source date used,Unclear,Unclear,Unrest in Monrovia,0,,4,4,0,0,0,0,402,0,0,0,Rioter(s),Rioter(s),,402,0,0,0,Rioter(s),Rioter(s),,NA,0,NA,0,,,,NA,0,NA,0,,,,NA,0,NA,0,,,,NA,0,NA,0,,,,NA,0,NA,0,,,,97,27/01/2006,BBC Monitoring,0,NA,,,NA,NA,,,NA,NA,,,NA,NA,,,NA,NA,,,NA,NA,,,NA,NA,,,NA,NA,,,NA,NA,,,NA,NA,,,NA,NA,,,NA,NA,,,NA,NA,,,NA,NA,,,NA,NA,,,NA
2501,LBR,Liberia,Monrovia,"6,31","-10,8",0,0,0,,2006-08-07,2006-08-07,1,Source date used,Unclear,Unclear,Liberian police arrest security chief over shooting incident,0,,1,1,0,0,0,0,319,0,0,0,Armed Forces of Liberia (AFL),Armed Forces of Liberia (AFL),,11,0,0,0,Unspecified actor,Unspecified actor,,NA,0,NA,0,,,,NA,0,NA,0,,,,NA,0,NA,0,,,,NA,0,NA,0,,,,NA,0,NA,0,,,,98,07/08/2006,BBC Monitoring,0,NA,,,NA,NA,,,NA,NA,,,NA,NA,,,NA,NA,,,NA,NA,,,NA,NA,,,NA,NA,,,NA,NA,,,NA,NA,,,NA,NA,,,NA,NA,,,NA,NA,,,NA,NA,,,NA,NA,,,NA
2506,LBR,Liberia,Monrovia,"6,31","-10,8",0,0,0,,2007-07-24,2007-07-24,0,,One-sided attack,Use of hand-held non firearms,Chinese killed,0,,1,1,1,1,0,0,11,1,NA,0,Unspecified actor,Unspecified actor,,755,0,NA,0,Chinese technical cooperation expert(s),Chinese technical cooperation expert(s),,NA,0,NA,0,,,,NA,0,NA,0,,,,NA,0,NA,0,,,,NA,0,NA,0,,,,NA,0,NA,0,,,,99,31/07/2007,BBC Monitoring,0,NA,,,NA,NA,,,NA,NA,,,NA,NA,,,NA,NA,,,NA,NA,,,NA,NA,,,NA,NA,,,NA,NA,,,NA,NA,,,NA,NA,,,NA,NA,,,NA,NA,,,NA,NA,,,NA,NA,,,NA
2425,LBR,Liberia,Monrovia,"6,31","-10,8",0,0,0,,1993-12-07,1993-12-07,1,recently,Unclear,Unclear,ECOMOG supposedly kills 3 Liberians,0,,3,3,0,0,0,0,321,0,0,0,ECOMOG,"ECOMOG, Community of West African States Monitoring Group",,11,0,0,0,Unspecified actor,Unspecified actor,,NA,0,NA,0,,,,NA,0,NA,0,,,,NA,0,NA,0,,,,NA,0,NA,0,,,,NA,0,NA,0,,,,85,14/12/1993,BBC Monitoring,0,NA,,,NA,NA,,,NA,NA,,,NA,NA,,,NA,NA,,,NA,NA,,,NA,NA,,,NA,NA,,,NA,NA,,,NA,NA,,,NA,NA,,,NA,NA,,,NA,NA,,,NA,NA,,,NA,NA,,,NA
2410,LBR,Liberia,Monrovia,"6,31","-10,8",0,0,0,"At least five people were killed in the attack about five meters away
from the US embassy",2003-07-21,2003-07-21,0,,One-sided attack,Conventional use of force,"Monrovia ""engulfed under heavy rain of mortal fire""",0,,5,25,5,25,0,0,25,0,0,0,Civilian(s),Civilian(s),,343,1,0,1,Liberians United for Reconciliation and Democracy (LURD),"Liberians United for Reconciliation and Democracy/ The group is essentially a loose coalition of anti-Taylor forces, drawing upon a variety of militia factions and refugee groups, increasingly backed by Guinea, with more indirect support from Sierra Leone, the U/ S/ and Great Britain/",,NA,0,NA,0,,,,NA,0,NA,0,,,,NA,0,NA,0,,,,NA,0,NA,0,,,,NA,0,NA,0,,,,95,21/07/2003,BBC Monitoring,0,95,22/07/2003,Washington Post,0,NA,,,NA,NA,,,NA,NA,,,NA,NA,,,NA,NA,,,NA,NA,,,NA,NA,,,NA,NA,,,NA,NA,,,NA,NA,,,NA,NA,,,NA,NA,,,NA,NA,,,NA,NA,,,NA
2411,LBR,Liberia,Monrovia,"6,31","-10,8",0,0,0,"""in a Freemasons hall """,2003-07-21,2003-07-21,0,,One-sided attack,Conventional use of force,Shelling kills 20 in single explosion,0,,18,20,18,20,0,0,25,0,0,0,Civilian(s),Civilian(s),,343,1,0,1,Liberians United for Reconciliation and Democracy (LURD),"Liberians United for Reconciliation and Democracy/ The group is essentially a loose coalition of anti-Taylor forces, drawing upon a variety of militia factions and refugee groups, increasingly backed by Guinea, with more indirect support from Sierra Leone, the U/ S/ and Great Britain/",,NA,0,NA,0,,,,NA,0,NA,0,,,,NA,0,NA,0,,,,NA,0,NA,0,,,,NA,0,NA,0,,,,95,21/07/2003,BBC Monitoring,0,95,22/07/2003,Washington Post,0,NA,,,NA,NA,,,NA,NA,,,NA,NA,,,NA,NA,,,NA,NA,,,NA,NA,,,NA,NA,,,NA,NA,,,NA,NA,,,NA,NA,,,NA,NA,,,NA,NA,,,NA,NA,,,NA
2412,LBR,Liberia,Monrovia,"6,31","-10,8",0,0,0,close to US embassy,2003-07-20,2003-07-20,0,,One-sided attack,Conventional use of force,Boy was killed by mortar fire,0,,1,1,1,1,0,0,25,0,0,0,Civilian(s),Civilian(s),,343,1,0,1,Liberians United for Reconciliation and Democracy (LURD),"Liberians United for Reconciliation and Democracy/ The group is essentially a loose coalition of anti-Taylor forces, drawing upon a variety of militia factions and refugee groups, increasingly backed by Guinea, with more indirect support from Sierra Leone, the U/ S/ and Great Britain/",,NA,0,NA,0,,,,NA,0,NA,0,,,,NA,0,NA,0,,,,NA,0,NA,0,,,,NA,0,NA,0,,,,95,20/07/2003,New York Times,0,NA,,,NA,NA,,,NA,NA,,,NA,NA,,,NA,NA,,,NA,NA,,,NA,NA,,,NA,NA,,,NA,NA,,,NA,NA,,,NA,NA,,,NA,NA,,,NA,NA,,,NA,NA,,,NA,NA,,,NA
2413,LBR,Liberia,Monrovia,"6,31","-10,8",0,0,0,,2003-07-22,2003-07-22,0,,One-sided attack,Conventional use of force,"Mortar barrage again: woman killed, infant survived",0,,1,1,1,1,0,0,25,0,0,0,Civilian(s),Civilian(s),,343,1,0,1,Liberians United for Reconciliation and Democracy (LURD),"Liberians United for Reconciliation and Democracy/ The group is essentially a loose coalition of anti-Taylor forces, drawing upon a variety of militia factions and refugee groups, increasingly backed by Guinea, with more indirect support from Sierra Leone, the U/ S/ and Great Britain/",,NA,0,NA,0,,,,NA,0,NA,0,,,,NA,0,NA,0,,,,NA,0,NA,0,,,,NA,0,NA,0,,,,95,23/07/2003,New York Times,0,95,27/07/2003,Washington Post,0,NA,,,NA,NA,,,NA,NA,,,NA,NA,,,NA,NA,,,NA,NA,,,NA,NA,,,NA,NA,,,NA,NA,,,NA,NA,,,NA,NA,,,NA,NA,,,NA,NA,,,NA,NA,,,NA
2414,LBR,Liberia,Monrovia,"6,31","-10,8",0,0,0,,2003-07-25,2003-07-25,0,,One-sided attack,Conventional use of force,Mortar barrage continues,0,,23,26,0,0,0,0,25,0,0,0,Civilian(s),Civilian(s),,343,1,0,0,Liberians United for Reconciliation and Democracy (LURD),"Liberians United for Reconciliation and Democracy/ The group is essentially a loose coalition of anti-Taylor forces, drawing upon a variety of militia factions and refugee groups, increasingly backed by Guinea, with more indirect support from Sierra Leone, the U/ S/ and Great Britain/",,NA,0,NA,0,,,,NA,0,NA,0,,,,NA,0,NA,0,,,,NA,0,NA,0,,,,NA,0,NA,0,,,,95,25/07/2003,New York Times,0,95,26/07/2003,Washington Post,0,NA,,,NA,NA,,,NA,NA,,,NA,NA,,,NA,NA,,,NA,NA,,,NA,NA,,,NA,NA,,,NA,NA,,,NA,NA,,,NA,NA,,,NA,NA,,,NA,NA,,,NA,NA,,,NA
2415,LBR,Liberia,Monrovia,"6,31","-10,8",0,0,0,"""Fighting raged today at Monrovia's port/""",2003-07-25,2003-07-25,0,,Fighting,Fighting,Shelling of church,0,,7,7,0,7,0,0,319,1,0,1,Armed Forces of Liberia (AFL),Armed Forces of Liberia (AFL),,343,1,0,1,Liberians United for Reconciliation and Democracy (LURD),"Liberians United for Reconciliation and Democracy/ The group is essentially a loose coalition of anti-Taylor forces, drawing upon a variety of militia factions and refugee groups, increasingly backed by Guinea, with more indirect support from Sierra Leone, the U/ S/ and Great Britain/",,708,0,NA,0,Refugee(s),Refugee(s),,NA,0,NA,0,,,,NA,0,NA,0,,,,NA,0,NA,0,,,,NA,0,NA,0,,,,95,27/07/2003,Washington Post,0,95,27/07/2003,New York Times,0,NA,,,NA,NA,,,NA,NA,,,NA,NA,,,NA,NA,,,NA,NA,,,NA,NA,,,NA,NA,,,NA,NA,,,NA,NA,,,NA,NA,,,NA,NA,,,NA,NA,,,NA,NA,,,NA
2416,LBR,Liberia,Monrovia,"6,31","-10,8",0,0,0,"Monrovia, Old Bridge",2003-07-26,2003-07-26,0,,One-sided attack,Conventional use of force,Whole family wiped out by mortar fire,0,,10,10,10,10,0,0,25,0,0,0,Civilian(s),Civilian(s),,343,1,0,0,Liberians United for Reconciliation and Democracy (LURD),"Liberians United for Reconciliation and Democracy/ The group is essentially a loose coalition of anti-Taylor forces, drawing upon a variety of militia factions and refugee groups, increasingly backed by Guinea, with more indirect support from Sierra Leone, the U/ S/ and Great Britain/",,NA,0,NA,0,,,,NA,0,NA,0,,,,NA,0,NA,0,,,,NA,0,NA,0,,,,NA,0,NA,0,,,,95,28/07/2003,New York Times,0,NA,,,NA,NA,,,NA,NA,,,NA,NA,,,NA,NA,,,NA,NA,,,NA,NA,,,NA,NA,,,NA,NA,,,NA,NA,,,NA,NA,,,NA,NA,,,NA,NA,,,NA,NA,,,NA,NA,,,NA
2417,LBR,Liberia,Monrovia,"6,31","-10,8",0,0,0,"Monrovia, Old Bridge",2003-07-27,2003-07-27,0,,One-sided attack,Conventional use of force,Rebel bombardment killed six people,0,,6,6,6,6,0,0,25,0,0,0,Civilian(s),Civilian(s),,343,1,0,0,Liberians United for Reconciliation and Democracy (LURD),"Liberians United for Reconciliation and Democracy/ The group is essentially a loose coalition of anti-Taylor forces, drawing upon a variety of militia factions and refugee groups, increasingly backed by Guinea, with more indirect support from Sierra Leone, the U/ S/ and Great Britain/",,NA,0,NA,0,,,,NA,0,NA,0,,,,NA,0,NA,0,,,,NA,0,NA,0,,,,NA,0,NA,0,,,,95,28/07/2003,New York Times,0,NA,,,NA,NA,,,NA,NA,,,NA,NA,,,NA,NA,,,NA,NA,,,NA,NA,,,NA,NA,,,NA,NA,,,NA,NA,,,NA,NA,,,NA,NA,,,NA,NA,,,NA,NA,,,NA,NA,,,NA
2408,LBR,Liberia,Monrovia,"6,31","-10,8",0,0,0,US embassy,2003-07-19,2003-07-21,0,,Fighting,Fighting,"Liberian rebels shell US embassy, troops fighting to recapture bridges",1,,60,90,60,90,0,0,319,0,0,0,Armed Forces of Liberia (AFL),Armed Forces of Liberia (AFL),,343,0,0,0,Liberians United for Reconciliation and Democracy (LURD),"Liberians United for Reconciliation and Democracy/ The group is essentially a loose coalition of anti-Taylor forces, drawing upon a variety of militia factions and refugee groups, increasingly backed by Guinea, with more indirect support from Sierra Leone, the U/ S/ and Great Britain/",,NA,0,NA,0,,,,NA,0,NA,0,,,,NA,0,NA,0,,,,NA,0,NA,0,,,,NA,0,NA,0,,,,95,20/07/2003,BBC Monitoring,0,95,21/07/2003,Washington Post,0,95,21/07/2003,BBC Monitoring,0,95,21/07/2003,Washington Post,0,95,23/07/2003,Washington Post,0,NA,,,NA,NA,,,NA,NA,,,NA,NA,,,NA,NA,,,NA,NA,,,NA,NA,,,NA,NA,,,NA,NA,,,NA,NA,,,NA,NA,,,NA
2405,LBR,Liberia,Monrovia,"6,31","-10,8",0,0,0,"""rebels pushed through the centre of the city,""",2003-06-24,2003-06-26,0,,Fighting,Fighting,Civilians flee as rebels advance in Liberias capital,1,"""Three days of rocket and mortar fire have killed at least 200 civilians"" [] said 200 to 300 people had been killled",200,300,200,300,0,0,343,0,0,0,Liberians United for Reconciliation and Democracy (LURD),"Liberians United for Reconciliation and Democracy/ The group is essentially a loose coalition of anti-Taylor forces, drawing upon a variety of militia factions and refugee groups, increasingly backed by Guinea, with more indirect support from Sierra Leone, the U/ S/ and Great Britain/",,319,0,0,0,Armed Forces of Liberia (AFL),Armed Forces of Liberia (AFL),,NA,0,NA,0,,,,NA,0,NA,0,,,,NA,0,NA,0,,,,NA,0,NA,0,,,,NA,0,NA,0,,,,95,26/06/2003,The Guardian,0,95,27/06/2003,Washington Post,2,95,28/06/2003,New York Times,2,NA,,,NA,NA,,,NA,NA,,,NA,NA,,,NA,NA,,,NA,NA,,,NA,NA,,,NA,NA,,,NA,NA,,,NA,NA,,,NA,NA,,,NA,NA,,,NA,NA,,,NA
2447,LBR,Liberia,Monrovia,"6,31","-10,8",0,0,0,"""fighting raged around New Bridge and Gabriel Tucker Bridge""",2003-07-30,2003-07-30,0,,One-sided attack,Conventional use of force,One man killed by mortar fire,0,,1,1,1,1,0,0,25,0,0,0,Civilian(s),Civilian(s),,343,1,0,0,Liberians United for Reconciliation and Democracy (LURD),"Liberians United for Reconciliation and Democracy/ The group is essentially a loose coalition of anti-Taylor forces, drawing upon a variety of militia factions and refugee groups, increasingly backed by Guinea, with more indirect support from Sierra Leone, the U/ S/ and Great Britain/",,NA,0,NA,0,,,,NA,0,NA,0,,,,NA,0,NA,0,,,,NA,0,NA,0,,,,NA,0,NA,0,,,,95,31/07/2003,Washington Post,0,NA,,,NA,NA,,,NA,NA,,,NA,NA,,,NA,NA,,,NA,NA,,,NA,NA,,,NA,NA,,,NA,NA,,,NA,NA,,,NA,NA,,,NA,NA,,,NA,NA,,,NA,NA,,,NA,NA,,,NA
2453,LBR,Liberia,Monrovia,"6,31","-10,8",0,0,0,,2003-08-02,2003-08-02,0,,Fighting,Fighting,Intense fighting in cnter of Monrovia,0,,7,7,0,0,0,0,343,0,0,0,Liberians United for Reconciliation and Democracy (LURD),"Liberians United for Reconciliation and Democracy/ The group is essentially a loose coalition of anti-Taylor forces, drawing upon a variety of militia factions and refugee groups, increasingly backed by Guinea, with more indirect support from Sierra Leone, the U/ S/ and Great Britain/",,319,0,0,0,Armed Forces of Liberia (AFL),Armed Forces of Liberia (AFL),,NA,0,NA,0,,,,NA,0,NA,0,,,,NA,0,NA,0,,,,NA,0,NA,0,,,,NA,0,NA,0,,,,95,03/08/2003,Washington Post,0,NA,,,NA,NA,,,NA,NA,,,NA,NA,,,NA,NA,,,NA,NA,,,NA,NA,,,NA,NA,,,NA,NA,,,NA,NA,,,NA,NA,,,NA,NA,,,NA,NA,,,NA,NA,,,NA,NA,,,NA
2454,LBR,Liberia,Monrovia,"6,31","-10,8",0,0,0,,2003-08-11,2003-08-11,0,,Unclear,Unclear,Soldiers executed,1,,2,2,0,0,2,2,11,0,0,0,Unspecified actor,Unspecified actor,,343,0,0,0,Liberians United for Reconciliation and Democracy (LURD),"Liberians United for Reconciliation and Democracy/ The group is essentially a loose coalition of anti-Taylor forces, drawing upon a variety of militia factions and refugee groups, increasingly backed by Guinea, with more indirect support from Sierra Leone, the U/ S/ and Great Britain/",,NA,0,NA,0,,,,NA,0,NA,0,,,,NA,0,NA,0,,,,NA,0,NA,0,,,,NA,0,NA,0,,,,95,12/08/2003,New York Times,2,NA,,,NA,NA,,,NA,NA,,,NA,NA,,,NA,NA,,,NA,NA,,,NA,NA,,,NA,NA,,,NA,NA,,,NA,NA,,,NA,NA,,,NA,NA,,,NA,NA,,,NA,NA,,,NA,NA,,,NA
2467,LBR,Liberia,Monrovia,"6,31","-10,8",0,0,0,,2003-12-10,2003-12-10,0,,One-sided attack,Use of small firearms,Woman shot to death,0,,1,1,1,1,0,0,25,0,0,0,Civilian(s),Civilian(s),,11,1,0,0,Unspecified actor,Unspecified actor,,NA,0,NA,0,,,,NA,0,NA,0,,,,NA,0,NA,0,,,,NA,0,NA,0,,,,NA,0,NA,0,,,,95,10/12/2003,New York Times,0,NA,,,NA,NA,,,NA,NA,,,NA,NA,,,NA,NA,,,NA,NA,,,NA,NA,,,NA,NA,,,NA,NA,,,NA,NA,,,NA,NA,,,NA,NA,,,NA,NA,,,NA,NA,,,NA,NA,,,NA
2468,LBR,Liberia,Monrovia,"6,31","-10,8",0,0,0,,2003-12-12,2003-12-12,0,,Fighting,Fighting,Riot of former soldiers in Monrovia claimed live of civilians,0,,12,12,2,2,10,10,143,1,0,0,Protest group,Protest group,,319,0,0,0,Armed Forces of Liberia (AFL),Armed Forces of Liberia (AFL),,NA,0,NA,0,,,,NA,0,NA,0,,,,NA,0,NA,0,,,,NA,0,NA,0,,,,NA,0,NA,0,,,,95,13/12/2003,BBC Monitoring,0,NA,,,NA,NA,,,NA,NA,,,NA,NA,,,NA,NA,,,NA,NA,,,NA,NA,,,NA,NA,,,NA,NA,,,NA,NA,,,NA,NA,,,NA,NA,,,NA,NA,,,NA,NA,,,NA,NA,,,NA
2469,LBR,Liberia,Monrovia,"6,31","-10,8",0,0,0,,1996-04-04,1996-04-04,1,last week,Unclear,Unclear,Johnson involved in cease-fire violation,1,sevral,2,2,0,0,0,0,314,0,0,0,Ulimo-J,United Liberation Movement of Liberia for Democracy-Johnson faction (ULIMO-J),General Roosevelt Johnson/,327,0,0,0,Security forces,Security forces,,NA,0,NA,0,,,,NA,0,NA,0,,,,NA,0,NA,0,,,,NA,0,NA,0,,,,NA,0,NA,0,,,,88,08/04/1996,New York Times,0,88,07/04/1996,BBC Monitoring,0,NA,,,NA,NA,,,NA,NA,,,NA,NA,,,NA,NA,,,NA,NA,,,NA,NA,,,NA,NA,,,NA,NA,,,NA,NA,,,NA,NA,,,NA,NA,,,NA,NA,,,NA,NA,,,NA
2470,LBR,Liberia,Monrovia,"6,31","-10,8",0,0,0,,1996-04-08,1996-04-08,1,probable but not verifiable,Unclear,Unclear,ULIMO-J kills 25 people in Monrovia,0,,25,25,0,0,0,0,314,0,0,0,Ulimo-J,United Liberation Movement of Liberia for Democracy-Johnson faction (ULIMO-J),General Roosevelt Johnson/,11,0,0,0,Unspecified actor,Unspecified actor,,NA,0,NA,0,,,,NA,0,NA,0,,,,NA,0,NA,0,,,,NA,0,NA,0,,,,NA,0,NA,0,,,,88,09/04/1996,The Guardian,0,NA,,,NA,NA,,,NA,NA,,,NA,NA,,,NA,NA,,,NA,NA,,,NA,NA,,,NA,NA,,,NA,NA,,,NA,NA,,,NA,NA,,,NA,NA,,,NA,NA,,,NA,NA,,,NA,NA,,,NA
2471,LBR,Liberia,Monrovia,"6,31","-10,8",0,0,0,,1996-04-08,1996-04-08,0,,Unclear,Unclear,More fighting in Monrovia,0,,6,6,0,0,0,0,14,0,0,0,Militia,Unknown militia,,11,0,0,0,Unspecified actor,Unspecified actor,,NA,0,NA,0,,,,NA,0,NA,0,,,,NA,0,NA,0,,,,NA,0,NA,0,,,,NA,0,NA,0,,,,88,09/04/1996,BBC Monitoring,0,NA,,,NA,NA,,,NA,NA,,,NA,NA,,,NA,NA,,,NA,NA,,,NA,NA,,,NA,NA,,,NA,NA,,,NA,NA,,,NA,NA,,,NA,NA,,,NA,NA,,,NA,NA,,,NA,NA,,,NA
2472,LBR,Liberia,Monrovia,"6,31","-10,8",0,0,0,,1996-04-01,1996-04-11,1,last ten days,Unclear,Unclear,Fightings in Monrovia,1,dozens,24,24,0,0,0,0,11,0,0,0,Unspecified actor,Unspecified actor,,11,0,0,0,Unspecified actor,Unspecified actor,,NA,0,NA,0,,,,NA,0,NA,0,,,,NA,0,NA,0,,,,NA,0,NA,0,,,,NA,0,NA,0,,,,88,12/04/1996,Washington Post,0,NA,,,NA,NA,,,NA,NA,,,NA,NA,,,NA,NA,,,NA,NA,,,NA,NA,,,NA,NA,,,NA,NA,,,NA,NA,,,NA,NA,,,NA,NA,,,NA,NA,,,NA,NA,,,NA,NA,,,NA
2473,LBR,Liberia,Monrovia,"6,31","-10,8",0,0,0,,1996-04-11,1996-04-11,0,,Fighting,Fighting,Clash between guerillas and ECOMOG in Monrovia,1,number of guerillas killed,2,2,0,0,2,2,321,0,0,0,ECOMOG,"ECOMOG, Community of West African States Monitoring Group",,11,0,0,0,Unspecified actor,Unspecified actor,,NA,0,NA,0,,,,NA,0,NA,0,,,,NA,0,NA,0,,,,NA,0,NA,0,,,,NA,0,NA,0,,,,88,12/04/1996,The Guardian,0,NA,,,NA,NA,,,NA,NA,,,NA,NA,,,NA,NA,,,NA,NA,,,NA,NA,,,NA,NA,,,NA,NA,,,NA,NA,,,NA,NA,,,NA,NA,,,NA,NA,,,NA,NA,,,NA,NA,,,NA
2474,LBR,Liberia,Monrovia,"6,31","-10,8",0,0,0,,1996-04-06,1996-04-10,1,time between start of fighting and report,Fighting,Fighting,People killed in hotel,1,people,2,2,0,0,0,0,316,0,0,0,Ulimo-K,"Ulimo-K, United Liberation Movement of Liberia for Democracy, Kromah faction",Alhaji G/V/ Kromah/,11,0,0,0,Unspecified actor,Unspecified actor,,NA,0,NA,0,,,,NA,0,NA,0,,,,NA,0,NA,0,,,,NA,0,NA,0,,,,NA,0,NA,0,,,,88,11/04/1996,New York Times,0,NA,,,NA,NA,,,NA,NA,,,NA,NA,,,NA,NA,,,NA,NA,,,NA,NA,,,NA,NA,,,NA,NA,,,NA,NA,,,NA,NA,,,NA,NA,,,NA,NA,,,NA,NA,,,NA,NA,,,NA
2475,LBR,Liberia,Monrovia,"6,31","-10,8",0,0,0,,1996-04-12,1996-04-12,0,,One-sided attack,Conventional use of force,NPFL shelling compound,1,several,2,2,2,2,0,0,328,1,0,0,National Patriotic Front of Liberia (NPFL),National Patriotic Front of Liberia (NPFL),Charles Taylor,25,0,0,0,Civilian(s),Civilian(s),,NA,0,NA,0,,,,NA,0,NA,0,,,,NA,0,NA,0,,,,NA,0,NA,0,,,,NA,0,NA,0,,,,88,13/04/1996,New York Times,0,NA,,,NA,NA,,,NA,NA,,,NA,NA,,,NA,NA,,,NA,NA,,,NA,NA,,,NA,NA,,,NA,NA,,,NA,NA,,,NA,NA,,,NA,NA,,,NA,NA,,,NA,NA,,,NA,NA,,,NA
2476,LBR,Liberia,Monrovia,"6,31","-10,8",0,0,0,,1996-04-13,1996-04-13,0,,One-sided attack,Conventional use of force,10 killed by rocketfire in Monrovia,0,,10,10,10,10,0,0,11,1,0,0,Unspecified actor,Unspecified actor,,25,0,0,0,Civilian(s),Civilian(s),,NA,0,NA,0,,,,NA,0,NA,0,,,,NA,0,NA,0,,,,NA,0,NA,0,,,,NA,0,NA,0,,,,88,14/04/1996,Washington Post,0,NA,,,NA,NA,,,NA,NA,,,NA,NA,,,NA,NA,,,NA,NA,,,NA,NA,,,NA,NA,,,NA,NA,,,NA,NA,,,NA,NA,,,NA,NA,,,NA,NA,,,NA,NA,,,NA,NA,,,NA
2477,LBR,Liberia,Monrovia,"6,31","-10,8",0,0,0,,1996-04-12,1996-04-12,1,overnight,Unclear,Unclear,2 shot dead at US Embassy complex,0,,2,2,0,0,0,0,11,0,0,0,Unspecified actor,Unspecified actor,,11,0,0,0,Unspecified actor,Unspecified actor,,NA,0,NA,0,,,,NA,0,NA,0,,,,NA,0,NA,0,,,,NA,0,NA,0,,,,NA,0,NA,0,,,,88,14/04/1996,New York Times,0,NA,,,NA,NA,,,NA,NA,,,NA,NA,,,NA,NA,,,NA,NA,,,NA,NA,,,NA,NA,,,NA,NA,,,NA,NA,,,NA,NA,,,NA,NA,,,NA,NA,,,NA,NA,,,NA,NA,,,NA
2478,LBR,Liberia,Monrovia,"6,31","-10,8",0,0,0,,1996-04-16,1996-04-16,0,,Unclear,Unclear,Raid on barracks kills at least 5,0,,5,5,0,0,0,0,328,0,0,0,National Patriotic Front of Liberia (NPFL),National Patriotic Front of Liberia (NPFL),Charles Taylor,11,0,0,0,Unspecified actor,Unspecified actor,,NA,0,NA,0,,,,NA,0,NA,0,,,,NA,0,NA,0,,,,NA,0,NA,0,,,,NA,0,NA,0,,,,88,17/04/1996,New York Times,0,88,17/04/1996,The Guardian,0,NA,,,NA,NA,,,NA,NA,,,NA,NA,,,NA,NA,,,NA,NA,,,NA,NA,,,NA,NA,,,NA,NA,,,NA,NA,,,NA,NA,,,NA,NA,,,NA,NA,,,NA,NA,,,NA
2449,LBR,Liberia,Monrovia,"6,31","-10,8",0,0,0,,2003-07-31,2003-07-31,0,,One-sided attack,Conventional use of force,Intense mortar fire again in Monrovia,0,,12,12,12,12,0,0,25,0,0,0,Civilian(s),Civilian(s),,343,1,0,0,Liberians United for Reconciliation and Democracy (LURD),"Liberians United for Reconciliation and Democracy/ The group is essentially a loose coalition of anti-Taylor forces, drawing upon a variety of militia factions and refugee groups, increasingly backed by Guinea, with more indirect support from Sierra Leone, the U/ S/ and Great Britain/",,NA,0,NA,0,,,,NA,0,NA,0,,,,NA,0,NA,0,,,,NA,0,NA,0,,,,NA,0,NA,0,,,,95,02/08/2003,Washington Post,0,NA,,,NA,NA,,,NA,NA,,,NA,NA,,,NA,NA,,,NA,NA,,,NA,NA,,,NA,NA,,,NA,NA,,,NA,NA,,,NA,NA,,,NA,NA,,,NA,NA,,,NA,NA,,,NA,NA,,,NA
2450,LBR,Liberia,Monrovia,"6,31","-10,8",0,0,0,,2003-08-01,2003-08-01,0,,One-sided attack,Conventional use of force,Mortar fire killed civilians,0,,9,9,9,9,0,0,25,0,0,0,Civilian(s),Civilian(s),,343,1,0,0,Liberians United for Reconciliation and Democracy (LURD),"Liberians United for Reconciliation and Democracy/ The group is essentially a loose coalition of anti-Taylor forces, drawing upon a variety of militia factions and refugee groups, increasingly backed by Guinea, with more indirect support from Sierra Leone, the U/ S/ and Great Britain/",,NA,0,NA,0,,,,NA,0,NA,0,,,,NA,0,NA,0,,,,NA,0,NA,0,,,,NA,0,NA,0,,,,95,02/08/2003,Washington Post,0,95,02/08/2003,The Guardian,0,NA,,,NA,NA,,,NA,NA,,,NA,NA,,,NA,NA,,,NA,NA,,,NA,NA,,,NA,NA,,,NA,NA,,,NA,NA,,,NA,NA,,,NA,NA,,,NA,NA,,,NA,NA,,,NA
2451,LBR,Liberia,Monrovia,"6,31","-10,8",0,0,0,,2003-07-31,2003-07-31,0,,Fighting,Fighting,Ongoing battle for Monrovia,0,,12,12,12,12,0,0,343,0,NA,0,Liberians United for Reconciliation and Democracy (LURD),"Liberians United for Reconciliation and Democracy/ The group is essentially a loose coalition of anti-Taylor forces, drawing upon a variety of militia factions and refugee groups, increasingly backed by Guinea, with more indirect support from Sierra Leone, the U/ S/ and Great Britain/",,11,0,NA,0,Unspecified actor,Unspecified actor,,NA,0,NA,0,,,,NA,0,NA,0,,,,NA,0,NA,0,,,,NA,0,NA,0,,,,NA,0,NA,0,,,,95,02/08/2003,New York Times,0,NA,,,NA,NA,,,NA,NA,,,NA,NA,,,NA,NA,,,NA,NA,,,NA,NA,,,NA,NA,,,NA,NA,,,NA,NA,,,NA,NA,,,NA,NA,,,NA,NA,,,NA,NA,,,NA,NA,,,NA
2438,LBR,Liberia,Monrovia,"6,31","-10,8",0,0,0,,1994-09-26,1994-09-26,1,recently,Unclear,Unclear,Several members of ECOMOG killed,1,several,2,2,0,0,2,2,321,0,0,0,ECOMOG,"ECOMOG, Community of West African States Monitoring Group",,11,0,0,0,Unspecified actor,Unspecified actor,,NA,0,NA,0,,,,NA,0,NA,0,,,,NA,0,NA,0,,,,NA,0,NA,0,,,,NA,0,NA,0,,,,86,07/10/1994,New York Times,0,NA,,,NA,NA,,,NA,NA,,,NA,NA,,,NA,NA,,,NA,NA,,,NA,NA,,,NA,NA,,,NA,NA,,,NA,NA,,,NA,NA,,,NA,NA,,,NA,NA,,,NA,NA,,,NA,NA,,,NA
2435,LBR,Liberia,Monrovia,"6,31","-10,8",0,0,0,,1994-09-15,1994-09-15,0,,Fighting,Fighting,1 civilian and 3 ECOMOG troops killed,0,,4,4,1,1,3,3,321,0,0,0,ECOMOG,"ECOMOG, Community of West African States Monitoring Group",,145,0,0,0,Rebel(s),Unspecified rebel(s),,NA,0,NA,0,,,,NA,0,NA,0,,,,NA,0,NA,0,,,,NA,0,NA,0,,,,NA,0,NA,0,,,,86,16/09/1994,Washington Post,0,86,17/09/1994,BBC Monitoring,0,86,19/09/1994,BBC Monitoring,0,NA,,,NA,NA,,,NA,NA,,,NA,NA,,,NA,NA,,,NA,NA,,,NA,NA,,,NA,NA,,,NA,NA,,,NA,NA,,,NA,NA,,,NA,NA,,,NA,NA,,,NA
2383,LBR,Liberia,Monrovia,"6,31","-10,8",0,10,0,airstrip near Monrovia,1992-11-02,1992-11-02,0,,One-sided attack,Conventional use of force,3 killed through rocket attack by NPFL,0,,3,3,0,0,0,0,328,1,0,0,National Patriotic Front of Liberia (NPFL),National Patriotic Front of Liberia (NPFL),Charles Taylor,11,0,0,0,Unspecified actor,Unspecified actor,,NA,0,NA,0,,,,NA,0,NA,0,,,,NA,0,NA,0,,,,NA,0,NA,0,,,,NA,0,NA,0,,,,84,03/11/1992,The Guardian,0,NA,,,NA,NA,,,NA,NA,,,NA,NA,,,NA,NA,,,NA,NA,,,NA,NA,,,NA,NA,,,NA,NA,,,NA,NA,,,NA,NA,,,NA,NA,,,NA,NA,,,NA,NA,,,NA,NA,,,NA
2385,LBR,Liberia,Monrovia,"6,31","-10,8",0,0,0,,1992-11-02,1992-11-02,0,,One-sided attack,Conventional use of force,4 civilians killed near airport,0,,4,4,4,4,0,0,328,1,0,0,National Patriotic Front of Liberia (NPFL),National Patriotic Front of Liberia (NPFL),Charles Taylor,25,0,0,0,Civilian(s),Civilian(s),,NA,0,NA,0,,,,NA,0,NA,0,,,,NA,0,NA,0,,,,NA,0,NA,0,,,,NA,0,NA,0,,,,84,02/11/1992,BBC Monitoring,0,NA,,,NA,NA,,,NA,NA,,,NA,NA,,,NA,NA,,,NA,NA,,,NA,NA,,,NA,NA,,,NA,NA,,,NA,NA,,,NA,NA,,,NA,NA,,,NA,NA,,,NA,NA,,,NA,NA,,,NA
2398,LBR,Liberia,Monrovia,"6,31","-10,8",0,0,0,,1993-01-12,1993-01-12,0,,One-sided attack,Other,ECOMOG tanks burnt by NPFL,1,occupants of the tanks,1,2,0,0,1,2,321,0,0,0,ECOMOG,"ECOMOG, Community of West African States Monitoring Group",,328,1,0,0,National Patriotic Front of Liberia (NPFL),National Patriotic Front of Liberia (NPFL),Charles Taylor,NA,0,NA,0,,,,NA,0,NA,0,,,,NA,0,NA,0,,,,NA,0,NA,0,,,,NA,0,NA,0,,,,85,15/01/1993,BBC Monitoring,2,NA,,,NA,NA,,,NA,NA,,,NA,NA,,,NA,NA,,,NA,NA,,,NA,NA,,,NA,NA,,,NA,NA,,,NA,NA,,,NA,NA,,,NA,NA,,,NA,NA,,,NA,NA,,,NA,NA,,,NA
2399,LBR,Liberia,Monrovia,"6,31","-10,8",0,0,0,,1993-01-24,1993-01-24,1,date of broadcast,One-sided attack,Conventional use of force,ECOMOG base destroyed,1,Major Baba Ibrahim and unspecified number of soldiers,3,3,0,0,0,0,321,0,0,0,ECOMOG,"ECOMOG, Community of West African States Monitoring Group",,328,1,0,0,National Patriotic Front of Liberia (NPFL),National Patriotic Front of Liberia (NPFL),Charles Taylor,NA,0,NA,0,,,,NA,0,NA,0,,,,NA,0,NA,0,,,,NA,0,NA,0,,,,NA,0,NA,0,,,,85,24/01/1993,BBC Monitoring,2,NA,,,NA,NA,,,NA,NA,,,NA,NA,,,NA,NA,,,NA,NA,,,NA,NA,,,NA,NA,,,NA,NA,,,NA,NA,,,NA,NA,,,NA,NA,,,NA,NA,,,NA,NA,,,NA,NA,,,NA
2401,LBR,Liberia,Monrovia,"6,31","-10,8",0,0,0,,1993-03-24,1993-03-24,1,date of broadcast,One-sided attack,Use of small firearms,Chief of staff of Monrovia armed forces killed,0,,1,1,1,1,0,0,319,0,0,0,Armed Forces of Liberia (AFL),Armed Forces of Liberia (AFL),,11,1,0,0,Unspecified actor,Unspecified actor,,NA,0,NA,0,,,,NA,0,NA,0,,,,NA,0,NA,0,,,,NA,0,NA,0,,,,NA,0,NA,0,,,,85,24/03/1993,BBC Monitoring,2,NA,,,NA,NA,,,NA,NA,,,NA,NA,,,NA,NA,,,NA,NA,,,NA,NA,,,NA,NA,,,NA,NA,,,NA,NA,,,NA,NA,,,NA,NA,,,NA,NA,,,NA,NA,,,NA,NA,,,NA
2380,LBR,Liberia,Monrovia,"6,31","-10,8",0,0,0,,1992-10-24,1992-10-24,0,,Unclear,Unclear,4 killed in attack by ECOMOG,0,,4,4,4,4,0,0,321,1,0,0,ECOMOG,"ECOMOG, Community of West African States Monitoring Group",,25,0,0,0,Civilian(s),Civilian(s),,NA,0,NA,0,,,,NA,0,NA,0,,,,NA,0,NA,0,,,,NA,0,NA,0,,,,NA,0,NA,0,,,,84,26/10/1992,The Guardian,0,NA,,,NA,NA,,,NA,NA,,,NA,NA,,,NA,NA,,,NA,NA,,,NA,NA,,,NA,NA,,,NA,NA,,,NA,NA,,,NA,NA,,,NA,NA,,,NA,NA,,,NA,NA,,,NA,NA,,,NA
2381,LBR,Liberia,Monrovia,"6,31","-10,8",0,0,0,,1992-10-26,1992-10-26,0,,One-sided attack,Conventional use of force,Rebels attack airport,0,,5,5,0,0,0,0,145,1,0,0,Rebel(s),Unspecified rebel(s),,11,0,0,0,Unspecified actor,Unspecified actor,,NA,0,NA,0,,,,NA,0,NA,0,,,,NA,0,NA,0,,,,NA,0,NA,0,,,,NA,0,NA,0,,,,84,27/10/1992,New York Times,0,NA,,,NA,NA,,,NA,NA,,,NA,NA,,,NA,NA,,,NA,NA,,,NA,NA,,,NA,NA,,,NA,NA,,,NA,NA,,,NA,NA,,,NA,NA,,,NA,NA,,,NA,NA,,,NA,NA,,,NA
2372,LBR,Liberia,Monrovia,"6,31","-10,8",0,10,0,near Monrovia,1992-08-31,1992-08-31,0,,Unclear,Unclear,Soldier on check point killed by NPFL,0,,1,1,0,0,1,1,321,0,1,0,ECOMOG,"ECOMOG, Community of West African States Monitoring Group",,328,1,0,0,National Patriotic Front of Liberia (NPFL),National Patriotic Front of Liberia (NPFL),Charles Taylor,315,0,1,0,United Liberation Movement for Democracy in Liberia,"The United Liberation Movement of Liberia for Democracy (ULIMO) was a rebel group that participated in the First Liberian Civil War (1989-1996)/From its outset, ULIMO was beset with internal divisions and the group effectively broke into two separate militias in 1994: ULIMO-J, an ethnic Krahn faction led by General Roosevelt Johnson and ULIMO-K, a Mandingo-based faction led by Alhaji G/V/ Kromah/",,NA,0,NA,0,,,,NA,0,NA,0,,,,NA,0,NA,0,,,,NA,0,NA,0,,,,84,02/09/1992,BBC Monitoring,0,NA,,,NA,NA,,,NA,NA,,,NA,NA,,,NA,NA,,,NA,NA,,,NA,NA,,,NA,NA,,,NA,NA,,,NA,NA,,,NA,NA,,,NA,NA,,,NA,NA,,,NA,NA,,,NA,NA,,,NA
2344,LBR,Liberia,Monrovia,"6,31","-10,8",0,0,0,"Wilson, a refugee camp located in the shantytows of the outskirts of Monrovia",2003-04-09,2003-04-09,0,,One-sided attack,Use of small firearms,Bandits attack refugee camp,0,,4,4,4,4,0,0,13,1,0,0,Bandits/criminals/gunmen,Bandits/criminals/gunmen,,25,0,0,0,Civilian(s),Civilian(s),,NA,0,NA,0,,,,NA,0,NA,0,,,,NA,0,NA,0,,,,NA,0,NA,0,,,,NA,0,NA,0,,,,95,15/05/2003,New York Times,0,NA,,,NA,NA,,,NA,NA,,,NA,NA,,,NA,NA,,,NA,NA,,,NA,NA,,,NA,NA,,,NA,NA,,,NA,NA,,,NA,NA,,,NA,NA,,,NA,NA,,,NA,NA,,,NA,NA,,,NA
2345,LBR,Liberia,Monrovia,"6,31","-10,8",0,0,0,,2003-06-09,2003-06-10,1,"Date of original source is used ""There were no reports of clashes yesterday/"" 2nd source",Fighting,Fighting,Rebels Push Into Outskirts of Monrovia,1,"""Decomposing bodies lay along the highway/""",2,2,0,0,0,0,343,0,0,0,Liberians United for Reconciliation and Democracy (LURD),"Liberians United for Reconciliation and Democracy/ The group is essentially a loose coalition of anti-Taylor forces, drawing upon a variety of militia factions and refugee groups, increasingly backed by Guinea, with more indirect support from Sierra Leone, the U/ S/ and Great Britain/",,319,0,0,0,Armed Forces of Liberia (AFL),Armed Forces of Liberia (AFL),,NA,0,NA,0,,,,NA,0,NA,0,,,,NA,0,NA,0,,,,NA,0,NA,0,,,,NA,0,NA,0,,,,95,10/06/2003,Washington Post,0,95,12/06/2003,Washington Post,0,NA,,,NA,NA,,,NA,NA,,,NA,NA,,,NA,NA,,,NA,NA,,,NA,NA,,,NA,NA,,,NA,NA,,,NA,NA,,,NA,NA,,,NA,NA,,,NA,NA,,,NA,NA,,,NA
2347,LBR,Liberia,Monrovia,"6,31","-10,8",0,0,0,,2003-06-25,2003-06-25,0,,One-sided attack,Use of small firearms,Two killed in attack on US embassy building in Liberian capital,0,,2,2,0,0,0,0,11,1,0,0,Unspecified actor,Unspecified actor,,326,0,0,0,U/S/ Embassy Personal,U/S/ Embassy Personal,,NA,0,NA,0,,,,NA,0,NA,0,,,,NA,0,NA,0,,,,NA,0,NA,0,,,,NA,0,NA,0,,,,95,25/06/2003,BBC Monitoring,0,95,25/06/2003,Washington Post,0,95,26/06/2003,New York Times,0,NA,,,NA,NA,,,NA,NA,,,NA,NA,,,NA,NA,,,NA,NA,,,NA,NA,,,NA,NA,,,NA,NA,,,NA,NA,,,NA,NA,,,NA,NA,,,NA,NA,,,NA
2348,LBR,Liberia,Monrovia,"6,31","-10,8",0,0,0,,1991-09-14,1991-09-14,0,,Unclear,Unclear,Paratroopers killed by plane crash,1,several paratroopers,2,2,0,0,2,2,319,0,0,0,Armed Forces of Liberia (AFL),Armed Forces of Liberia (AFL),,328,0,0,0,National Patriotic Front of Liberia (NPFL),National Patriotic Front of Liberia (NPFL),Charles Taylor,NA,0,NA,0,,,,NA,0,NA,0,,,,NA,0,NA,0,,,,NA,0,NA,0,,,,NA,0,NA,0,,,,83,15/09/1991,BBC Monitoring,0,NA,,,NA,NA,,,NA,NA,,,NA,NA,,,NA,NA,,,NA,NA,,,NA,NA,,,NA,NA,,,NA,NA,,,NA,NA,,,NA,NA,,,NA,NA,,,NA,NA,,,NA,NA,,,NA,NA,,,NA
2350,LBR,Liberia,Monrovia,"6,31","-10,8",0,0,0,,1991-10-01,1991-10-01,0,,One-sided attack,Unclear,Johnson kills senoir commando,0,,1,1,0,0,1,1,370,1,0,0,Independent National Patriotic Front (INPFL),Independent National Patriotic Front (INPFL),Prince Johnson,370,0,0,0,Independent National Patriotic Front (INPFL),Independent National Patriotic Front (INPFL),Prince Johnson,NA,0,NA,0,,,,NA,0,NA,0,,,,NA,0,NA,0,,,,NA,0,NA,0,,,,NA,0,NA,0,,,,83,04/10/1991,BBC Monitoring,0,NA,,,NA,NA,,,NA,NA,,,NA,NA,,,NA,NA,,,NA,NA,,,NA,NA,,,NA,NA,,,NA,NA,,,NA,NA,,,NA,NA,,,NA,NA,,,NA,NA,,,NA,NA,,,NA,NA,,,NA
2356,LBR,Liberia,Monrovia,"6,31","-10,8",0,0,0,,1992-02-04,1992-02-04,0,,One-sided attack,Other,3 people killed in Monrovia,0,,3,3,3,3,0,0,25,0,0,0,Civilian(s),Civilian(s),,11,0,0,0,Unspecified actor,Unspecified actor,,NA,0,NA,0,,,,NA,0,NA,0,,,,NA,0,NA,0,,,,NA,0,NA,0,,,,NA,0,NA,0,,,,84,07/02/1992,BBC Monitoring,0,82,09/02/1992,BBC Monitoring,0,NA,,,NA,NA,,,NA,NA,,,NA,NA,,,NA,NA,,,NA,NA,,,NA,NA,,,NA,NA,,,NA,NA,,,NA,NA,,,NA,NA,,,NA,NA,,,NA,NA,,,NA,NA,,,NA
2280,LBR,Liberia,Monrovia,"6,31","-10,8",0,0,0,,1990-08-25,1990-08-25,0,,Fighting,Fighting,One woman killed,0,,1,1,0,0,0,0,321,0,0,0,ECOMOG,"ECOMOG, Community of West African States Monitoring Group",,145,0,0,0,Rebel(s),Unspecified rebel(s),,NA,0,NA,0,,,,NA,0,NA,0,,,,NA,0,NA,0,,,,NA,0,NA,0,,,,NA,0,NA,0,,,,82,27/08/1990,New York Times,0,NA,,,NA,NA,,,NA,NA,,,NA,NA,,,NA,NA,,,NA,NA,,,NA,NA,,,NA,NA,,,NA,NA,,,NA,NA,,,NA,NA,,,NA,NA,,,NA,NA,,,NA,NA,,,NA,NA,,,NA
2281,LBR,Liberia,Monrovia,"6,31","-10,8",0,0,0,,1990-08-26,1990-08-26,0,,One-sided attack,Use of small firearms,Nigerian Soldier killed,0,,1,1,0,0,1,1,321,0,0,0,ECOMOG,"ECOMOG, Community of West African States Monitoring Group",,11,1,0,0,Unspecified actor,Unspecified actor,,NA,0,NA,0,,,,NA,0,NA,0,,,,NA,0,NA,0,,,,NA,0,NA,0,,,,NA,0,NA,0,,,,82,28/08/1990,Washington Post,0,NA,,,NA,NA,,,NA,NA,,,NA,NA,,,NA,NA,,,NA,NA,,,NA,NA,,,NA,NA,,,NA,NA,,,NA,NA,,,NA,NA,,,NA,NA,,,NA,NA,,,NA,NA,,,NA,NA,,,NA
2282,LBR,Liberia,Monrovia,"6,31","-10,8",0,0,0,,1990-08-30,1990-08-30,1,date before publishing,Fighting,Fighting,Peacekeeper killed,0,,1,1,0,0,1,1,321,0,0,0,ECOMOG,"ECOMOG, Community of West African States Monitoring Group",,328,0,0,0,National Patriotic Front of Liberia (NPFL),National Patriotic Front of Liberia (NPFL),Charles Taylor,NA,0,NA,0,,,,NA,0,NA,0,,,,NA,0,NA,0,,,,NA,0,NA,0,,,,NA,0,NA,0,,,,82,31/08/1990,The Guardian,0,NA,,,NA,NA,,,NA,NA,,,NA,NA,,,NA,NA,,,NA,NA,,,NA,NA,,,NA,NA,,,NA,NA,,,NA,NA,,,NA,NA,,,NA,NA,,,NA,NA,,,NA,NA,,,NA,NA,,,NA
2257,LBR,Liberia,Monrovia,"6,31","-10,8",0,0,0,,1990-06-11,1990-06-11,0,,One-sided attack,Use of small firearms,Professor and 7 relatives killed,0,,8,8,0,0,0,0,25,0,0,0,Civilian(s),Civilian(s),,319,1,0,0,Armed Forces of Liberia (AFL),Armed Forces of Liberia (AFL),,NA,0,NA,0,,,,NA,0,NA,0,,,,NA,0,NA,0,,,,NA,0,NA,0,,,,NA,0,NA,0,,,,82,12/06/1990,The Guardian,0,NA,,,NA,NA,,,NA,NA,,,NA,NA,,,NA,NA,,,NA,NA,,,NA,NA,,,NA,NA,,,NA,NA,,,NA,NA,,,NA,NA,,,NA,NA,,,NA,NA,,,NA,NA,,,NA,NA,,,NA
2259,LBR,Liberia,Monrovia,"6,31","-10,8",0,0,0,,1990-06-27,1990-06-27,0,,One-sided attack,Use of small firearms,1 demontrater dies after soldiers shoot,0,,1,1,0,0,0,0,25,0,0,0,Civilian(s),Civilian(s),,319,1,0,0,Armed Forces of Liberia (AFL),Armed Forces of Liberia (AFL),,NA,0,NA,0,,,,NA,0,NA,0,,,,NA,0,NA,0,,,,NA,0,NA,0,,,,NA,0,NA,0,,,,82,30/06/1990,The Guardian,0,82,27/06/1990,New York Times,0,NA,,,NA,NA,,,NA,NA,,,NA,NA,,,NA,NA,,,NA,NA,,,NA,NA,,,NA,NA,,,NA,NA,,,NA,NA,,,NA,NA,,,NA,NA,,,NA,NA,,,NA,NA,,,NA
2253,LBR,Liberia,Monrovia,"6,31","-10,8",0,0,0,,1990-06-09,1990-06-10,0,,Unclear,Unclear,2 men dead in Monrovia,0,,2,2,2,2,0,0,11,0,0,0,Unspecified actor,Unspecified actor,,11,0,0,0,Unspecified actor,Unspecified actor,,NA,0,NA,0,,,,NA,0,NA,0,,,,NA,0,NA,0,,,,NA,0,NA,0,,,,NA,0,NA,0,,,,82,11/06/1990,Washington Post,0,NA,,,NA,NA,,,NA,NA,,,NA,NA,,,NA,NA,,,NA,NA,,,NA,NA,,,NA,NA,,,NA,NA,,,NA,NA,,,NA,NA,,,NA,NA,,,NA,NA,,,NA,NA,,,NA,NA,,,NA
2254,LBR,Liberia,Monrovia,"6,31","-10,8",0,24,0,on a roadside 15 miles outside the city,1990-06-09,1990-06-11,1,Saturday Mnday,One-sided attack,Unclear,3 officials killed,0,,3,4,0,0,0,0,319,0,0,0,Armed Forces of Liberia (AFL),Armed Forces of Liberia (AFL),,319,1,0,0,Armed Forces of Liberia (AFL),Armed Forces of Liberia (AFL),,NA,0,NA,0,,,,NA,0,NA,0,,,,NA,0,NA,0,,,,NA,0,NA,0,,,,NA,0,NA,0,,,,82,12/06/1990,Washington Post,0,82,13/06/1990,New York Times,0,82,13/06/1990,BBC Monitoring,0,82,15/06/1990,BBC Monitoring,0,NA,,,NA,NA,,,NA,NA,,,NA,NA,,,NA,NA,,,NA,NA,,,NA,NA,,,NA,NA,,,NA,NA,,,NA,NA,,,NA,NA,,,NA,NA,,,NA
2255,LBR,Liberia,Monrovia,"6,31","-10,8",0,0,0,,1990-06-09,1990-06-10,0,,Unclear,Unclear,9 other Americo-Liberians killed,0,,9,9,0,0,0,0,11,0,0,0,Unspecified actor,Unspecified actor,,11,0,0,0,Unspecified actor,Unspecified actor,,NA,0,NA,0,,,,NA,0,NA,0,,,,NA,0,NA,0,,,,NA,0,NA,0,,,,NA,0,NA,0,,,,82,12/06/1990,Washington Post,0,NA,,,NA,NA,,,NA,NA,,,NA,NA,,,NA,NA,,,NA,NA,,,NA,NA,,,NA,NA,,,NA,NA,,,NA,NA,,,NA,NA,,,NA,NA,,,NA,NA,,,NA,NA,,,NA,NA,,,NA
2261,LBR,Liberia,Monrovia,"6,31","-10,8",0,0,0,,1990-07-06,1990-07-06,0,,Fighting,Fighting,Fightings in Monrovia,1,at least 10 soldiers and perhaps three times as many rebels,40,40,0,0,40,40,319,0,0,0,Armed Forces of Liberia (AFL),Armed Forces of Liberia (AFL),,145,0,0,0,Rebel(s),Unspecified rebel(s),,NA,0,NA,0,,,,NA,0,NA,0,,,,NA,0,NA,0,,,,NA,0,NA,0,,,,NA,0,NA,0,,,,82,08/07/1990,New York Times,0,NA,,,NA,NA,,,NA,NA,,,NA,NA,,,NA,NA,,,NA,NA,,,NA,NA,,,NA,NA,,,NA,NA,,,NA,NA,,,NA,NA,,,NA,NA,,,NA,NA,,,NA,NA,,,NA,NA,,,NA
2262,LBR,Liberia,Monrovia,"6,31","-10,8",0,0,0,,1990-07-09,1990-07-09,0,,Fighting,Fighting,Insurgents killed in Monrovia,1,killings,2,2,0,0,2,2,319,0,0,0,Armed Forces of Liberia (AFL),Armed Forces of Liberia (AFL),,145,0,0,0,Rebel(s),Unspecified rebel(s),,NA,0,NA,0,,,,NA,0,NA,0,,,,NA,0,NA,0,,,,NA,0,NA,0,,,,NA,0,NA,0,,,,82,10/07/1990,Washington Post,0,NA,,,NA,NA,,,NA,NA,,,NA,NA,,,NA,NA,,,NA,NA,,,NA,NA,,,NA,NA,,,NA,NA,,,NA,NA,,,NA,NA,,,NA,NA,,,NA,NA,,,NA,NA,,,NA,NA,,,NA
2263,LBR,Liberia,Monrovia,"6,31","-10,8",0,0,0,,1990-07-03,1990-07-03,1,last week,Unclear,Unclear,Hundreds of civilians killed in Monrovia,1,hundreds,200,200,200,200,0,0,145,0,0,0,Rebel(s),Unspecified rebel(s),,11,0,0,0,Unspecified actor,Unspecified actor,,NA,0,NA,0,,,,NA,0,NA,0,,,,NA,0,NA,0,,,,NA,0,NA,0,,,,NA,0,NA,0,,,,82,10/07/1990,The Guardian,0,NA,,,NA,NA,,,NA,NA,,,NA,NA,,,NA,NA,,,NA,NA,,,NA,NA,,,NA,NA,,,NA,NA,,,NA,NA,,,NA,NA,,,NA,NA,,,NA,NA,,,NA,NA,,,NA,NA,,,NA
2264,LBR,Liberia,Monrovia,"6,31","-10,8",0,0,0,,1990-07-09,1990-07-10,0,,Unclear,Unclear,Soldiers engaged in tribal killings,0,,3,3,3,3,0,0,319,1,0,0,Armed Forces of Liberia (AFL),Armed Forces of Liberia (AFL),,25,0,0,0,Civilian(s),Civilian(s),,NA,0,NA,0,,,,NA,0,NA,0,,,,NA,0,NA,0,,,,NA,0,NA,0,,,,NA,0,NA,0,,,,82,11/07/1990,The Guardian,0,NA,,,NA,NA,,,NA,NA,,,NA,NA,,,NA,NA,,,NA,NA,,,NA,NA,,,NA,NA,,,NA,NA,,,NA,NA,,,NA,NA,,,NA,NA,,,NA,NA,,,NA,NA,,,NA,NA,,,NA
2265,LBR,Liberia,Monrovia,"6,31","-10,8",0,0,0,,1990-07-18,1990-07-18,0,,Unclear,Unclear,Three soldiers killed,0,,3,3,0,0,3,3,319,0,0,0,Armed Forces of Liberia (AFL),Armed Forces of Liberia (AFL),,145,0,0,0,Rebel(s),Unspecified rebel(s),,NA,0,NA,0,,,,NA,0,NA,0,,,,NA,0,NA,0,,,,NA,0,NA,0,,,,NA,0,NA,0,,,,82,20/07/1990,The Guardian,0,NA,,,NA,NA,,,NA,NA,,,NA,NA,,,NA,NA,,,NA,NA,,,NA,NA,,,NA,NA,,,NA,NA,,,NA,NA,,,NA,NA,,,NA,NA,,,NA,NA,,,NA,NA,,,NA,NA,,,NA
2266,LBR,Liberia,Monrovia,"6,31","-10,8",0,0,0,,1990-07-20,1990-07-20,0,,One-sided attack,Unclear,15 soldiers executed by rebels,1,unconfirmed report,15,15,0,0,15,15,145,1,0,0,Rebel(s),Unspecified rebel(s),,319,0,0,0,Armed Forces of Liberia (AFL),Armed Forces of Liberia (AFL),,NA,0,NA,0,,,,NA,0,NA,0,,,,NA,0,NA,0,,,,NA,0,NA,0,,,,NA,0,NA,0,,,,82,22/07/1990,Washington Post,0,NA,,,NA,NA,,,NA,NA,,,NA,NA,,,NA,NA,,,NA,NA,,,NA,NA,,,NA,NA,,,NA,NA,,,NA,NA,,,NA,NA,,,NA,NA,,,NA,NA,,,NA,NA,,,NA,NA,,,NA
2267,LBR,Liberia,Monrovia,"6,31","-10,8",0,0,0,,1990-07-23,1990-07-23,0,,Unclear,Unclear,nine men killed by soldiers,0,,9,9,0,0,0,0,319,0,0,0,Armed Forces of Liberia (AFL),Armed Forces of Liberia (AFL),,11,0,0,0,Unspecified actor,Unspecified actor,,NA,0,NA,0,,,,NA,0,NA,0,,,,NA,0,NA,0,,,,NA,0,NA,0,,,,NA,0,NA,0,,,,82,25/07/1990,The Guardian,0,NA,,,NA,NA,,,NA,NA,,,NA,NA,,,NA,NA,,,NA,NA,,,NA,NA,,,NA,NA,,,NA,NA,,,NA,NA,,,NA,NA,,,NA,NA,,,NA,NA,,,NA,NA,,,NA,NA,,,NA
2268,LBR,Liberia,Monrovia,"6,31","-10,8",0,0,0,,1990-07-26,1990-07-26,1,overnight,Unclear,Unclear,Soldiers kill two dozens,1,at least 2 dozens,24,24,24,24,0,0,25,0,0,0,Civilian(s),Civilian(s),,319,1,0,0,Armed Forces of Liberia (AFL),Armed Forces of Liberia (AFL),,NA,0,NA,0,,,,NA,0,NA,0,,,,NA,0,NA,0,,,,NA,0,NA,0,,,,NA,0,NA,0,,,,82,27/07/1990,Washington Post,0,82,27/07/1990,New York Times,0,NA,,,NA,NA,,,NA,NA,,,NA,NA,,,NA,NA,,,NA,NA,,,NA,NA,,,NA,NA,,,NA,NA,,,NA,NA,,,NA,NA,,,NA,NA,,,NA,NA,,,NA,NA,,,NA
2269,LBR,Liberia,Monrovia,"6,31","-10,8",0,0,0,,1990-07-29,1990-07-29,0,,One-sided attack,Unclear,hundreds of  refugees killed by soldiers,1,US State Department unable to confirm the 600,200,600,200,600,0,0,25,0,0,0,Civilian(s),Civilian(s),,319,1,0,0,Armed Forces of Liberia (AFL),Armed Forces of Liberia (AFL),,NA,0,NA,0,,,,NA,0,NA,0,,,,NA,0,NA,0,,,,NA,0,NA,0,,,,NA,0,NA,0,,,,82,31/07/1990,Washington Post,0,82,31/07/1990,Washington Post,0,82,31/07/1990,New York Times,0,82,31/07/1990,New York Times,0,NA,,,NA,NA,,,NA,NA,,,NA,NA,,,NA,NA,,,NA,NA,,,NA,NA,,,NA,NA,,,NA,NA,,,NA,NA,,,NA,NA,,,NA,NA,,,NA
2270,LBR,Liberia,Monrovia,"6,31","-10,8",0,0,0,,1990-07-29,1990-07-29,0,,One-sided attack,Unclear,Assist MinDef Steven Blayee killed,0,,1,1,0,0,0,0,319,0,0,0,Armed Forces of Liberia (AFL),Armed Forces of Liberia (AFL),,145,1,0,0,Rebel(s),Unspecified rebel(s),,NA,0,NA,0,,,,NA,0,NA,0,,,,NA,0,NA,0,,,,NA,0,NA,0,,,,NA,0,NA,0,,,,82,31/07/1990,The Guardian,0,NA,,,NA,NA,,,NA,NA,,,NA,NA,,,NA,NA,,,NA,NA,,,NA,NA,,,NA,NA,,,NA,NA,,,NA,NA,,,NA,NA,,,NA,NA,,,NA,NA,,,NA,NA,,,NA,NA,,,NA
2271,LBR,Liberia,Monrovia,"6,31","-10,8",0,0,0,,1990-08-07,1990-08-07,0,,One-sided attack,Unclear,Liberian congressman killed,0,,1,1,1,1,0,0,814,0,0,0,Government of Liberia,Government of Liberia,,145,1,0,0,Rebel(s),Unspecified rebel(s),,NA,0,NA,0,,,,NA,0,NA,0,,,,NA,0,NA,0,,,,NA,0,NA,0,,,,NA,0,NA,0,,,,82,08/08/1990,The Guardian,0,NA,,,NA,NA,,,NA,NA,,,NA,NA,,,NA,NA,,,NA,NA,,,NA,NA,,,NA,NA,,,NA,NA,,,NA,NA,,,NA,NA,,,NA,NA,,,NA,NA,,,NA,NA,,,NA,NA,,,NA
2272,LBR,Liberia,Monrovia,"6,31","-10,8",0,0,0,,1990-07-30,1990-07-30,0,,One-sided attack,Unclear,another 4 people killed,0,,4,4,4,4,0,0,25,0,0,0,Civilian(s),Civilian(s),,319,1,0,0,Armed Forces of Liberia (AFL),Armed Forces of Liberia (AFL),,NA,0,NA,0,,,,NA,0,NA,0,,,,NA,0,NA,0,,,,NA,0,NA,0,,,,NA,0,NA,0,,,,82,01/08/1990,The Guardian,0,NA,,,NA,NA,,,NA,NA,,,NA,NA,,,NA,NA,,,NA,NA,,,NA,NA,,,NA,NA,,,NA,NA,,,NA,NA,,,NA,NA,,,NA,NA,,,NA,NA,,,NA,NA,,,NA,NA,,,NA
2273,LBR,Liberia,Monrovia,"6,31","-10,8",0,0,0,,1990-08-01,1990-08-01,0,,Unclear,Unclear,Many deaths in Monrovia,1,many deaths,2,2,2,2,0,0,11,0,0,0,Unspecified actor,Unspecified actor,,11,0,0,0,Unspecified actor,Unspecified actor,,NA,0,NA,0,,,,NA,0,NA,0,,,,NA,0,NA,0,,,,NA,0,NA,0,,,,NA,0,NA,0,,,,82,02/08/1990,The Guardian,0,NA,,,NA,NA,,,NA,NA,,,NA,NA,,,NA,NA,,,NA,NA,,,NA,NA,,,NA,NA,,,NA,NA,,,NA,NA,,,NA,NA,,,NA,NA,,,NA,NA,,,NA,NA,,,NA,NA,,,NA
2274,LBR,Liberia,Monrovia,"6,31","-10,8",0,0,0,,1990-08-03,1990-08-03,1,Please enter description,Fighting,Fighting,Several pedestrians killed,1,several,2,2,2,2,0,0,145,0,0,0,Rebel(s),Unspecified rebel(s),,319,0,0,0,Armed Forces of Liberia (AFL),Armed Forces of Liberia (AFL),,NA,0,NA,0,,,,NA,0,NA,0,,,,NA,0,NA,0,,,,NA,0,NA,0,,,,NA,0,NA,0,,,,82,04/08/1990,New York Times,0,NA,,,NA,NA,,,NA,NA,,,NA,NA,,,NA,NA,,,NA,NA,,,NA,NA,,,NA,NA,,,NA,NA,,,NA,NA,,,NA,NA,,,NA,NA,,,NA,NA,,,NA,NA,,,NA,NA,,,NA
2275,LBR,Liberia,Monrovia,"6,31","-10,8",0,0,0,,1990-08-03,1990-08-04,0,,One-sided attack,Use of small firearms,Foreigner and relief worker killed,0,,2,2,2,2,0,0,171,0,0,0,Red Cross / Red Crescent,International Federation of Red Cross and Red Crescent Societies  - local branch (in some cases might be ICRC because sources do not distinct between those two organizations),,480,0,0,0,Foreign business man,Foreign business man,,319,1,0,0,Armed Forces of Liberia (AFL),Armed Forces of Liberia (AFL),,NA,0,NA,0,,,,NA,0,NA,0,,,,NA,0,NA,0,,,,NA,0,NA,0,,,,82,05/08/1990,Washington Post,0,82,05/08/1990,New York Times,0,82,06/08/1990,The Guardian,0,NA,,,NA,NA,,,NA,NA,,,NA,NA,,,NA,NA,,,NA,NA,,,NA,NA,,,NA,NA,,,NA,NA,,,NA,NA,,,NA,NA,,,NA,NA,,,NA,NA,,,NA
2276,LBR,Liberia,Monrovia,"6,31","-10,8",0,0,0,,1990-08-09,1990-08-09,0,,Fighting,Fighting,2 killed in fighting in Monrovia,0,,2,2,1,1,1,1,145,0,0,0,Rebel(s),Unspecified rebel(s),,319,0,0,0,Armed Forces of Liberia (AFL),Armed Forces of Liberia (AFL),,NA,0,NA,0,,,,NA,0,NA,0,,,,NA,0,NA,0,,,,NA,0,NA,0,,,,NA,0,NA,0,,,,82,10/08/1990,New York Times,0,NA,,,NA,NA,,,NA,NA,,,NA,NA,,,NA,NA,,,NA,NA,,,NA,NA,,,NA,NA,,,NA,NA,,,NA,NA,,,NA,NA,,,NA,NA,,,NA,NA,,,NA,NA,,,NA,NA,,,NA
2277,LBR,Liberia,Monrovia,"6,31","-10,8",0,0,0,,1990-08-08,1990-08-08,0,,One-sided attack,Unclear,woman killed in attack on Guinean embassy,0,,1,1,1,1,0,0,145,1,0,0,Rebel(s),Unspecified rebel(s),,467,0,0,0,Guinean Government,Government of Guinea,,NA,0,NA,0,,,,NA,0,NA,0,,,,NA,0,NA,0,,,,NA,0,NA,0,,,,NA,0,NA,0,,,,82,11/08/1990,Washington Post,0,NA,,,NA,NA,,,NA,NA,,,NA,NA,,,NA,NA,,,NA,NA,,,NA,NA,,,NA,NA,,,NA,NA,,,NA,NA,,,NA,NA,,,NA,NA,,,NA,NA,,,NA,NA,,,NA,NA,,,NA
2292,LBR,Liberia,Monrovia,"6,31","-10,8",0,0,0,,1990-10-03,1990-10-03,0,,Fighting,Fighting,270 ECOMOG members killed,0,,270,270,0,0,270,270,321,0,0,0,ECOMOG,"ECOMOG, Community of West African States Monitoring Group",,328,0,0,0,National Patriotic Front of Liberia (NPFL),National Patriotic Front of Liberia (NPFL),Charles Taylor,NA,0,NA,0,,,,NA,0,NA,0,,,,NA,0,NA,0,,,,NA,0,NA,0,,,,NA,0,NA,0,,,,82,05/10/1990,BBC Monitoring,0,NA,,,NA,NA,,,NA,NA,,,NA,NA,,,NA,NA,,,NA,NA,,,NA,NA,,,NA,NA,,,NA,NA,,,NA,NA,,,NA,NA,,,NA,NA,,,NA,NA,,,NA,NA,,,NA,NA,,,NA
2287,LBR,Liberia,Monrovia,"6,31","-10,8",0,0,0,,1990-09-09,1990-09-09,0,,Fighting,Fighting,60 killed during attack on President Doe's mansion,0,,60,64,0,0,0,0,319,0,0,0,Armed Forces of Liberia (AFL),Armed Forces of Liberia (AFL),,145,0,0,0,Rebel(s),Unspecified rebel(s),,NA,0,NA,0,,,,NA,0,NA,0,,,,NA,0,NA,0,,,,NA,0,NA,0,,,,NA,0,NA,0,,,,82,10/09/1990,Washington Post,2,82,10/09/1990,New York Times,0,82,10/09/1990,The Guardian,0,NA,,,NA,NA,,,NA,NA,,,NA,NA,,,NA,NA,,,NA,NA,,,NA,NA,,,NA,NA,,,NA,NA,,,NA,NA,,,NA,NA,,,NA,NA,,,NA,NA,,,NA
2288,LBR,Liberia,Monrovia,"6,31","-10,8",0,0,0,,1990-09-10,1990-09-10,0,,Unclear,Unclear,President Doe dies after capture by rebels,0,,1,1,0,0,0,0,319,0,0,0,Armed Forces of Liberia (AFL),Armed Forces of Liberia (AFL),,145,0,0,0,Rebel(s),Unspecified rebel(s),,NA,0,NA,0,,,,NA,0,NA,0,,,,NA,0,NA,0,,,,NA,0,NA,0,,,,NA,0,NA,0,,,,82,11/09/1990,Washington Post,0,82,11/09/1990,New York Times,0,82,11/09/1990,The Guardian,0,NA,,,NA,NA,,,NA,NA,,,NA,NA,,,NA,NA,,,NA,NA,,,NA,NA,,,NA,NA,,,NA,NA,,,NA,NA,,,NA,NA,,,NA,NA,,,NA,NA,,,NA
2289,LBR,Liberia,Monrovia,"6,31","-10,8",0,0,0,,1990-09-14,1990-09-14,0,,Fighting,Fighting,2 sailors and 3 nurses killed,0,,5,5,0,0,0,0,321,0,0,0,ECOMOG,"ECOMOG, Community of West African States Monitoring Group",,145,0,0,0,Rebel(s),Unspecified rebel(s),,NA,0,NA,0,,,,NA,0,NA,0,,,,NA,0,NA,0,,,,NA,0,NA,0,,,,NA,0,NA,0,,,,82,17/09/1990,New York Times,0,82,18/09/1990,New York Times,0,NA,,,NA,NA,,,NA,NA,,,NA,NA,,,NA,NA,,,NA,NA,,,NA,NA,,,NA,NA,,,NA,NA,,,NA,NA,,,NA,NA,,,NA,NA,,,NA,NA,,,NA,NA,,,NA
2290,LBR,Liberia,Monrovia,"6,31","-10,8",0,0,0,,1990-09-16,1990-09-16,0,,Unclear,Unclear,15 ECOMOG members killed,0,,15,15,0,0,15,15,321,0,0,0,ECOMOG,"ECOMOG, Community of West African States Monitoring Group",,328,0,0,0,National Patriotic Front of Liberia (NPFL),National Patriotic Front of Liberia (NPFL),Charles Taylor,NA,0,NA,0,,,,NA,0,NA,0,,,,NA,0,NA,0,,,,NA,0,NA,0,,,,NA,0,NA,0,,,,82,18/09/1990,The Guardian,0,NA,,,NA,NA,,,NA,NA,,,NA,NA,,,NA,NA,,,NA,NA,,,NA,NA,,,NA,NA,,,NA,NA,,,NA,NA,,,NA,NA,,,NA,NA,,,NA,NA,,,NA,NA,,,NA,NA,,,NA
2307,LBR,Liberia,Monrovia,"6,31","-10,8",0,0,0,,2002-02-10,2002-02-10,0,,Unclear,Unclear,Liberian Troops Fight Rebels,1,"""The government said the rebels had killed at least 16 people/""",1,16,0,0,0,0,343,1,0,0,Liberians United for Reconciliation and Democracy (LURD),"Liberians United for Reconciliation and Democracy/ The group is essentially a loose coalition of anti-Taylor forces, drawing upon a variety of militia factions and refugee groups, increasingly backed by Guinea, with more indirect support from Sierra Leone, the U/ S/ and Great Britain/",,11,0,0,0,Unspecified actor,Unspecified actor,,NA,0,NA,0,,,,NA,0,NA,0,,,,NA,0,NA,0,,,,NA,0,NA,0,,,,NA,0,NA,0,,,,94,11/02/2002,New York Times,2,NA,,,NA,NA,,,NA,NA,,,NA,NA,,,NA,NA,,,NA,NA,,,NA,NA,,,NA,NA,,,NA,NA,,,NA,NA,,,NA,NA,,,NA,NA,,,NA,NA,,,NA,NA,,,NA,NA,,,NA
2244,LBR,Liberia,Monrovia,"6,31","-10,8",0,0,0,,1990-05-30,1990-05-30,0,,One-sided attack,Unclear,UN Security personnel and refugees killed,1,"guard confirmed, but four bodies found",1,4,0,0,0,0,319,1,0,0,Armed Forces of Liberia (AFL),Armed Forces of Liberia (AFL),,327,0,0,0,Security forces,Security forces,,14,0,0,0,Militia,Unknown militia,,NA,0,NA,0,,,,NA,0,NA,0,,,,NA,0,NA,0,,,,NA,0,NA,0,,,,82,31/05/1990,New York Times,0,82,31/05/1990,The Guardian,0,82,01/06/1990,Washington Post,0,NA,,,NA,NA,,,NA,NA,,,NA,NA,,,NA,NA,,,NA,NA,,,NA,NA,,,NA,NA,,,NA,NA,,,NA,NA,,,NA,NA,,,NA,NA,,,NA,NA,,,NA
2242,LBR,Liberia,Monrovia,"6,31","-10,8",0,0,0,,1990-05-19,1990-05-25,1,during this week,Unclear,Unclear,80 people killed,1,80 people may have been killed,80,80,0,0,0,0,11,0,0,0,Unspecified actor,Unspecified actor,,145,0,0,0,Rebel(s),Unspecified rebel(s),,NA,0,NA,0,,,,NA,0,NA,0,,,,NA,0,NA,0,,,,NA,0,NA,0,,,,NA,0,NA,0,,,,82,26/05/1990,New York Times,0,NA,,,NA,NA,,,NA,NA,,,NA,NA,,,NA,NA,,,NA,NA,,,NA,NA,,,NA,NA,,,NA,NA,,,NA,NA,,,NA,NA,,,NA,NA,,,NA,NA,,,NA,NA,,,NA,NA,,,NA
2240,LBR,Liberia,Monrovia,"6,31","-10,8",0,0,0,,1990-05-21,1990-05-22,0,,Unclear,Unclear,10 killed in Monrovia,0,,10,10,0,0,0,0,11,0,0,0,Unspecified actor,Unspecified actor,,11,0,0,0,Unspecified actor,Unspecified actor,,NA,0,NA,0,,,,NA,0,NA,0,,,,NA,0,NA,0,,,,NA,0,NA,0,,,,NA,0,NA,0,,,,82,24/05/1990,New York Times,0,NA,,,NA,NA,,,NA,NA,,,NA,NA,,,NA,NA,,,NA,NA,,,NA,NA,,,NA,NA,,,NA,NA,,,NA,NA,,,NA,NA,,,NA,NA,,,NA,NA,,,NA,NA,,,NA,NA,,,NA
2235,LBR,Liberia,Monrovia,"6,31","-10,8",0,0,0,,1990-04-07,1990-04-07,1,"no date given, source date",One-sided attack,Unclear,American dead,0,,1,1,1,1,0,0,25,0,0,0,Civilian(s),Civilian(s),,319,1,0,0,Armed Forces of Liberia (AFL),Armed Forces of Liberia (AFL),,NA,0,NA,0,,,,NA,0,NA,0,,,,NA,0,NA,0,,,,NA,0,NA,0,,,,NA,0,NA,0,,,,82,07/04/1990,The Guardian,0,NA,,,NA,NA,,,NA,NA,,,NA,NA,,,NA,NA,,,NA,NA,,,NA,NA,,,NA,NA,,,NA,NA,,,NA,NA,,,NA,NA,,,NA,NA,,,NA,NA,,,NA,NA,,,NA,NA,,,NA
2103,LBR,Liberia,Monrovia,"6,31","-10,8",0,0,0,,2001-11-06,2001-11-06,1,Source date is used,One-sided attack,Unclear,Six Anti-Terrorist Unit members said arrested over killing of Nigerian,0,,1,1,1,1,0,0,349,1,0,0,Antiterrorist Unit (ATU),"Antiterrorist Unit: The regular security forces include the Antiterrorist Unit (ATU), which is composed of an elite special forces group consisting predominately of foreign nationals from Burkina Faso and The Gambia, as well as former Revolutionary United Front (RUF) combatants from Sierra Leone/ The ATU absorbed Taylor's most experienced civil war fighters, including undisciplined and untrained loyalists/",,25,0,0,0,Civilian(s),Civilian(s),,NA,0,NA,0,,,,NA,0,NA,0,,,,NA,0,NA,0,,,,NA,0,NA,0,,,,NA,0,NA,0,,,,93,06/11/2001,BBC Monitoring,0,NA,,,NA,NA,,,NA,NA,,,NA,NA,,,NA,NA,,,NA,NA,,,NA,NA,,,NA,NA,,,NA,NA,,,NA,NA,,,NA,NA,,,NA,NA,,,NA,NA,,,NA,NA,,,NA,NA,,,NA
2032,LBR,Liberia,Monrovia,"6,31","-10,8",0,0,0,During the World Cup qualifier in Monrovia,2000-04-23,2000-04-23,0,,Unclear,Unclear,Three Reported Dead In Liberia Soccer Riot,0,,3,3,3,3,0,0,341,0,0,0,Liberia National Police (LNP),Liberia National Police (LNP),,319,0,0,0,Armed Forces of Liberia (AFL),Armed Forces of Liberia (AFL),,NA,0,NA,0,,,,NA,0,NA,0,,,,NA,0,NA,0,,,,NA,0,NA,0,,,,NA,0,NA,0,,,,92,24/04/2000,Washington Post,0,92,24/04/2000,New York Times,0,NA,,,NA,NA,,,NA,NA,,,NA,NA,,,NA,NA,,,NA,NA,,,NA,NA,,,NA,NA,,,NA,NA,,,NA,NA,,,NA,NA,,,NA,NA,,,NA,NA,,,NA,NA,,,NA
2033,LBR,Liberia,Monrovia,"6,31","-10,8",0,0,0,,2000-05-20,2000-05-20,1,"The victimd died of his injuries on May the 20th in J/F/ Kennedy Hospital, Monrovia",One-sided attack,Other,Police reportedly arrest deputy minister's bodyguards for murder,0,,1,1,1,1,0,0,11,0,0,0,Unspecified actor,Unspecified actor,,11,0,0,0,Unspecified actor,Unspecified actor,,NA,0,NA,0,,,,NA,0,NA,0,,,,NA,0,NA,0,,,,NA,0,NA,0,,,,NA,0,NA,0,,,,92,30/05/2000,BBC Monitoring,0,92,02/06/2000,BBC Monitoring,0,NA,,,NA,NA,,,NA,NA,,,NA,NA,,,NA,NA,,,NA,NA,,,NA,NA,,,NA,NA,,,NA,NA,,,NA,NA,,,NA,NA,,,NA,NA,,,NA,NA,,,NA,NA,,,NA
2004,LBR,Liberia,Monrovia,"6,31","-10,8",0,0,0,"""on the outskirts of Monrovia/""",1999-09-15,1999-09-15,1,There is just the information that then incident happened in September 1998,One-sided attack,Use of small firearms,Taxi driver killed by Taylor`s brother-in-law,0,,1,1,1,1,0,0,11,0,0,0,Unspecified actor,Unspecified actor,,11,0,0,0,Unspecified actor,Unspecified actor,,NA,0,NA,0,,,,NA,0,NA,0,,,,NA,0,NA,0,,,,NA,0,NA,0,,,,NA,0,NA,0,,,,91,20/11/1999,BBC Monitoring,0,NA,,,NA,NA,,,NA,NA,,,NA,NA,,,NA,NA,,,NA,NA,,,NA,NA,,,NA,NA,,,NA,NA,,,NA,NA,,,NA,NA,,,NA,NA,,,NA,NA,,,NA,NA,,,NA,NA,,,NA
1985,LBR,Liberia,Monrovia,"6,31","-10,8",0,0,0,"shooting incident on St Johnson
Road/",1998-08-28,1998-08-28,0,,One-sided attack,Use of small firearms,One killed as Ecomog troops fire shots to disperse crowd,0,,1,1,1,1,0,0,321,1,0,0,ECOMOG,"ECOMOG, Community of West African States Monitoring Group",,11,0,0,0,Unspecified actor,Unspecified actor,,NA,0,NA,0,,,,NA,0,NA,0,,,,NA,0,NA,0,,,,NA,0,NA,0,,,,NA,0,NA,0,,,,90,31/08/1998,BBC Monitoring,2,NA,,,NA,NA,,,NA,NA,,,NA,NA,,,NA,NA,,,NA,NA,,,NA,NA,,,NA,NA,,,NA,NA,,,NA,NA,,,NA,NA,,,NA,NA,,,NA,NA,,,NA,NA,,,NA,NA,,,NA
1986,LBR,Liberia,Monrovia,"6,31","-10,8",0,0,0,"downtown Monrovia, Roosevelt Johnson's spacious apartment",1998-09-18,1998-09-19,0,,One-sided attack,Use of small firearms,Liberian Ex-Warlord's Residence Captured,1,The numbers of fatalities range from 15 to about 52 people/ But 47 seems to be the most reliable figure/,33,52,0,0,0,0,319,1,0,0,Armed Forces of Liberia (AFL),Armed Forces of Liberia (AFL),,315,0,1,0,United Liberation Movement for Democracy in Liberia,"The United Liberation Movement of Liberia for Democracy (ULIMO) was a rebel group that participated in the First Liberian Civil War (1989-1996)/From its outset, ULIMO was beset with internal divisions and the group effectively broke into two separate militias in 1994: ULIMO-J, an ethnic Krahn faction led by General Roosevelt Johnson and ULIMO-K, a Mandingo-based faction led by Alhaji G/V/ Kromah/",,314,0,1,0,Ulimo-J,United Liberation Movement of Liberia for Democracy-Johnson faction (ULIMO-J),General Roosevelt Johnson/,NA,0,NA,0,,,,NA,0,NA,0,,,,NA,0,NA,0,,,,NA,0,NA,0,,,,90,20/09/1998,Washington Post,0,90,20/09/1998,BBC Monitoring,0,90,20/09/1998,BBC Monitoring,0,90,20/09/1998,BBC Monitoring,0,90,21/09/1998,Washington Post,1,90,22/09/1998,Washington Post,2,90,22/09/1998,BBC Monitoring,2,91,14/01/1999,Washington Post,0,NA,,,NA,NA,,,NA,NA,,,NA,NA,,,NA,NA,,,NA,NA,,,NA,NA,,,NA,NA,,,NA
1987,LBR,Liberia,Monrovia,"6,31","-10,8",0,0,0,"Roosevelt
Johnson, the Liberian president's main rival, who fled to the embassy on Saturday morning/",1998-09-19,1998-09-19,0,,One-sided attack,Use of small firearms,US caught in Liberian crossfire,0,,4,4,0,0,0,0,314,0,1,0,Ulimo-J,United Liberation Movement of Liberia for Democracy-Johnson faction (ULIMO-J),General Roosevelt Johnson/,326,0,1,0,U/S/ Embassy Personal,U/S/ Embassy Personal,,319,1,0,0,Armed Forces of Liberia (AFL),Armed Forces of Liberia (AFL),,NA,0,NA,0,,,,NA,0,NA,0,,,,NA,0,NA,0,,,,NA,0,NA,0,,,,90,23/09/1998,The Guardian,0,90,24/09/1998,Washington Post,0,90,26/09/1998,New York Times,0,NA,,,NA,NA,,,NA,NA,,,NA,NA,,,NA,NA,,,NA,NA,,,NA,NA,,,NA,NA,,,NA,NA,,,NA,NA,,,NA,NA,,,NA,NA,,,NA,NA,,,NA
1982,LBR,Liberia,Monrovia,"6,31","-10,8",0,0,0,,1998-05-05,1998-05-05,0,,One-sided attack,Use of small firearms,Two killed in 5th May demonstration,1,conflicting death tolls,2,4,0,0,0,0,11,1,NA,0,Unspecified actor,Unspecified actor,,410,0,NA,0,Demonstrator(s),Demonstrator(s),,NA,0,NA,0,,,,NA,0,NA,0,,,,NA,0,NA,0,,,,NA,0,NA,0,,,,NA,0,NA,0,,,,90,12/05/1998,BBC Monitoring,0,NA,,,NA,NA,,,NA,NA,,,NA,NA,,,NA,NA,,,NA,NA,,,NA,NA,,,NA,NA,,,NA,NA,,,NA,NA,,,NA,NA,,,NA,NA,,,NA,NA,,,NA,NA,,,NA,NA,,,NA
1979,LBR,Liberia,Monrovia,"6,31","-10,8",0,10,0,"""outside the capital Monrovia""",1997-01-16,1997-01-16,0,,Fighting,Fighting,LIBERIA PEACE BLOW,0,,5,5,0,0,5,5,14,0,0,0,Militia,Unknown militia,,14,0,0,0,Militia,Unknown militia,,NA,0,NA,0,,,,NA,0,NA,0,,,,NA,0,NA,0,,,,NA,0,NA,0,,,,NA,0,NA,0,,,,89,17/01/1997,The Guardian,0,NA,,,NA,NA,,,NA,NA,,,NA,NA,,,NA,NA,,,NA,NA,,,NA,NA,,,NA,NA,,,NA,NA,,,NA,NA,,,NA,NA,,,NA,NA,,,NA,NA,,,NA,NA,,,NA,NA,,,NA
1977,LBR,Liberia,Monrovia,"6,31","-10,8",0,0,0,,1990-03-18,1990-03-18,1,date of source,One-sided attack,Other,125 children killed under the age of 7,1,"Rumors, not confirmed",125,125,125,125,0,0,145,1,0,0,Rebel(s),Unspecified rebel(s),,25,0,0,0,Civilian(s),Civilian(s),,NA,0,NA,0,,,,NA,0,NA,0,,,,NA,0,NA,0,,,,NA,0,NA,0,,,,NA,0,NA,0,,,,82,01/03/1990,Washington Post,2,NA,,,NA,NA,,,NA,NA,,,NA,NA,,,NA,NA,,,NA,NA,,,NA,NA,,,NA,NA,,,NA,NA,,,NA,NA,,,NA,NA,,,NA,NA,,,NA,NA,,,NA,NA,,,NA,NA,,,NA
2349,LBR,Liberia,New Georgia,"6,37","-10,77",0,0,0,,1991-09-30,1991-09-30,1,died 2 days after quarrel,Unclear,Unclear,Two killed by INPFL,0,,2,2,0,0,0,0,370,0,0,0,Independent National Patriotic Front (INPFL),Independent National Patriotic Front (INPFL),Prince Johnson,11,0,0,0,Unspecified actor,Unspecified actor,,NA,0,NA,0,,,,NA,0,NA,0,,,,NA,0,NA,0,,,,NA,0,NA,0,,,,NA,0,NA,0,,,,83,03/10/1991,BBC Monitoring,0,NA,,,NA,NA,,,NA,NA,,,NA,NA,,,NA,NA,,,NA,NA,,,NA,NA,,,NA,NA,,,NA,NA,,,NA,NA,,,NA,NA,,,NA,NA,,,NA,NA,,,NA,NA,,,NA,NA,,,NA
2278,LBR,Liberia,Paynesville,"6,28","-10,72",0,0,0,,1990-08-12,1990-08-12,0,,One-sided attack,Unclear,18 refugees killed by soldiers,0,,18,18,18,18,0,0,319,1,0,0,Armed Forces of Liberia (AFL),Armed Forces of Liberia (AFL),,25,0,0,0,Civilian(s),Civilian(s),,NA,0,NA,0,,,,NA,0,NA,0,,,,NA,0,NA,0,,,,NA,0,NA,0,,,,NA,0,NA,0,,,,82,13/08/1990,New York Times,0,82,14/08/1990,BBC Monitoring,0,NA,,,NA,NA,,,NA,NA,,,NA,NA,,,NA,NA,,,NA,NA,,,NA,NA,,,NA,NA,,,NA,NA,,,NA,NA,,,NA,NA,,,NA,NA,,,NA,NA,,,NA,NA,,,NA
2442,LBR,Liberia,Paynesville,"6,28","-10,72",0,0,0,,1994-12-15,1994-12-15,0,,Unclear,Unclear,Militia terrorized Monrovia,0,,20,20,20,20,0,0,14,0,0,0,Militia,Unknown militia,,11,0,0,0,Unspecified actor,Unspecified actor,,NA,0,NA,0,,,,NA,0,NA,0,,,,NA,0,NA,0,,,,NA,0,NA,0,,,,NA,0,NA,0,,,,86,16/12/1994,BBC Monitoring,0,NA,,,NA,NA,,,NA,NA,,,NA,NA,,,NA,NA,,,NA,NA,,,NA,NA,,,NA,NA,,,NA,NA,,,NA,NA,,,NA,NA,,,NA,NA,,,NA,NA,,,NA,NA,,,NA,NA,,,NA
2459,LBR,Liberia,Nimba County,"6,83","-8,77","60,31",0,0,,2003-08-28,2003-08-28,1,Source date,Fighting,Fighting,Renewed fighting led to massacre,1,"fighting has led to the ""massacre of 1,000""",1000,1000,0,0,0,0,145,0,0,0,Rebel(s),Unspecified rebel(s),,319,0,0,0,Armed Forces of Liberia (AFL),Armed Forces of Liberia (AFL),,NA,0,NA,0,,,,NA,0,NA,0,,,,NA,0,NA,0,,,,NA,0,NA,0,,,,NA,0,NA,0,,,,95,29/08/2003,BBC Monitoring,0,NA,,,NA,NA,,,NA,NA,,,NA,NA,,,NA,NA,,,NA,NA,,,NA,NA,,,NA,NA,,,NA,NA,,,NA,NA,,,NA,NA,,,NA,NA,,,NA,NA,,,NA,NA,,,NA,NA,,,NA
2241,LBR,Liberia,Nimba County,"6,83","-8,77","60,31",0,0,no further information,1990-05-19,1990-05-25,1,this week,Unclear,Unclear,18 killed from Gio and Mano tribes,0,,18,18,0,0,0,0,11,0,0,0,Unspecified actor,Unspecified actor,,11,0,0,0,Unspecified actor,Unspecified actor,,NA,0,NA,0,,,,NA,0,NA,0,,,,NA,0,NA,0,,,,NA,0,NA,0,,,,NA,0,NA,0,,,,82,25/05/1990,New York Times,0,NA,,,NA,NA,,,NA,NA,,,NA,NA,,,NA,NA,,,NA,NA,,,NA,NA,,,NA,NA,,,NA,NA,,,NA,NA,,,NA,NA,,,NA,NA,,,NA,NA,,,NA,NA,,,NA,NA,,,NA
1978,LBR,Liberia,Bahn,"6,99","-8,85",0,0,0,,1990-03-28,1990-03-28,0,,Unclear,Unclear,US Missionary and wife slain,0,,2,2,2,2,0,0,25,0,0,0,Civilian(s),Civilian(s),,145,1,0,0,Rebel(s),Unspecified rebel(s),,NA,0,NA,0,,,,NA,0,NA,0,,,,NA,0,NA,0,,,,NA,0,NA,0,,,,NA,0,NA,0,,,,82,29/03/1990,New York Times,0,82,04/05/1990,Washington Post,0,NA,,,NA,NA,,,NA,NA,,,NA,NA,,,NA,NA,,,NA,NA,,,NA,NA,,,NA,NA,,,NA,NA,,,NA,NA,,,NA,NA,,,NA,NA,,,NA,NA,,,NA,NA,,,NA
1975,LBR,Liberia,Gampa,"7,28","-8,83",0,0,0,,1990-01-27,1990-01-28,1,over the weekend of 27th-28th,One-sided attack,Other,5 rebels killed,0,,5,5,0,0,5,5,319,1,0,0,Armed Forces of Liberia (AFL),Armed Forces of Liberia (AFL),,145,0,0,0,Rebel(s),Unspecified rebel(s),,NA,0,NA,0,,,,NA,0,NA,0,,,,NA,0,NA,0,,,,NA,0,NA,0,,,,NA,0,NA,0,,,,82,29/01/1990,BBC Monitoring,0,82,01/02/1990,BBC Monitoring,0,NA,,,NA,NA,,,NA,NA,,,NA,NA,,,NA,NA,,,NA,NA,,,NA,NA,,,NA,NA,,,NA,NA,,,NA,NA,,,NA,NA,,,NA,NA,,,NA,NA,,,NA,NA,,,NA
2296,LBR,Liberia,Sawmill,"7,56","-8,56",0,10,0,"""near the town of Sawmill""",2002-01-27,2002-01-27,0,,One-sided attack,Unclear,Thousands Flee Rebel Attacks In Liberia Zone,1,"""Liberian defense minister said that rebels had killed several civilians in an attack""",2,2,2,2,0,0,343,1,0,0,Liberians United for Reconciliation and Democracy (LURD),"Liberians United for Reconciliation and Democracy/ The group is essentially a loose coalition of anti-Taylor forces, drawing upon a variety of militia factions and refugee groups, increasingly backed by Guinea, with more indirect support from Sierra Leone, the U/ S/ and Great Britain/",,25,0,0,0,Civilian(s),Civilian(s),,NA,0,NA,0,,,,NA,0,NA,0,,,,NA,0,NA,0,,,,NA,0,NA,0,,,,NA,0,NA,0,,,,94,30/01/2002,New York Times,2,NA,,,NA,NA,,,NA,NA,,,NA,NA,,,NA,NA,,,NA,NA,,,NA,NA,,,NA,NA,,,NA,NA,,,NA,NA,,,NA,NA,,,NA,NA,,,NA,NA,,,NA,NA,,,NA,NA,,,NA
2440,LBR,Liberia,River Cess County,"5,88","-9,39","41,23",300,0,west and the centre of Liberia,1994-10-05,1994-10-05,0,,One-sided attack,Landmines,At least 32 killed by landmines,1,"UN, OAU and Ecowas accuse NPFL of killing 32 people",1,32,0,0,0,0,11,0,0,0,Unspecified actor,Unspecified actor,,328,1,0,0,National Patriotic Front of Liberia (NPFL),National Patriotic Front of Liberia (NPFL),Charles Taylor,NA,0,NA,0,,,,NA,0,NA,0,,,,NA,0,NA,0,,,,NA,0,NA,0,,,,NA,0,NA,0,,,,86,06/10/1994,BBC Monitoring,0,NA,,,NA,NA,,,NA,NA,,,NA,NA,,,NA,NA,,,NA,NA,,,NA,NA,,,NA,NA,,,NA,NA,,,NA,NA,,,NA,NA,,,NA,NA,,,NA,NA,,,NA,NA,,,NA,NA,,,NA
2433,LBR,Liberia,River Cess,"5,46","-9,58",0,0,0,,1994-08-18,1994-08-18,1,Date of broadcast,Fighting,Fighting,NPFL attacks LPC poisitions,0,,1,2,0,0,0,0,385,0,0,0,Liberian Peace Council (LPC),Liberian Peace Council (LPC),,328,0,0,0,National Patriotic Front of Liberia (NPFL),National Patriotic Front of Liberia (NPFL),Charles Taylor,NA,0,NA,0,,,,NA,0,NA,0,,,,NA,0,NA,0,,,,NA,0,NA,0,,,,NA,0,NA,0,,,,86,18/08/1994,BBC Monitoring,2,NA,,,NA,NA,,,NA,NA,,,NA,NA,,,NA,NA,,,NA,NA,,,NA,NA,,,NA,NA,,,NA,NA,,,NA,NA,,,NA,NA,,,NA,NA,,,NA,NA,,,NA,NA,,,NA,NA,,,NA
2258,LBR,Liberia,River Cess,"5,46","-9,58",0,0,0,,1990-06-22,1990-06-22,1,date of release,Unclear,Unclear,Killings of Samuel Doe's Kahn tribe,1,unconfirmed report about killings,2,2,0,0,0,0,367,0,0,0,Krahn tribe,Krahn tribe of Presindent Samuel Doe,Samuel Doe,11,0,0,0,Unspecified actor,Unspecified actor,,NA,0,NA,0,,,,NA,0,NA,0,,,,NA,0,NA,0,,,,NA,0,NA,0,,,,NA,0,NA,0,,,,82,22/06/1990,BBC Monitoring,0,NA,,,NA,NA,,,NA,NA,,,NA,NA,,,NA,NA,,,NA,NA,,,NA,NA,,,NA,NA,,,NA,NA,,,NA,NA,,,NA,NA,,,NA,NA,,,NA,NA,,,NA,NA,,,NA,NA,,,NA
2005,LBR,Liberia,Webbo District,"5,23","-7,64","31,26",0,0,"""Webbo District""",1999-12-09,1999-12-09,1,There is no specific date for the reported killing of Melvin Chea/ The Date of the original source is used/,One-sided attack,Unclear,"Party reports ""security harassment"" in Grand Gedeh County",0,,1,1,1,1,0,0,319,1,0,1,Armed Forces of Liberia (AFL),Armed Forces of Liberia (AFL),,11,0,0,0,Unspecified actor,Unspecified actor,,NA,0,NA,0,,,,NA,0,NA,0,,,,NA,0,NA,0,,,,NA,0,NA,0,,,,NA,0,NA,0,,,,91,14/12/1999,BBC Monitoring,0,NA,,,NA,NA,,,NA,NA,,,NA,NA,,,NA,NA,,,NA,NA,,,NA,NA,,,NA,NA,,,NA,NA,,,NA,NA,,,NA,NA,,,NA,NA,,,NA,NA,,,NA,NA,,,NA,NA,,,NA
2424,LBR,Liberia,Sinoe County,"5,35","-8,81","55,17",0,0,,1993-10-19,1993-10-19,0,,Fighting,Fighting,Ethnic clash,1,members of Kru tribe,2,2,0,0,0,0,367,0,0,0,Krahn tribe,Krahn tribe of Presindent Samuel Doe,Samuel Doe,380,0,0,0,Kru tribe,Kru tribe,,NA,0,NA,0,,,,NA,0,NA,0,,,,NA,0,NA,0,,,,NA,0,NA,0,,,,NA,0,NA,0,,,,85,19/10/1993,BBC Monitoring,0,NA,,,NA,NA,,,NA,NA,,,NA,NA,,,NA,NA,,,NA,NA,,,NA,NA,,,NA,NA,,,NA,NA,,,NA,NA,,,NA,NA,,,NA,NA,,,NA,NA,,,NA,NA,,,NA,NA,,,NA
2003,LBR,Liberia,Murraysville Township,"5,05","-9,06",0,0,0,"""in Morrisville, Sinoe County""",1999-09-08,1999-09-08,1,The ministry said the incident took place early September/,Unclear,Unclear,Sergeant to face court martial,0,,2,2,2,2,0,0,11,1,0,0,Unspecified actor,Unspecified actor,,11,0,0,0,Unspecified actor,Unspecified actor,,NA,0,NA,0,,,,NA,0,NA,0,,,,NA,0,NA,0,,,,NA,0,NA,0,,,,NA,0,NA,0,,,,91,25/10/1999,BBC Monitoring,0,NA,,,NA,NA,,,NA,NA,,,NA,NA,,,NA,NA,,,NA,NA,,,NA,NA,,,NA,NA,,,NA,NA,,,NA,NA,,,NA,NA,,,NA,NA,,,NA,NA,,,NA,NA,,,NA,NA,,,NA
2427,LBR,Liberia,/Unknown location in Liberia,"6,45","-9,31",175,0,0,,1994-03-18,1994-03-18,1,date of broadcast,Unclear,Unclear,Two Liberian nurses killed,0,,2,2,2,2,0,0,384,0,0,0,Mdecins Sans Frontires,"Mdecins Sans Frontires, NGO",,11,0,0,0,Unspecified actor,Unspecified actor,,NA,0,NA,0,,,,NA,0,NA,0,,,,NA,0,NA,0,,,,NA,0,NA,0,,,,NA,0,NA,0,,,,86,18/03/1994,BBC Monitoring,0,NA,,,NA,NA,,,NA,NA,,,NA,NA,,,NA,NA,,,NA,NA,,,NA,NA,,,NA,NA,,,NA,NA,,,NA,NA,,,NA,NA,,,NA,NA,,,NA,NA,,,NA,NA,,,NA,NA,,,NA
2434,LBR,Liberia,/Unknown location in Liberia,"6,45","-9,31",175,0,0,,1994-08-27,1994-08-28,1,different dates in the two sources,One-sided attack,Unclear,General Nixon Gaye executed by own battalion,0,,1,1,0,0,0,0,328,1,0,0,National Patriotic Front of Liberia (NPFL),National Patriotic Front of Liberia (NPFL),Charles Taylor,328,0,0,0,National Patriotic Front of Liberia (NPFL),National Patriotic Front of Liberia (NPFL),Charles Taylor,NA,0,NA,0,,,,NA,0,NA,0,,,,NA,0,NA,0,,,,NA,0,NA,0,,,,NA,0,NA,0,,,,86,29/08/1994,The Guardian,0,86,28/08/1994,BBC Monitoring,0,86,29/08/1994,BBC Monitoring,2,NA,,,NA,NA,,,NA,NA,,,NA,NA,,,NA,NA,,,NA,NA,,,NA,NA,,,NA,NA,,,NA,NA,,,NA,NA,,,NA,NA,,,NA,NA,,,NA,NA,,,NA
2505,LBR,Liberia,/Unknown location in Liberia,"6,45","-9,31",175,0,0,No location given,2007-03-15,2007-03-15,1,"According to the source, the incident happend in March",Unclear,Unclear,Police brutality?,0,,1,1,1,1,0,0,327,0,0,0,Security forces,Security forces,,11,0,0,0,Unspecified actor,Unspecified actor,,NA,0,NA,0,,,,NA,0,NA,0,,,,NA,0,NA,0,,,,NA,0,NA,0,,,,NA,0,NA,0,,,,99,10/05/2007,BBC Monitoring,0,NA,,,NA,NA,,,NA,NA,,,NA,NA,,,NA,NA,,,NA,NA,,,NA,NA,,,NA,NA,,,NA,NA,,,NA,NA,,,NA,NA,,,NA,NA,,,NA,NA,,,NA,NA,,,NA,NA,,,NA
2509,LBR,Liberia,/Unknown location in Liberia,"6,45","-9,31",175,0,0,"""no location given""",2007-11-22,2007-11-22,1,Source date used,Unclear,Unclear,Death of Belgian,0,,1,1,0,0,0,0,11,1,0,0,Unspecified actor,Unspecified actor,,753,0,0,0,Belgian,Belgian citizen(s),,NA,0,NA,0,,,,NA,0,NA,0,,,,NA,0,NA,0,,,,NA,0,NA,0,,,,NA,0,NA,0,,,,99,22/11/2007,BBC Monitoring,0,NA,,,NA,NA,,,NA,NA,,,NA,NA,,,NA,NA,,,NA,NA,,,NA,NA,,,NA,NA,,,NA,NA,,,NA,NA,,,NA,NA,,,NA,NA,,,NA,NA,,,NA,NA,,,NA,NA,,,NA
2462,LBR,Liberia,/Unknown location in Liberia,"6,45","-9,31",175,0,0,,1994-05-03,1994-05-03,1,date of report,Unclear,Unclear,ULiMO-K kills other tribes,1,kjilling other tribes,2,2,0,0,0,0,316,0,0,0,Ulimo-K,"Ulimo-K, United Liberation Movement of Liberia for Democracy, Kromah faction",Alhaji G/V/ Kromah/,11,0,0,0,Unspecified actor,Unspecified actor,,NA,0,NA,0,,,,NA,0,NA,0,,,,NA,0,NA,0,,,,NA,0,NA,0,,,,NA,0,NA,0,,,,86,03/05/1994,BBC Monitoring,2,NA,,,NA,NA,,,NA,NA,,,NA,NA,,,NA,NA,,,NA,NA,,,NA,NA,,,NA,NA,,,NA,NA,,,NA,NA,,,NA,NA,,,NA,NA,,,NA,NA,,,NA,NA,,,NA,NA,,,NA
2494,LBR,Liberia,/Unknown location in Liberia,"6,45","-9,31",175,0,0,,2004-05-18,2004-05-18,0,,Fighting,Fighting,Rebels ambush Fiji police in Liberia,0,,3,3,0,0,3,3,145,1,0,0,Rebel(s),Unspecified rebel(s),,351,0,0,0,United Nations Troops,Armed forces of the United Nations Organisation,,NA,0,NA,0,,,,NA,0,NA,0,,,,NA,0,NA,0,,,,NA,0,NA,0,,,,NA,0,NA,0,,,,96,21/05/2004,BBC Monitoring,0,NA,,,NA,NA,,,NA,NA,,,NA,NA,,,NA,NA,,,NA,NA,,,NA,NA,,,NA,NA,,,NA,NA,,,NA,NA,,,NA,NA,,,NA,NA,,,NA,NA,,,NA,NA,,,NA,NA,,,NA
2260,LBR,Liberia,/Unknown location in Liberia,"6,45","-9,31",175,0,0,no location mentioned,1990-06-25,1990-06-25,1,last week,Unclear,Unclear,NPFL rebel killed by NFPL,1,NPFL was accused of having killed Moses Doupu,1,1,0,0,0,0,328,0,0,0,National Patriotic Front of Liberia (NPFL),National Patriotic Front of Liberia (NPFL),Charles Taylor,328,0,0,0,National Patriotic Front of Liberia (NPFL),National Patriotic Front of Liberia (NPFL),Charles Taylor,NA,0,NA,0,,,,NA,0,NA,0,,,,NA,0,NA,0,,,,NA,0,NA,0,,,,NA,0,NA,0,,,,82,02/07/1990,The Guardian,0,NA,,,NA,NA,,,NA,NA,,,NA,NA,,,NA,NA,,,NA,NA,,,NA,NA,,,NA,NA,,,NA,NA,,,NA,NA,,,NA,NA,,,NA,NA,,,NA,NA,,,NA,NA,,,NA,NA,,,NA
2285,LBR,Liberia,/Unknown location in Liberia,"6,45","-9,31",175,0,0,,1990-08-25,1990-09-02,1,since west African ECOMOG-Forces arrived,One-sided attack,Unclear,60 Malians killed since arrival of ECOMOG,1,"""over 60 Malians"" were killed in the civil war in Liberia",61,61,0,0,0,0,11,1,NA,0,Unspecified actor,Unspecified actor,,838,0,NA,0,Malian(s),"Malian(s), Malian national(s)",,NA,0,NA,0,,,,NA,0,NA,0,,,,NA,0,NA,0,,,,NA,0,NA,0,,,,NA,0,NA,0,,,,82,02/09/1990,BBC Monitoring,0,NA,,,NA,NA,,,NA,NA,,,NA,NA,,,NA,NA,,,NA,NA,,,NA,NA,,,NA,NA,,,NA,NA,,,NA,NA,,,NA,NA,,,NA,NA,,,NA,NA,,,NA,NA,,,NA,NA,,,NA
2286,LBR,Liberia,/Unknown location in Liberia,"6,45","-9,31",175,0,0,no location other than Liberia given,1990-08-25,1990-09-06,1,ECOMOG arrived on 02/08/1990,Unclear,Unclear,Several ECOMOG soldiers killed by NPFL,1,several,2,2,0,0,2,2,321,0,0,0,ECOMOG,"ECOMOG, Community of West African States Monitoring Group",,328,0,0,0,National Patriotic Front of Liberia (NPFL),National Patriotic Front of Liberia (NPFL),Charles Taylor,NA,0,NA,0,,,,NA,0,NA,0,,,,NA,0,NA,0,,,,NA,0,NA,0,,,,NA,0,NA,0,,,,82,06/09/1990,BBC Monitoring,0,NA,,,NA,NA,,,NA,NA,,,NA,NA,,,NA,NA,,,NA,NA,,,NA,NA,,,NA,NA,,,NA,NA,,,NA,NA,,,NA,NA,,,NA,NA,,,NA,NA,,,NA,NA,,,NA,NA,,,NA
2279,LBR,Liberia,/Unknown location in Liberia,"6,45","-9,31",175,0,0,no location other than Liberia given,1990-08-18,1990-08-18,1,date when body way handed over,One-sided attack,Use of small firearms,US missionary killed,0,,1,1,1,1,0,0,540,0,0,0,Priest/nun,Priest/nun,,319,1,0,0,Armed Forces of Liberia (AFL),Armed Forces of Liberia (AFL),,NA,0,NA,0,,,,NA,0,NA,0,,,,NA,0,NA,0,,,,NA,0,NA,0,,,,NA,0,NA,0,,,,82,21/08/1990,New York Times,0,NA,,,NA,NA,,,NA,NA,,,NA,NA,,,NA,NA,,,NA,NA,,,NA,NA,,,NA,NA,,,NA,NA,,,NA,NA,,,NA,NA,,,NA,NA,,,NA,NA,,,NA,NA,,,NA,NA,,,NA
2293,LBR,Liberia,/Unknown location in Liberia,"6,45","-9,31",175,0,0,,1990-11-29,1990-12-08,1,time after ceasefire till publishing,Unclear,Unclear,2 rebels killed after cease-fire,0,,2,2,0,0,2,2,321,0,0,0,ECOMOG,"ECOMOG, Community of West African States Monitoring Group",,328,0,0,0,National Patriotic Front of Liberia (NPFL),National Patriotic Front of Liberia (NPFL),Charles Taylor,NA,0,NA,0,,,,NA,0,NA,0,,,,NA,0,NA,0,,,,NA,0,NA,0,,,,NA,0,NA,0,,,,82,09/12/1990,New York Times,0,NA,,,NA,NA,,,NA,NA,,,NA,NA,,,NA,NA,,,NA,NA,,,NA,NA,,,NA,NA,,,NA,NA,,,NA,NA,,,NA,NA,,,NA,NA,,,NA,NA,,,NA,NA,,,NA,NA,,,NA
2291,LBR,Liberia,/Unknown location in Liberia,"6,45","-9,31",175,0,0,,1990-09-14,1990-09-14,0,,Unclear,Unclear,4 Ghanaians died,0,,4,4,0,0,4,4,321,0,0,0,ECOMOG,"ECOMOG, Community of West African States Monitoring Group",,145,0,0,0,Rebel(s),Unspecified rebel(s),,NA,0,NA,0,,,,NA,0,NA,0,,,,NA,0,NA,0,,,,NA,0,NA,0,,,,NA,0,NA,0,,,,82,20/09/1990,BBC Monitoring,0,NA,,,NA,NA,,,NA,NA,,,NA,NA,,,NA,NA,,,NA,NA,,,NA,NA,,,NA,NA,,,NA,NA,,,NA,NA,,,NA,NA,,,NA,NA,,,NA,NA,,,NA,NA,,,NA,NA,,,NA
2346,LBR,Liberia,/Unknown location in Liberia,"6,45","-9,31",175,0,0,,2003-06-01,2003-06-01,1,"""two weeks ago""",Unclear,Unclear,"Johnny Paul Koroma, was killed in Liberia",0,,1,1,0,0,0,0,11,0,0,0,Unspecified actor,Unspecified actor,,216,0,0,0,Armed Forces Revolutionary Council (AFRC),"The Armed Forces Revolutionary Council (AFRC) was a group of Sierra Leone soldiers that allied itself with the 'Revolutionary United Front'/ While the AFRC briefly controlled the country in 1998, it was driven from the capital by a coalition of West African troops/ (source: wikipedia)",Major Johnny Paul Koroma,NA,0,NA,0,,,,NA,0,NA,0,,,,NA,0,NA,0,,,,NA,0,NA,0,,,,NA,0,NA,0,,,,95,16/06/2003,New York Times,0,95,16/06/2003,Washington Post,0,NA,,,NA,NA,,,NA,NA,,,NA,NA,,,NA,NA,,,NA,NA,,,NA,NA,,,NA,NA,,,NA,NA,,,NA,NA,,,NA,NA,,,NA,NA,,,NA,NA,,,NA,NA,,,NA
2357,LBR,Liberia,/Unknown location in Liberia,"6,45","-9,31",175,0,0,,1992-02-21,1992-02-21,0,,One-sided attack,Unclear,Gen Sam Larto executed,0,,1,1,0,0,1,1,319,1,0,0,Armed Forces of Liberia (AFL),Armed Forces of Liberia (AFL),,319,0,0,0,Armed Forces of Liberia (AFL),Armed Forces of Liberia (AFL),,NA,0,NA,0,,,,NA,0,NA,0,,,,NA,0,NA,0,,,,NA,0,NA,0,,,,NA,0,NA,0,,,,84,21/02/1992,BBC Monitoring,0,NA,,,NA,NA,,,NA,NA,,,NA,NA,,,NA,NA,,,NA,NA,,,NA,NA,,,NA,NA,,,NA,NA,,,NA,NA,,,NA,NA,,,NA,NA,,,NA,NA,,,NA,NA,,,NA,NA,,,NA
2374,LBR,Liberia,/Unknown location in Liberia,"6,45","-9,31",175,0,0,,1992-10-02,1992-10-02,0,,Unclear,Unclear,Three ECOMOG soldiers killed,0,,3,3,0,0,3,3,321,0,0,0,ECOMOG,"ECOMOG, Community of West African States Monitoring Group",,328,0,0,0,National Patriotic Front of Liberia (NPFL),National Patriotic Front of Liberia (NPFL),Charles Taylor,NA,0,NA,0,,,,NA,0,NA,0,,,,NA,0,NA,0,,,,NA,0,NA,0,,,,NA,0,NA,0,,,,84,04/10/1992,BBC Monitoring,0,NA,,,NA,NA,,,NA,NA,,,NA,NA,,,NA,NA,,,NA,NA,,,NA,NA,,,NA,NA,,,NA,NA,,,NA,NA,,,NA,NA,,,NA,NA,,,NA,NA,,,NA,NA,,,NA,NA,,,NA
2387,LBR,Liberia,/Unknown location in Liberia,"6,45","-9,31",175,0,0,,1992-11-11,1992-11-11,1,date of broadcast,Unclear,Unclear,4 prominent Liberians killed,0,,4,4,1,1,0,0,315,0,0,0,United Liberation Movement for Democracy in Liberia,"The United Liberation Movement of Liberia for Democracy (ULIMO) was a rebel group that participated in the First Liberian Civil War (1989-1996)/From its outset, ULIMO was beset with internal divisions and the group effectively broke into two separate militias in 1994: ULIMO-J, an ethnic Krahn faction led by General Roosevelt Johnson and ULIMO-K, a Mandingo-based faction led by Alhaji G/V/ Kromah/",,385,0,0,0,Liberian Peace Council (LPC),Liberian Peace Council (LPC),,11,0,NA,0,Unspecified actor,Unspecified actor,,NA,0,NA,0,,,,NA,0,NA,0,,,,NA,0,NA,0,,,,NA,0,NA,0,,,,84,11/11/1992,BBC Monitoring,0,NA,,,NA,NA,,,NA,NA,,,NA,NA,,,NA,NA,,,NA,NA,,,NA,NA,,,NA,NA,,,NA,NA,,,NA,NA,,,NA,NA,,,NA,NA,,,NA,NA,,,NA,NA,,,NA,NA,,,NA
5460,LBR,Liberia,/Unknown location in Liberia,"6,45","-9,31",175,0,0,,2008-03-22,2008-03-22,0,,Fighting,Fighting,Czech policeman reportedly kills two attackers in self-defence,1,"According to a Czech newspaper, two people were killed; Czech Police Presidium did not confirm the deaths/",1,2,0,0,0,2,11,0,NA,0,Unspecified actor,Unspecified actor,,644,0,NA,0,UNMIL Police Mission in Liberia,"UNMIL - United Nations Mission in Liberia: Unarmed international Police Mission in Liberia, helps stabilize the situation in Liberia after the civil war",,NA,0,NA,0,,,,NA,0,NA,0,,,,NA,0,NA,0,,,,NA,0,NA,0,,,,NA,0,NA,0,,,,100,29/03/2008,BBC Monitoring,0,NA,,,NA,NA,,,NA,NA,,,NA,NA,,,NA,NA,,,NA,NA,,,NA,NA,,,NA,NA,,,NA,NA,,,NA,NA,,,NA,NA,,,NA,NA,,,NA,NA,,,NA,NA,,,NA,NA,,,NA
2102,LBR,Liberia,100km north of Monrovia,"7,251","-10,77",10,0,0,"""100 km north of Monrovia/""",2001-09-01,2001-09-02,1,"""over the weekend""",Fighting,Fighting,Liberian government says loyal troops kill two rebels in clashes near Monrovia,1,Fat max as reported by Liberian pro-Charles Taylor radio,9,10,0,0,9,10,319,0,0,0,Armed Forces of Liberia (AFL),Armed Forces of Liberia (AFL),,343,0,0,0,Liberians United for Reconciliation and Democracy (LURD),"Liberians United for Reconciliation and Democracy/ The group is essentially a loose coalition of anti-Taylor forces, drawing upon a variety of militia factions and refugee groups, increasingly backed by Guinea, with more indirect support from Sierra Leone, the U/ S/ and Great Britain/",,NA,0,NA,0,,,,NA,0,NA,0,,,,NA,0,NA,0,,,,NA,0,NA,0,,,,NA,0,NA,0,,,,93,06/09/2000,BBC Monitoring,2,NA,,,NA,NA,,,NA,NA,,,NA,NA,,,NA,NA,,,NA,NA,,,NA,NA,,,NA,NA,,,NA,NA,,,NA,NA,,,NA,NA,,,NA,NA,,,NA,NA,,,NA,NA,,,NA,NA,,,NA
2342,LBR,Liberia,at the border to Ivory Coast,"6,014","-7,847",180,0,0,"""near the border with Ivory Coast""",2003-05-06,2003-05-06,0,,Unclear,Unclear,Guerrilla Boss Reported Killed in Liberia,1,official numbers by the Liberian information minister,5,10,0,0,0,0,145,0,0,0,Rebel(s),Unspecified rebel(s),,319,0,0,0,Armed Forces of Liberia (AFL),Armed Forces of Liberia (AFL),,NA,0,NA,0,,,,NA,0,NA,0,,,,NA,0,NA,0,,,,NA,0,NA,0,,,,NA,0,NA,0,,,,95,07/05/2003,Washington Post,0,95,07/05/2003,New York Times,2,95,18/05/2003,BBC Monitoring,0,95,05/06/2003,Washington Post,0,NA,,,NA,NA,,,NA,NA,,,NA,NA,,,NA,NA,,,NA,NA,,,NA,NA,,,NA,NA,,,NA,NA,,,NA,NA,,,NA,NA,,,NA,NA,,,NA
2340,LBR,Liberia,at the border to Ivory Coast,"6,014","-7,847",180,0,0,"""///Liberia-Ivory Coast border/""",2003-03-07,2003-03-07,0,,Fighting,Fighting,Three Aid Workers Killed,0,,3,3,3,3,0,0,319,0,0,0,Armed Forces of Liberia (AFL),Armed Forces of Liberia (AFL),,145,0,0,0,Rebel(s),Unspecified rebel(s),,NA,0,NA,0,,,,NA,0,NA,0,,,,NA,0,NA,0,,,,NA,0,NA,0,,,,NA,0,NA,0,,,,95,08/03/2003,New York Times,0,NA,,,NA,NA,,,NA,NA,,,NA,NA,,,NA,NA,,,NA,NA,,,NA,NA,,,NA,NA,,,NA,NA,,,NA,NA,,,NA,NA,,,NA,NA,,,NA,NA,,,NA,NA,,,NA,NA,,,NA
2491,LBR,Liberia,"Namapo Town, near the Sinoe-Grand Kru border","4,93","-8,505",23,0,0,,1996-11-22,1996-11-25,1,time when fighting started till report,One-sided attack,Unclear,LPC fighters killed 400 in Namapo Town,1,Liberia Peace Council is accused by pro-Charles Taylor radio of killing 400 civilians,1,400,1,400,0,0,385,1,0,0,Liberian Peace Council (LPC),Liberian Peace Council (LPC),,25,0,0,0,Civilian(s),Civilian(s),,NA,0,NA,0,,,,NA,0,NA,0,,,,NA,0,NA,0,,,,NA,0,NA,0,,,,NA,0,NA,0,,,,88,25/11/1996,BBC Monitoring,2,NA,,,NA,NA,,,NA,NA,,,NA,NA,,,NA,NA,,,NA,NA,,,NA,NA,,,NA,NA,,,NA,NA,,,NA,NA,,,NA,NA,,,NA,NA,,,NA,NA,,,NA,NA,,,NA,NA,,,NA
2352,LBR,Liberia,near the Liberia-Sierra Leone border,"7,661","-10,753",110,0,1,near Liberia-Sierra Leone border,1991-10-23,1991-10-23,1,date of report,Fighting,Fighting,300 NFPL rebels killed on Liberia-Sierra Leone border,0,,300,300,0,0,300,300,328,0,0,0,National Patriotic Front of Liberia (NPFL),National Patriotic Front of Liberia (NPFL),Charles Taylor,315,0,0,0,United Liberation Movement for Democracy in Liberia,"The United Liberation Movement of Liberia for Democracy (ULIMO) was a rebel group that participated in the First Liberian Civil War (1989-1996)/From its outset, ULIMO was beset with internal divisions and the group effectively broke into two separate militias in 1994: ULIMO-J, an ethnic Krahn faction led by General Roosevelt Johnson and ULIMO-K, a Mandingo-based faction led by Alhaji G/V/ Kromah/",,NA,0,NA,0,,,,NA,0,NA,0,,,,NA,0,NA,0,,,,NA,0,NA,0,,,,NA,0,NA,0,,,,83,25/10/1991,BBC Monitoring,0,83,09/11/1991,BBC Monitoring,0,NA,,,NA,NA,,,NA,NA,,,NA,NA,,,NA,NA,,,NA,NA,,,NA,NA,,,NA,NA,,,NA,NA,,,NA,NA,,,NA,NA,,,NA,NA,,,NA,NA,,,NA,NA,,,NA
2492,LBR,Liberia,on the road that connects Monrovia and Tubmanburg,"6,589","-10,818",32,0,0,,1996-12-14,1996-12-14,1,date of report,One-sided attack,Unclear,6 people killed in ambush,0,,6,6,6,6,0,0,11,1,0,0,Unspecified actor,Unspecified actor,,25,0,0,0,Civilian(s),Civilian(s),,NA,0,NA,0,,,,NA,0,NA,0,,,,NA,0,NA,0,,,,NA,0,NA,0,,,,NA,0,NA,0,,,,88,14/12/1996,BBC Monitoring,0,NA,,,NA,NA,,,NA,NA,,,NA,NA,,,NA,NA,,,NA,NA,,,NA,NA,,,NA,NA,,,NA,NA,,,NA,NA,,,NA,NA,,,NA,NA,,,NA,NA,,,NA,NA,,,NA,NA,,,NA
2446,LBR,Liberia,"village of Yosi, 25 miles north of Buchanan","6,246","-10,058",4,0,0,,1995-04-09,1995-04-10,1,sources differ,One-sided attack,Use of hand-held non firearms,62 Slain in Raid on Village Near Liberia Port,0,,62,70,62,70,0,0,11,1,0,0,Unspecified actor,Unspecified actor,,25,0,0,0,Civilian(s),Civilian(s),,NA,0,NA,0,,,,NA,0,NA,0,,,,NA,0,NA,0,,,,NA,0,NA,0,,,,NA,0,NA,0,,,,87,19/04/1995,New York Times,0,87,19/04/1995,The Guardian,0,87,18/09/1995,BBC Monitoring,0,87,03/05/1995,New York Times,0,NA,,,NA,NA,,,NA,NA,,,NA,NA,,,NA,NA,,,NA,NA,,,NA,NA,,,NA,NA,,,NA,NA,,,NA,NA,,,NA,NA,,,NA,NA,,,NA
1976,LBR,Liberia,estimated location for Event ID1976,"7,3","-8,49",4,0,0,"""between Zagohi and Kashnple in Nimba County"" --> used 'Sakugli' and 'Kahnple'",1990-02-01,1990-02-01,0,,Fighting,Fighting,8 more rebels killed,0,,8,8,0,0,8,8,319,0,0,0,Armed Forces of Liberia (AFL),Armed Forces of Liberia (AFL),,145,0,0,0,Rebel(s),Unspecified rebel(s),,NA,0,NA,0,,,,NA,0,NA,0,,,,NA,0,NA,0,,,,NA,0,NA,0,,,,NA,0,NA,0,,,,82,02/02/1990,BBC Monitoring,0,NA,,,NA,NA,,,NA,NA,,,NA,NA,,,NA,NA,,,NA,NA,,,NA,NA,,,NA,NA,,,NA,NA,,,NA,NA,,,NA,NA,,,NA,NA,,,NA,NA,,,NA,NA,,,NA,NA,,,NA
2317,LBR,Liberia,Mano River Bridge,"7,01","-11,38",0,0,0,"crossed from Sierra Leone into Liberia, probably Mano River bridge",1991-09-06,1991-09-06,1,last week,Fighting,Fighting,Many refugees killed in cross-fire,1,many,2,2,0,0,0,0,11,0,0,0,Unspecified actor,Unspecified actor,,315,0,0,0,United Liberation Movement for Democracy in Liberia,"The United Liberation Movement of Liberia for Democracy (ULIMO) was a rebel group that participated in the First Liberian Civil War (1989-1996)/From its outset, ULIMO was beset with internal divisions and the group effectively broke into two separate militias in 1994: ULIMO-J, an ethnic Krahn faction led by General Roosevelt Johnson and ULIMO-K, a Mandingo-based faction led by Alhaji G/V/ Kromah/",,NA,0,NA,0,,,,NA,0,NA,0,,,,NA,0,NA,0,,,,NA,0,NA,0,,,,NA,0,NA,0,,,,83,13/09/1991,BBC Monitoring,0,NA,,,NA,NA,,,NA,NA,,,NA,NA,,,NA,NA,,,NA,NA,,,NA,NA,,,NA,NA,,,NA,NA,,,NA,NA,,,NA,NA,,,NA,NA,,,NA,NA,,,NA,NA,,,NA,NA,,,NA
2315,LBR,Liberia,Mano River Bridge,"7,01","-11,38",0,0,1,"Mano River bridge, border between Sierra Leone and Liberia",1991-09-06,1991-09-06,0,,Fighting,Fighting,up to 200 Sierra Leonean soldiers killed,1,"200 sierra leonean soldiers killed and captured, coded at least 2, plus 7 confirmed dead on taylor's side",9,207,0,0,9,207,328,0,0,0,National Patriotic Front of Liberia (NPFL),National Patriotic Front of Liberia (NPFL),Charles Taylor,332,0,0,0,Sierra Leonean Government Forces,Sierra Leonean Government Forces; regular army,,NA,0,NA,0,,,,NA,0,NA,0,,,,NA,0,NA,0,,,,NA,0,NA,0,,,,NA,0,NA,0,,,,83,07/09/1991,The Guardian,2,NA,,,NA,NA,,,NA,NA,,,NA,NA,,,NA,NA,,,NA,NA,,,NA,NA,,,NA,NA,,,NA,NA,,,NA,NA,,,NA,NA,,,NA,NA,,,NA,NA,,,NA,NA,,,NA,NA,,,NA
2370,LBR,Liberia,estimated location of Event 2370,"6,86","-10,8",10,0,0,60 km north of Monrovia,1992-08-17,1992-08-27,1,in the last week,Fighting,Fighting,At least 1500 killed,0,,1500,1500,4,4,0,0,328,0,0,0,National Patriotic Front of Liberia (NPFL),National Patriotic Front of Liberia (NPFL),Charles Taylor,315,0,0,0,United Liberation Movement for Democracy in Liberia,"The United Liberation Movement of Liberia for Democracy (ULIMO) was a rebel group that participated in the First Liberian Civil War (1989-1996)/From its outset, ULIMO was beset with internal divisions and the group effectively broke into two separate militias in 1994: ULIMO-J, an ethnic Krahn faction led by General Roosevelt Johnson and ULIMO-K, a Mandingo-based faction led by Alhaji G/V/ Kromah/",,NA,0,NA,0,,,,NA,0,NA,0,,,,NA,0,NA,0,,,,NA,0,NA,0,,,,NA,0,NA,0,,,,84,22/08/1992,BBC Monitoring,0,84,28/08/1992,BBC Monitoring,0,NA,,,NA,NA,,,NA,NA,,,NA,NA,,,NA,NA,,,NA,NA,,,NA,NA,,,NA,NA,,,NA,NA,,,NA,NA,,,NA,NA,,,NA,NA,,,NA,NA,,,NA,NA,,,NA
2371,LBR,Liberia,estimated location of Event 2371,"6,67","-10,8",10,0,0,40 km north of Monrovia,1992-08-28,1992-08-28,0,,One-sided attack,Conventional use of force,Red Cross worker died,0,,1,1,0,0,1,1,171,0,0,0,Red Cross / Red Crescent,International Federation of Red Cross and Red Crescent Societies  - local branch (in some cases might be ICRC because sources do not distinct between those two organizations),,11,1,0,0,Unspecified actor,Unspecified actor,,NA,0,NA,0,,,,NA,0,NA,0,,,,NA,0,NA,0,,,,NA,0,NA,0,,,,NA,0,NA,0,,,,84,29/08/1992,The Guardian,0,84,01/09/1992,The Guardian,0,84,01/09/1992,BBC Monitoring,0,NA,,,NA,NA,,,NA,NA,,,NA,NA,,,NA,NA,,,NA,NA,,,NA,NA,,,NA,NA,,,NA,NA,,,NA,NA,,,NA,NA,,,NA,NA,,,NA,NA,,,NA
2407,LBR,Liberia,Carter Camp,"6,28","-10,36",0,10,0,"35-50 km north of Monrovia, Carter camp near abandoned Firestone complex, in Dolo, near Harbel",1993-06-06,1993-06-06,0,,Unclear,Unclear,hundreds Liberian refugees killed by rebels,1,estimate in reports,547,600,547,600,0,0,328,0,0,1,National Patriotic Front of Liberia (NPFL),National Patriotic Front of Liberia (NPFL),Charles Taylor,25,0,0,0,Civilian(s),Civilian(s),,367,1,0,1,Krahn tribe,Krahn tribe of Presindent Samuel Doe,Samuel Doe,NA,0,NA,0,,,,NA,0,NA,0,,,,NA,0,NA,0,,,,NA,0,NA,0,,,,85,07/06/1993,New York Times,0,85,08/06/1993,New York Times,0,85,08/06/1993,The Guardian,0,85,08/06/1993,BBC Monitoring,0,85,11/06/1993,New York Times,0,85,13/06/1993,New York Times,0,85,19/09/1993,BBC Monitoring,0,NA,,,NA,NA,,,NA,NA,,,NA,NA,,,NA,NA,,,NA,NA,,,NA,NA,,,NA,NA,,,NA,NA,,,NA
2432,LBR,Liberia,estimated location of event 2432,"5,78","-9,9",10,0,0,south east of Buchanan,1994-08-06,1994-08-06,1,last week,Fighting,Fighting,At least 15 civilians killed through fighting of NPFL and LPC,0,,15,15,15,15,0,0,328,0,0,0,National Patriotic Front of Liberia (NPFL),National Patriotic Front of Liberia (NPFL),Charles Taylor,385,0,0,0,Liberian Peace Council (LPC),Liberian Peace Council (LPC),,NA,0,NA,0,,,,NA,0,NA,0,,,,NA,0,NA,0,,,,NA,0,NA,0,,,,NA,0,NA,0,,,,86,09/08/1994,BBC Monitoring,0,NA,,,NA,NA,,,NA,NA,,,NA,NA,,,NA,NA,,,NA,NA,,,NA,NA,,,NA,NA,,,NA,NA,,,NA,NA,,,NA,NA,,,NA,NA,,,NA,NA,,,NA,NA,,,NA,NA,,,NA
2436,LBR,Liberia,estimated location of event 2436,"6,81","-10,8",10,0,0,55 km north of Monrovia,1994-09-12,1994-09-12,0,,Fighting,Fighting,3 Tanzanian ECOMOG soldiers killed,0,,2,3,0,0,2,3,321,0,0,0,ECOMOG,"ECOMOG, Community of West African States Monitoring Group",,316,0,0,0,Ulimo-K,"Ulimo-K, United Liberation Movement of Liberia for Democracy, Kromah faction",Alhaji G/V/ Kromah/,NA,0,NA,0,,,,NA,0,NA,0,,,,NA,0,NA,0,,,,NA,0,NA,0,,,,NA,0,NA,0,,,,86,19/09/1994,BBC Monitoring,0,86,20/09/1994,BBC Monitoring,0,86,22/09/1994,BBC Monitoring,0,NA,,,NA,NA,,,NA,NA,,,NA,NA,,,NA,NA,,,NA,NA,,,NA,NA,,,NA,NA,,,NA,NA,,,NA,NA,,,NA,NA,,,NA,NA,,,NA,NA,,,NA
2466,LBR,Liberia,estimated location of event 2466,"5,88","-9,8",30,0,0,midpoint of several named locations with a respective buffer,2003-10-28,2003-10-28,1,Source date,One-sided attack,Unclear,Atrocities,0,,4,4,4,4,0,0,386,1,NA,0,Movement for Democracy in Liberia (MODEL),Movement for Democracy in Liberia (MODEL ),,681,0,NA,0,Teacher,Teacher,,NA,0,NA,0,,,,NA,0,NA,0,,,,NA,0,NA,0,,,,NA,0,NA,0,,,,NA,0,NA,0,,,,95,28/10/2003,BBC Monitoring,0,NA,,,NA,NA,,,NA,NA,,,NA,NA,,,NA,NA,,,NA,NA,,,NA,NA,,,NA,NA,,,NA,NA,,,NA,NA,,,NA,NA,,,NA,NA,,,NA,NA,,,NA,NA,,,NA,NA,,,NA
2502,LBR,Liberia,Firestone Plantation,"6,4","-10,37",0,0,0,,2006-09-08,2006-09-08,1,Source date used,One-sided attack,Unclear,Employees of Firestone have been killed,0,,7,7,7,7,0,0,13,1,0,0,Bandits/criminals/gunmen,Bandits/criminals/gunmen,,25,0,0,0,Civilian(s),Civilian(s),,NA,0,NA,0,,,,NA,0,NA,0,,,,NA,0,NA,0,,,,NA,0,NA,0,,,,NA,0,NA,0,,,,98,08/09/2006,BBC Monitoring,0,NA,,,NA,NA,,,NA,NA,,,NA,NA,,,NA,NA,,,NA,NA,,,NA,NA,,,NA,NA,,,NA,NA,,,NA,NA,,,NA,NA,,,NA,NA,,,NA,NA,,,NA,NA,,,NA,NA,,,NA
2507,LBR,Liberia,estimated location of event 2507,"7,93","-9,92",80,0,0,"""border town of Kavindu
in Lofa County""",2007-08-29,2007-08-29,0,,One-sided attack,Unclear,One left dead after robbery,0,,1,1,1,1,0,0,13,1,0,0,Bandits/criminals/gunmen,Bandits/criminals/gunmen,,25,0,0,0,Civilian(s),Civilian(s),,NA,0,NA,0,,,,NA,0,NA,0,,,,NA,0,NA,0,,,,NA,0,NA,0,,,,NA,0,NA,0,,,,99,03/09/2007,BBC Monitoring,0,NA,,,NA,NA,,,NA,NA,,,NA,NA,,,NA,NA,,,NA,NA,,,NA,NA,,,NA,NA,,,NA,NA,,,NA,NA,,,NA,NA,,,NA,NA,,,NA,NA,,,NA,NA,,,NA,NA,,,NA
5461,LBR,Liberia,"Estimated location of Nyuaneewien, situated northeastern Margibi County bordering Grand Bassa County","6,536","-9,905",25,0,0,"Nyuaneewien, situated northeastern Margibi County bordering Grand Bassa County",2008-06-07,2008-06-07,0,,One-sided attack,Use of small firearms,Land dispute in south-central Liberia,0,,14,14,0,0,0,0,538,1,NA,0,Local population,Local population,,655,0,NA,0,Farm worker,Farm worker,,NA,0,NA,0,,,,NA,0,NA,0,,,,NA,0,NA,0,,,,NA,0,NA,0,,,,NA,0,NA,0,,,,100,12/06/2008,BBC Monitoring,0,100,13/06/2008,BBC Monitoring,0,100,24/06/2008,BBC Monitoring,0,NA,,,NA,NA,,,NA,NA,,,NA,NA,,,NA,NA,,,NA,NA,,,NA,NA,,,NA,NA,,,NA,NA,,,NA,NA,,,NA,NA,,,NA,NA,,,NA,NA,,,NA